{"version": 0.6, "generator": "Overpass API 0.7.60.2 e4cf9f7a", "osm3s": {"timestamp_osm_base": "2023-04-29T12:57:54Z", "copyright": "The data included in this document is from www.openstreetmap.org. The data is made available under ODbL."}, "elements": [{"type": "node", "id": 256743940, "lat": 50.9520962, "lon": 6.9542983, "tags": {"amenity": "restaurant", "bar": "yes", "cuisine": "international", "diet:vegan": "yes", "diet:vegetarian": "yes", "level": "0", "name": "Alte Feuerwache", "operator": "Lokal Alte Feuerwache 1989 GmbH", "outdoor_seating": "yes", "payment:cash": "yes", "payment:credit_cards": "yes", "payment:debit_cards": "yes", "phone": "+49 221 737393", "ref:vatin": "DE216398573", "toilets": "yes", "toilets:wheelchair": "yes", "website": "https://feuerwache.lokal-koeln.com/", "wheelchair": "yes", "wheelchair:description": "super freundliches Personal coole Location"}}, {"type": "node", "id": 265730572, "lat": 50.9372516, "lon": 6.9324013, "tags": {"addr:city": "K\u00f6ln", "addr:housenumber": "79", "addr:postcode": "50674", "addr:street": "Moltkestra\u00dfe", "amenity": "restaurant", "name": "Bistro Lotus", "toilets:wheelchair": "yes", "wheelchair": "yes"}}, {"type": "node", "id": 266044615, "lat": 50.941115, "lon": 6.9373856, "tags": {"amenity": "restaurant", "contact:phone": "+49 221 8000581", "contact:website": "http://www.oshos-place.de", "diet:vegan": "yes", "diet:vegetarian": "only", "name": "Osho's Place", "opening_hours": "Su-Th 08:00-22:30, Fr-Sa 08:00-00:00", "smoking": "outside", "toilets:wheelchair": "no", "wheelchair": "limited"}}, {"type": "node", "id": 283770291, "lat": 50.9491272, "lon": 6.9495782}, {"type": "node", "id": 283770294, "lat": 50.9492876, "lon": 6.9494406}, {"type": "node", "id": 283770297, "lat": 50.9493266, "lon": 6.9495408}, {"type": "node", "id": 283770305, "lat": 50.9490324, "lon": 6.9496702}, {"type": "node", "id": 286414930, "lat": 50.9419412, "lon": 6.9358066, "tags": {"amenity": "restaurant", "name": "Piccola"}}, {"type": "node", "id": 286505320, "lat": 50.9457347, "lon": 6.9403605, "tags": {"addr:city": "K\u00f6ln", "addr:country": "DE", "addr:housenumber": "16", "addr:postcode": "50672", "addr:street": "Gladbacher Stra\u00dfe", "amenity": "restaurant", "cuisine": "spanish", "name": "Al Andalus", "source": "knowledge"}}, {"type": "node", "id": 289728800, "lat": 50.9489476, "lon": 6.9494524, "tags": {"addr:city": "K\u00f6ln", "addr:country": "DE", "addr:housenumber": "111", "addr:postcode": "50670", "addr:street": "Maybachstra\u00dfe", "entrance": "yes", "source": "photography"}}, {"type": "node", "id": 303559015, "lat": 50.940053, "lon": 6.9332039, "tags": {"addr:housenumber": "63", "addr:postcode": "50672", "addr:street": "Antwerpener Stra\u00dfe", "amenity": "restaurant", "cuisine": "japanese", "diet:vegan": "yes", "diet:vegetarian": "yes", "name": "Takumi Chicken & Vegan", "opening_hours": "Mo-Sa 12:00-22:00; PH,Su 13:00-22:00"}}, {"type": "node", "id": 304536338, "lat": 50.9551026, "lon": 6.956506, "tags": {"addr:housenumber": "87", "addr:street": "Neusser Stra\u00dfe", "amenity": "restaurant", "cuisine": "regional", "email": "info@schelds-em-oellig.koeln", "name": "Schelds em Oellig", "old_name": "Reissdorf em Oellig", "opening_hours": "Tu-Sa 17:00-24:00; Su 12:00-15:00,17:00-24:00", "phone": "+49 221 13970707", "ref:vatin": "DE815717297", "start_date": "2015-11-25", "website": "https://www.schelds-restaurant-koeln.de/", "wheelchair": "limited"}}, {"type": "node", "id": 306083135, "lat": 50.9443978, "lon": 6.9561426, "tags": {"amenity": "restaurant", "cuisine": "italian", "name": "Luciano", "opening_hours": "Mo-Sa 12:00-15:00,18:30-23:30", "source": "photography"}}, {"type": "node", "id": 306083150, "lat": 50.9442907, "lon": 6.9561589, "tags": {"amenity": "restaurant", "name": "Da Damiano", "source": "photography"}}, {"type": "node", "id": 306098533, "lat": 50.9434984, "lon": 6.9541407, "tags": {"amenity": "restaurant", "name": "La Gazetta", "wheelchair": "yes"}}, {"type": "node", "id": 311119696, "lat": 50.9524847, "lon": 6.9535861, "tags": {"addr:city": "K\u00f6ln", "addr:housenumber": "19", "addr:postcode": "50670", "addr:street": "Balthasarstra\u00dfe", "amenity": "restaurant", "name": "Metzger & Marie", "opening_hours": "Th-Mo 18:30-24:00", "website": "http://www.metzgermarie.de/", "wheelchair": "limited"}}, {"type": "node", "id": 311122513, "lat": 50.9554684, "lon": 6.9637203, "tags": {"addr:city": "K\u00f6ln", "addr:country": "DE", "addr:housenumber": "73", "addr:postcode": "50668", "addr:street": "Blumenthalstra\u00dfe", "amenity": "restaurant", "cuisine": "italian", "name": "San Calogero", "opening_hours": "Su-Fr 11:45-14:30,18:00-23:30; Sa 17:30-23:30", "outdoor_seating": "yes", "phone": "+49 221 728311", "wheelchair": "limited"}}, {"type": "node", "id": 311293547, "lat": 50.9380916, "lon": 6.9340632, "tags": {"addr:city": "K\u00f6ln", "addr:country": "DE", "addr:housenumber": "9", "addr:postcode": "50674", "addr:street": "Br\u00fcsseler Platz", "amenity": "restaurant", "internet_access": "wlan", "name": "Hallmackenreuther", "outdoor_seating": "yes", "phone": "+49221517970", "toilets:wheelchair": "no", "wheelchair": "limited"}}, {"type": "node", "id": 311642772, "lat": 50.9462382, "lon": 6.9612876, "tags": {"addr:city": "K\u00f6ln", "addr:housenumber": "61", "addr:postcode": "50668", "addr:street": "Machab\u00e4erstra\u00dfe", "amenity": "restaurant", "cuisine": "pizza;italian;pasta", "name": "Mangia e Vai", "opening_hours": "Mo-Fr 10:30-22:45, Sa-Su 13:00-22:45", "outdoor_seating": "seasonal", "phone": "+49 221 92299622", "wheelchair": "limited"}}, {"type": "node", "id": 340252305, "lat": 50.9474492, "lon": 6.9451369, "tags": {"addr:housenumber": "1", "addr:postcode": "50670", "addr:street": "Im Mediapark", "amenity": "restaurant", "brand": "Vapiano", "brand:wikidata": "Q506252", "brand:wikipedia": "en:Vapiano", "cuisine": "italian", "delivery": "yes", "name": "Vapiano", "opening_hours": "Mo-Su 11:00-24:00", "outdoor_seating": "yes", "smoking": "outside", "takeaway": "yes", "toilets:wheelchair": "yes", "website": "https://de.vapiano.com", "wheelchair": "yes"}}, {"type": "node", "id": 352671656, "lat": 50.944999, "lon": 6.9583467, "tags": {"amenity": "restaurant", "cuisine": "asian", "name": "Maki", "opening_hours": "Mo-Sa 12:00-23:00; PH,Su 14:00-23:00"}}, {"type": "node", "id": 352671657, "lat": 50.9451765, "lon": 6.958204, "tags": {"addr:city": "K\u00f6ln", "addr:country": "DE", "addr:housenumber": "4", "addr:postcode": "50668", "addr:street": "Maximinenstra\u00dfe", "amenity": "restaurant", "cuisine": "chinese", "delivery": "yes", "name": "Tang Wang", "opening_hours": "Mo-Fr,Su 11:30-15:00,17:30-23:00; Sa 11:30-23:00", "phone": "+49 221 82956288", "toilets:wheelchair": "no", "website": "https://www.tangwang.de/", "wheelchair": "no"}}, {"type": "node", "id": 358503972, "lat": 50.9522863, "lon": 6.9521307, "tags": {"amenity": "restaurant", "cuisine": "spanish", "name": "Salera", "opening_hours": "Mo-Su 18:00-24:00", "operator": "Beatrix Kayser", "phone": "+4922116842623", "smoking": "no", "website": "https://www.salera-restaurant.de/", "wheelchair": "limited"}}, {"type": "node", "id": 358504445, "lat": 50.9539065, "lon": 6.9576489, "tags": {"amenity": "restaurant", "cuisine": "italian;pizza", "name": "Piccola", "wheelchair": "limited"}}, {"type": "node", "id": 387293246, "lat": 50.9415946, "lon": 6.9508344, "tags": {"amenity": "restaurant", "cuisine": "italian", "email": "due@sansone.de", "name": "Sansone Due", "opening_hours": "Mo-Su, PH 12:00-23:30", "phone": "+49 221 124444", "source": "photography", "website": "https://www.sansone.de/"}}, {"type": "node", "id": 409740992, "lat": 50.9477967, "lon": 6.9448242, "tags": {"addr:postcode": "50670", "amenity": "restaurant", "brand": "Hans im Gl\u00fcck", "brand:wikidata": "Q22569868", "brand:wikipedia": "de:Hans im Gl\u00fcck (Restaurantkette)", "cuisine": "burger", "name": "Hans im Gl\u00fcck", "source": "photography", "toilets:wheelchair": "yes", "website": "https://hansimglueck-burgergrill.de", "wheelchair": "no"}}, {"type": "node", "id": 409740993, "lat": 50.9486521, "lon": 6.9448012, "tags": {"amenity": "restaurant", "name": "Kandinsky", "source": "photography", "toilets:wheelchair": "no", "wheelchair": "limited"}}, {"type": "node", "id": 409740994, "lat": 50.94787, "lon": 6.9424835, "tags": {"amenity": "restaurant", "name": "Concerto", "source": "photography", "wheelchair": "yes"}}, {"type": "node", "id": 409741002, "lat": 50.9479393, "lon": 6.9429795, "tags": {"amenity": "restaurant", "name": "Osman", "smoking": "no", "source": "photography", "website": "http://www.osman-cologne.de/", "wheelchair": "yes"}}, {"type": "node", "id": 411193606, "lat": 50.9414524, "lon": 6.9372634, "tags": {"addr:city": "K\u00f6ln", "addr:country": "DE", "addr:housenumber": "8-10", "addr:postcode": "50672", "addr:street": "Venloer Stra\u00dfe", "amenity": "restaurant", "check_date:opening_hours": "2021-01-31", "contact:phone": "+49 221 5108930", "cuisine": "italian", "diet:vegan": "no", "diet:vegetarian": "yes", "name": "Montanara", "opening_hours": "Mo-Fr 12:00-23:30, Sa 12:00-23:30; Su 17:00-23:30", "wheelchair": "no"}}, {"type": "node", "id": 411194409, "lat": 50.9409531, "lon": 6.9347466, "tags": {"addr:city": "K\u00f6ln", "addr:housenumber": "39a", "addr:postcode": "50672", "addr:street": "Bismarckstra\u00dfe", "amenity": "restaurant", "name": "Alcazar", "phone": "+49-221-515733", "website": "http://www.alcazar-koeln.de/", "wheelchair": "yes"}}, {"type": "node", "id": 424300863, "lat": 50.9549996, "lon": 6.9655831, "tags": {"amenity": "restaurant", "cuisine": "asian", "name": "Blumenthal Wok", "wheelchair": "yes"}}, {"type": "node", "id": 424300867, "lat": 50.9553537, "lon": 6.9648355, "tags": {"addr:housenumber": "87", "addr:postcode": "50668", "addr:street": "Blumenthalstra\u00dfe", "amenity": "restaurant", "cuisine": "german", "name": "Blumenthaler", "wheelchair": "limited"}}, {"type": "node", "id": 424404688, "lat": 50.9521387, "lon": 6.9525038, "tags": {"amenity": "restaurant", "cuisine": "vietnamese", "email": "vietcorner.koeln@gmail.com", "name": "Wetcorner", "outdoor_seating": "yes", "phone": "+491795633636", "reservation": "yes", "website": "https://viet-corner.de/"}}, {"type": "node", "id": 424440128, "lat": 50.9541563, "lon": 6.963749, "tags": {"addr:city": "K\u00f6ln", "addr:country": "DE", "addr:housenumber": "2", "addr:postcode": "50668", "addr:street": "Merlostra\u00dfe", "amenity": "restaurant", "cuisine": "turkish", "name": "Tantuni Kebap Restaurant", "wheelchair": "limited"}}, {"type": "node", "id": 444111695, "lat": 50.9393192, "lon": 6.9453393, "tags": {"addr:city": "K\u00f6ln", "addr:country": "DE", "addr:housenumber": "17", "addr:postcode": "50667", "addr:street": "St.-Apern-Stra\u00dfe", "amenity": "restaurant", "name": "Hase", "opening_hours": "Mo 12:00-24:00; Th-Sa 00:00-01:00,12:00-24:00; Su 00:00-00:01", "phone": "+49221 25 4375", "wheelchair": "yes"}}, {"type": "node", "id": 444111700, "lat": 50.9397408, "lon": 6.9461814, "tags": {"amenity": "restaurant", "name": "Orangerie", "outdoor_seating": "yes", "phone": "+49 221 2093 0", "website": "https://stadthotel-roemerturm.de/restaurant/"}}, {"type": "node", "id": 444326406, "lat": 50.9400783, "lon": 6.9446823, "tags": {"addr:city": "K\u00f6ln", "addr:country": "DE", "addr:housenumber": "3", "addr:postcode": "50672", "addr:street": "Magnusstra\u00dfe", "amenity": "restaurant", "cuisine": "italian", "name": "Ristorante La Vita", "website": "http://www.lavita-koeln.de/"}}, {"type": "node", "id": 446900801, "lat": 50.9445729, "lon": 6.9559171, "tags": {"amenity": "restaurant", "cuisine": "italian", "name": "La Cantina Da Pasquale", "wheelchair": "limited"}}, {"type": "node", "id": 448300890, "lat": 50.9379288, "lon": 6.9421976, "tags": {"amenity": "restaurant", "cuisine": "alsatian", "email": "romain@wackes-weinstube.de", "name": "Wackes", "note": "Els\u00e4ssische Stube", "phone": "+49 221 2573456", "website": "https://www.wackes-weinstube.de/", "wheelchair": "no"}}, {"type": "node", "id": 448300898, "lat": 50.9379012, "lon": 6.9423832, "tags": {"amenity": "restaurant", "cuisine": "italian", "name": "Via Bene", "website": "http://www.viabene.com/"}}, {"type": "node", "id": 448300900, "lat": 50.9378807, "lon": 6.9422012, "tags": {"amenity": "restaurant", "name": "engler's", "website": "http://www.englerskoeln.de/", "wheelchair": "no"}}, {"type": "node", "id": 448400517, "lat": 50.9382137, "lon": 6.9402967, "tags": {"amenity": "restaurant", "bar": "yes", "cafe": "yes", "name": "Cafe Waschsalon", "opening_hours": "Su-Th 10:00-01:00, Fr-Sa 10:00-03:00", "outdoor_seating": "yes", "phone": "+49 221 133378", "smoking": "yes", "website": "http://www.cafe-waschsalon.de/index.php", "wheelchair": "limited"}}, {"type": "node", "id": 448400641, "lat": 50.9376032, "lon": 6.9414798, "tags": {"addr:city": "K\u00f6ln", "addr:housenumber": "31-35", "addr:postcode": "50672", "addr:street": "Pfeilstra\u00dfe", "amenity": "restaurant", "level": "0", "name": "Henne Weinbar Restaurant", "phone": "+49 221 34662647", "website": "https://www.henne-weinbar.de"}}, {"type": "node", "id": 497691568, "lat": 50.9530509, "lon": 6.9570104, "tags": {"amenity": "restaurant", "description": "Wiederer\u00f6ffnet ab 15.06.2017", "name": "St\u00fcssers Brauhaus", "smoking": "yes", "wheelchair": "limited"}}, {"type": "node", "id": 570202455, "lat": 50.9409945, "lon": 6.944325, "tags": {"addr:city": "K\u00f6ln", "addr:country": "DE", "addr:housenumber": "16", "addr:postcode": "50670", "addr:street": "Friesenstra\u00dfe", "amenity": "restaurant", "cuisine": "japanese", "email": "k-info@kintaro.de", "name": "Kintaro", "opening_hours": "Tu-Sa 12:00-14:00,18:30-23:00; PH 18:30-23:00; Su,Mo off", "phone": "+49 221 135255", "website": "https://www.kintaro.de/"}}, {"type": "node", "id": 570202874, "lat": 50.9406512, "lon": 6.943189, "tags": {"amenity": "restaurant", "brewery": "San Miguel", "cuisine": "spanish;tapas", "description": "Tapas Bar", "name": "La Bodega", "phone": "+49 221 2573610", "website": "http://www.la-bodega-koeln.de/", "wheelchair": "no"}}, {"type": "node", "id": 570203749, "lat": 50.9407362, "lon": 6.941789, "tags": {"air_conditioning": "no", "amenity": "restaurant", "bar": "yes", "brand": "P\u00e4ffgen", "brewery": "yes", "cuisine": "regional", "internet_access": "no", "microbrewery": "yes", "name": "Brauerei P\u00e4ffgen", "phone": "+49 221 135461", "toilets:wheelchair": "no", "website": "http://www.paeffgen-koelsch.de/", "wheelchair": "limited", "wikidata": "Q152198", "wikipedia": "de:P\u00e4ffgen K\u00f6lsch"}}, {"type": "node", "id": 570292916, "lat": 50.9405875, "lon": 6.9429384, "tags": {"amenity": "restaurant", "cuisine": "brazilian", "name": "Maracana Rodizio", "opening_hours": "Mo-Su 17:00-24:00", "phone": "+49 221 7891822", "website": "http://www.maracana-rodizio-restaurant.de/"}}, {"type": "node", "id": 570354073, "lat": 50.9417256, "lon": 6.9413986, "tags": {"addr:city": "K\u00f6ln", "addr:country": "DE", "addr:housenumber": "1a", "addr:postcode": "50672", "addr:street": "Hildeboldplatz", "amenity": "restaurant", "contact:phone": "+49 221 337 66667", "contact:website": "http://www.akira-jp.de", "cuisine": "japanese", "name": "Akira", "opening_hours": "Mo-Fr 12:00-15:00, 18:00-23:00; Sa 18:00-23:00", "operator": "Kozue Matsuda", "wheelchair": "limited"}}, {"type": "node", "id": 571787802, "lat": 50.9401643, "lon": 6.9412066, "tags": {"addr:postcode": "50672", "amenity": "restaurant", "cuisine": "italian", "email": "trattoria@casa-di-modica.de", "name": "Casa di Modica", "opening_hours": "Mo-Sa 12:00-15:00,18:00-22:30", "phone": "+49 221 277 996 56;+49 177 571 959 4", "website": "https://www.casa-di-modica.de/"}}, {"type": "node", "id": 581883283, "lat": 50.9406247, "lon": 6.9427722, "tags": {"amenity": "restaurant", "cuisine": "ramen", "name": "Takeichi", "opening_hours": "Mo-Th 12:00-15:00,17:00-22:00; Fr-Sa 13:00-03:00; Su 12:00-21:00", "phone": "+49 221 94999990", "website": "http://www.sushiou.de"}}, {"type": "node", "id": 581886039, "lat": 50.9370607, "lon": 6.9388324, "tags": {"amenity": "restaurant", "bar": "yes", "cafe": "yes", "name": "La Strada", "outdoor_seating": "yes", "website": "https://www.lastrada-koeln.de", "wheelchair": "limited"}}, {"type": "node", "id": 581887829, "lat": 50.938092, "lon": 6.934807, "tags": {"addr:city": "K\u00f6ln", "addr:country": "DE", "addr:housenumber": "68", "addr:postcode": "50674", "addr:street": "Br\u00fcsseler Stra\u00dfe", "amenity": "restaurant", "cuisine": "greek", "description": "Tapas", "name": "Ouzeria", "phone": "+49221513998", "website": "http://www.ouzeria-koeln.de", "wheelchair": "no"}}, {"type": "node", "id": 582654465, "lat": 50.9380934, "lon": 6.9388998, "tags": {"addr:city": "K\u00f6ln", "addr:country": "DE", "addr:street": "Hohenzollernring", "amenity": "restaurant", "cuisine": "italian", "name": "Buon Giorno", "outdoor_seating": "yes", "smoking": "no", "website": "http://buongiorno-koeln.de", "wheelchair": "limited"}}, {"type": "node", "id": 585338792, "lat": 50.9382094, "lon": 6.9348871, "tags": {"addr:city": "K\u00f6ln", "addr:country": "DE", "addr:housenumber": "70", "addr:postcode": "50674", "addr:street": "Br\u00fcsseler Stra\u00dfe", "amenity": "restaurant", "name": "C.C. Kowalski", "old_name": "Candia", "opening_hours": "Mo-Sa 11:30-24:00", "phone": "+49 221 56961000", "website": "https://cckowalski.de/"}}, {"type": "node", "id": 585351046, "lat": 50.936641, "lon": 6.934789, "tags": {"addr:city": "K\u00f6ln", "addr:country": "DE", "addr:housenumber": "52", "addr:postcode": "50674", "addr:street": "Aachener Stra\u00dfe", "amenity": "restaurant", "food": "yes", "name": "Herr Pimock", "outdoor_seating": "yes", "phone": "+49221511866", "takeaway": "yes", "website": "http://www.herr-pimock.de", "wheelchair": "limited"}}, {"type": "node", "id": 631093362, "lat": 50.9407328, "lon": 6.9416088, "tags": {"amenity": "restaurant", "cuisine": "sushi", "diet:vegetarian": "yes", "name": "Sushi Nara", "opening_hours": "Mo-Sa 12:00-15:00,18:00-22:00", "phone": "+49 221 120170", "wheelchair": "limited"}}, {"type": "node", "id": 643554476, "lat": 50.9492379, "lon": 6.9593426, "tags": {"addr:city": "K\u00f6ln", "addr:country": "DE", "addr:housenumber": "82", "addr:postcode": "50668", "addr:street": "Domstra\u00dfe", "amenity": "restaurant", "cuisine": "indian", "name": "Namaste", "opening_hours": "We-Mo 12:00-23:00; Tu off", "phone": "+49 221 92278908", "smoking": "no", "website": "https://namaste-k\u00f6ln.de/"}}, {"type": "node", "id": 648411961, "lat": 50.93777, "lon": 6.9344588, "tags": {"addr:city": "K\u00f6ln", "addr:country": "DE", "addr:housenumber": "53", "addr:postcode": "50674", "addr:street": "Br\u00fcsseler Stra\u00dfe", "amenity": "restaurant", "cuisine": "burmese", "name": "Mandalay", "opening_hours": "We-Mo 19:00-24:00; Tu off", "phone": "+492215101296", "website": "http://www.mandalay-koeln.de", "wheelchair": "no"}}, {"type": "node", "id": 651013823, "lat": 50.9407392, "lon": 6.9420719, "tags": {"amenity": "restaurant", "check_date:opening_hours": "2022-07-07", "cuisine": "regional", "name": "Heising und Adelmann", "opening_hours": "Tu-Sa 18:00-22:30; Mo,Su off", "phone": "+49 221 1309424", "website": "http://www.heising-und-adelmann.de", "wheelchair": "no"}}, {"type": "node", "id": 653935427, "lat": 50.9443694, "lon": 6.9436532, "tags": {"addr:city": "K\u00f6ln", "addr:country": "DE", "addr:housenumber": "44", "addr:postcode": "50670", "addr:street": "Christophstra\u00dfe", "amenity": "restaurant", "cuisine": "german", "name": "Jan von Werth", "opening_hours": "Mo-Fr 11:00-24:00;Sa,Su 17:00-24:00; PH 17:00-24:00", "toilets:wheelchair": "no", "website": "http://www.gasthaus-janvonwerth.de", "website:menu": "https://www.jan-von-werth.com/fileadmin/user_upload/SpeisekarteJanvonWerth.pdf", "wheelchair": "limited"}}, {"type": "node", "id": 655166543, "lat": 50.9438344, "lon": 6.9482402, "tags": {"amenity": "restaurant", "delivery": "no", "kitchen": "vegan", "name": "little green kitchen", "opening_hours": "Mo-Fr 08:00-16:00", "outdoor_seating": "yes", "source": "knowlege", "takeaway": "yes"}}, {"type": "node", "id": 661213734, "lat": 50.941447, "lon": 6.9338887}, {"type": "node", "id": 661213735, "lat": 50.9414939, "lon": 6.9339075}, {"type": "node", "id": 661213736, "lat": 50.9414935, "lon": 6.9341882}, {"type": "node", "id": 661213738, "lat": 50.9415087, "lon": 6.9341193}, {"type": "node", "id": 695961315, "lat": 50.9531233, "lon": 6.9655897, "tags": {"addr:city": "K\u00f6ln", "addr:housenumber": "32", "addr:postcode": "50668", "addr:street": "Clever Stra\u00dfe", "amenity": "restaurant", "cuisine": "italian", "email": "tisch@nadakoeln.de", "name": "Nada", "opening_hours": "Mo-Sa 17:00+; Su,PH off", "phone": "+49 221 88899944", "website": "https://www.nadakoeln.de/", "wheelchair": "no"}}, {"type": "node", "id": 770600770, "lat": 50.948297, "lon": 6.9597806, "tags": {"amenity": "restaurant", "name": "L. Fritz im Hopper", "toilets:wheelchair": "no", "wheelchair": "yes"}}, {"type": "node", "id": 837941826, "lat": 50.9411219, "lon": 6.9457842, "tags": {"addr:city": "K\u00f6ln", "addr:country": "DE", "addr:housenumber": "1", "addr:postcode": "50670", "addr:street": "Steinfelder Gasse", "amenity": "restaurant", "cuisine": "chinese", "name": "Ginger", "opening_hours": "Mo-Sa 11:30-15:00,17:30-23:00; PH,Su off", "phone": "+49 221 16924913", "website": "https://restaurant-ginger.de/", "wheelchair": "no"}}, {"type": "node", "id": 861410587, "lat": 50.94624, "lon": 6.9385083, "tags": {"addr:city": "K\u00f6ln", "addr:country": "DE", "addr:housenumber": "39", "addr:postcode": "50672", "addr:street": "Gladbacher Stra\u00dfe", "amenity": "restaurant", "cuisine": "italian", "name": "Ristaurante Pinocchio", "opening_hours": "Su, Tu-Fr 12:00-14:00, 17:30-22:30; Sa 17:30-23:00", "phone": "+49 221 526819", "source": "knowledge", "website": "http://ristorante-pinocchio-koeln.com/", "wheelchair": "limited"}}, {"type": "node", "id": 885582260, "lat": 50.9504067, "lon": 6.9528705, "tags": {"addr:city": "K\u00f6ln", "addr:country": "DE", "addr:housenumber": "12", "addr:postcode": "50670", "addr:street": "Krefelder Stra\u00dfe", "amenity": "restaurant", "cuisine": "burger", "name": "menz' Burger", "toilets:wheelchair": "no", "wheelchair": "yes"}}, {"type": "node", "id": 894503553, "lat": 50.9376593, "lon": 6.938489, "tags": {"amenity": "restaurant", "cuisine": "spanish", "name": "Don Quijote"}}, {"type": "node", "id": 894503662, "lat": 50.9369915, "lon": 6.9377636, "tags": {"addr:housenumber": "18", "addr:postcode": "50674", "addr:street": "Flandrische Stra\u00dfe", "amenity": "restaurant", "cuisine": "steak_house", "name": "Steakhaus Colina", "opening_hours:signed": "no", "source": "colinakoeln.de", "toilets:wheelchair": "no", "website": "http://www.colinakoeln.de/", "wheelchair": "limited"}}, {"type": "node", "id": 897594972, "lat": 50.9366642, "lon": 6.9372911, "tags": {"amenity": "restaurant", "name": "Little Nonna"}}, {"type": "node", "id": 942678229, "lat": 50.9385677, "lon": 6.9350983, "tags": {"amenity": "restaurant", "cuisine": "asian", "entrance": "yes", "name": "Bali", "wheelchair": "no"}}, {"type": "node", "id": 960111956, "lat": 50.9499838, "lon": 6.9545117, "tags": {"addr:city": "K\u00f6ln", "addr:housenumber": "131", "addr:postcode": "50670", "addr:street": "Hansaring", "amenity": "restaurant", "name": "La Difference", "wheelchair": "no"}}, {"type": "node", "id": 960116360, "lat": 50.9507713, "lon": 6.9523118, "tags": {"addr:city": "K\u00f6ln", "addr:country": "DE", "addr:housenumber": "25", "addr:postcode": "50670", "addr:street": "Krefelder Stra\u00dfe", "amenity": "restaurant", "check_date:opening_hours": "2023-01-13", "contact:email": "info@le-moi.de", "contact:fax": "+49 221 93345324", "contact:phone": "+49 221 3996075", "contact:website": "https://lemoissonnier.de/", "cuisine": "french", "name": "Le Moissonnier", "opening_hours": "Tu-Th 12:00-15:00,18:30-24:00; Fr,Sa 12:00-15:00,19:00-24:00", "operator": "Vincent Moissonnier", "ref:vatin": "DE814484406", "reservation": "yes", "stars": "2"}}, {"type": "node", "id": 960118168, "lat": 50.948791, "lon": 6.956675, "tags": {"addr:city": "K\u00f6ln", "addr:country": "DE", "addr:housenumber": "121-123", "addr:street": "Eigelstein", "amenity": "restaurant", "cuisine": "german", "email": "boor@muehlenkoelsch.de", "name": "Em K\u00f6lsche Boor", "opening_hours": "Mo-Th 17:00-23:00; Fr 15:00-24:00; Sa 12:00-24:00; Su 12:00-22:00", "operator": "Brauerei zur Malzm\u00fchle Schwartz GmbH & Co. KG", "outdoor_seating": "yes", "payment:cash": "yes", "payment:maestro": "yes", "payment:mastercard": "yes", "payment:visa": "yes", "phone": "+49 221 135227", "reservation": "yes", "toilets:wheelchair": "no", "website": "http://www.koelscheboor.com", "wheelchair": "limited", "wikidata": "Q969673", "wikipedia": "de:Em K\u00f6lsche Boor"}}, {"type": "node", "id": 960119125, "lat": 50.9495004, "lon": 6.9564995, "tags": {"addr:city": "K\u00f6ln", "addr:country": "DE", "addr:housenumber": "2", "addr:postcode": "50668", "addr:street": "L\u00fcbecker Stra\u00dfe", "amenity": "restaurant", "contact:email": "hello@nuria-restaurant-koeln.de", "contact:facebook": "nuria.restaurant.koeln", "contact:instagram": "nuria_restaurant_koeln", "contact:phone": "+49 221 16996453", "contact:website": "https://www.nuria-restaurant-koeln.de", "cuisine": "oriental", "name": "Nuria", "opening_hours": "Tu-Sa 17:00-23:00; Su,Mo off", "opening_hours:kitchen": "Tu-Sa 17:00-22:00; Su,Mo off", "outdoor_seating": "yes", "wheelchair": "limited"}}, {"type": "node", "id": 960164597, "lat": 50.9491736, "lon": 6.9617057, "tags": {"addr:city": "K\u00f6ln", "addr:country": "DE", "addr:housenumber": "47", "addr:postcode": "50668", "addr:street": "Unter Kahlenhausen", "amenity": "restaurant", "name": "Max Stark", "website": "http://www.max-stark.de/", "wheelchair": "no"}}, {"type": "node", "id": 960166341, "lat": 50.9492029, "lon": 6.9613931, "tags": {"addr:city": "K\u00f6ln", "addr:country": "DE", "addr:housenumber": "62", "addr:postcode": "50668", "addr:street": "Th\u00fcrmchenswall", "amenity": "restaurant", "capacity": "50", "cuisine": "cuban;vietnamese", "name": "Viet K\u00fcche", "wheelchair": "limited"}}, {"type": "node", "id": 960172033, "lat": 50.9489733, "lon": 6.9534837, "tags": {"addr:city": "K\u00f6ln", "addr:country": "DE", "addr:housenumber": "76", "addr:postcode": "50668", "addr:street": "Weidengasse", "amenity": "restaurant", "cuisine": "italian", "name": "San Remo", "opening_hours": "Th-Tu 18:00-23:00; We off", "phone": "+49 221 121272", "toilets:wheelchair": "no", "website": "https://sanremo.jimdo.com/", "wheelchair": "limited"}}, {"type": "node", "id": 964861578, "lat": 50.9502816, "lon": 6.9533679, "tags": {"addr:city": "K\u00f6ln", "addr:country": "DE", "addr:housenumber": "148", "addr:postcode": "50670", "addr:street": "Maybachstra\u00dfe", "alt_name": "Bar Trattoria Celentano", "amenity": "restaurant", "bar": "yes", "cuisine": "italian", "name": "Celentano", "opening_hours": "Mo-Su 17:00-23:00", "phone": "+49 221 7393004", "pub": "yes", "tv": "yes", "website": "http://barcelentano.de/", "wheelchair": "limited"}}, {"type": "node", "id": 964864196, "lat": 50.9503802, "lon": 6.9557731, "tags": {"addr:city": "K\u00f6ln", "addr:country": "DE", "addr:housenumber": "149", "addr:postcode": "50670", "addr:street": "Hansaring", "amenity": "restaurant", "name": "Lo Sfizio", "wheelchair": "yes"}}, {"type": "node", "id": 964875612, "lat": 50.949337, "lon": 6.9621588, "tags": {"addr:city": "K\u00f6ln", "addr:country": "DE", "addr:housenumber": "2", "addr:postcode": "50668", "addr:street": "Clever Stra\u00dfe", "amenity": "restaurant", "cuisine": "pizza;italian", "name": "Papa Josef", "opening_hours": "Tu-Sa 11:30-23:00; Su 13:00-23:00", "phone": "+4922116934201", "website": "https://papa-josef.business.site/"}}, {"type": "node", "id": 964881352, "lat": 50.9558814, "lon": 6.9667214, "tags": {"addr:city": "K\u00f6ln", "addr:country": "DE", "addr:housenumber": "9", "addr:street": "Am Zuckerberg", "amenity": "restaurant", "name": "Dix", "wheelchair": "limited"}}, {"type": "node", "id": 965840365, "lat": 50.9538244, "lon": 6.9611075, "tags": {"addr:city": "K\u00f6ln", "addr:country": "DE", "addr:housenumber": "66", "addr:street": "Wei\u00dfenburgstra\u00dfe", "amenity": "restaurant", "breakfast": "yes", "email": "hallo@dieweissenburg.de", "name": "Weissenburg", "payment:cash": "yes", "payment:edenred": "yes", "payment:girocard": "yes", "payment:mastercard": "yes", "payment:sodexo": "yes", "payment:visa": "yes", "phone": "+49 221 7325580", "website": "https://dieweissenburg.de/", "wheelchair": "limited"}}, {"type": "node", "id": 982860523, "lat": 50.9414403, "lon": 6.933954}, {"type": "node", "id": 982860525, "lat": 50.9414708, "lon": 6.9340882}, {"type": "node", "id": 982860609, "lat": 50.9414202, "lon": 6.9341344}, {"type": "node", "id": 992862619, "lat": 50.9366028, "lon": 6.9368483, "tags": {"addr:city": "K\u00f6ln", "addr:housenumber": "16", "addr:postcode": "50674", "addr:street": "Aachener Stra\u00dfe", "amenity": "restaurant", "cuisine": "indian", "name": "Flavour of India", "phone": "+49 221 27846785", "toilets:wheelchair": "yes", "website": "http://www.indischer-curry-hut.de/", "wheelchair": "yes", "wheelchair:description": "Enges WC"}}, {"type": "node", "id": 1016468855, "lat": 50.940353, "lon": 6.9325684, "tags": {"addr:city": "K\u00f6ln", "addr:housenumber": "74", "addr:postcode": "50672", "addr:street": "Bismarckstra\u00dfe", "amenity": "restaurant", "cuisine": "italian", "email": "info@sullaterra.de", "name": "Sulla Terra", "opening_hours": "Mo-Th 11:30-15:00,17:00-24:00, Fr 11:30-15:00,17:00-01:00, Sa 17:00-01:00, Su 11:30-24:00", "phone": "+49-221-30081699", "source": "survey", "website": "http://www.sullaterra.de"}}, {"type": "node", "id": 1020616675, "lat": 50.9443389, "lon": 6.9429584, "tags": {"addr:city": "K\u00f6ln", "addr:country": "DE", "addr:housenumber": "41", "addr:postcode": "50670", "addr:street": "Christophstra\u00dfe", "amenity": "restaurant", "cuisine": "sushi", "indoor_seating": "yes", "name": "SushiOu", "outdoor_seating": "no", "wheelchair": "yes"}}, {"type": "node", "id": 1033499719, "lat": 50.9483406, "lon": 6.945307, "tags": {"amenity": "restaurant", "fixme": "Lt. https://www.gastroguide.de/restaurant/181834/citilounge/koeln/ \"vmtl. dauerhaft geschlossen\" und website funktioniert nicht mehr. Existiert das Lokal noch?", "name": "Citilounge", "website": "http://www.citilounge.de/"}}, {"type": "node", "id": 1033499758, "lat": 50.9481935, "lon": 6.945344, "tags": {"addr:city": "K\u00f6ln", "addr:housenumber": "4a", "addr:postcode": "50670", "addr:street": "Im Mediapark", "amenity": "restaurant", "cuisine": "sushi", "email": "info@mikado.restaurant", "name": "Mikado", "phone": "+49 221 42366292", "website": "https://mikado.restaurant/koeln-speisekarte/"}}, {"type": "node", "id": 1049672152, "lat": 50.9479412, "lon": 6.9476854, "tags": {"amenity": "restaurant", "cuisine": "italian", "name": "Mercato deluxe"}}, {"type": "node", "id": 1055344548, "lat": 50.9469122, "lon": 6.9447991, "tags": {"amenity": "restaurant", "cuisine": "brazilian", "name": "Pantanal Rodizio", "wheelchair": "yes"}}, {"type": "node", "id": 1055344611, "lat": 50.9470171, "lon": 6.9450849, "tags": {"amenity": "restaurant", "cuisine": "sushi", "name": "Sushien", "wheelchair": "no"}}, {"type": "node", "id": 1056777492, "lat": 50.9371193, "lon": 6.9347646, "tags": {"addr:city": "K\u00f6ln", "addr:housenumber": "54", "addr:postcode": "50674", "addr:street": "Br\u00fcsseler Stra\u00dfe", "amenity": "restaurant", "cuisine": "belgian", "name": "Belgischer Hof", "opening_hours": "Mo-Su,PH 18:00-01:00", "phone": "+4922154817017", "toilets:wheelchair": "no", "website": "http://www.belgischer-hof.de", "wheelchair": "yes"}}, {"type": "node", "id": 1057275869, "lat": 50.9490422, "lon": 6.9493597}, {"type": "node", "id": 1141113091, "lat": 50.951686, "lon": 6.957313, "tags": {"amenity": "restaurant", "cuisine": "italian", "internet_access": "wlan", "internet_access:fee": "no", "name": "La Antonio", "outdoor_seating": "yes", "smoking": "no", "wheelchair": "no"}}, {"type": "node", "id": 1141113099, "lat": 50.9520618, "lon": 6.9568995, "tags": {"addr:housenumber": "23", "addr:postcode": "50670", "addr:street": "Neusser Stra\u00dfe", "amenity": "restaurant", "cuisine": "german", "name": "Wirtshaus Spitz"}}, {"type": "node", "id": 1338523470, "lat": 50.9516106, "lon": 6.9546046, "tags": {"amenity": "restaurant", "capacity": "100", "cuisine": "greek", "name": "Diogenis", "opening_hours": "Su-Fr 12:00-24:00;Sa 17:00-24:00", "smoking": "outside", "toilets:wheelchair": "no", "website": "http://www.diogenis.de/", "wheelchair": "yes"}}, {"type": "node", "id": 1342940894, "lat": 50.9459567, "lon": 6.9452477, "tags": {"addr:housenumber": "22", "addr:postcode": "50670", "addr:street": "Hansaring", "amenity": "restaurant", "cuisine": "chinese", "name": "LeiLei", "phone": "+49221131772", "website": "https://www.leilei.de/", "wheelchair": "limited"}}, {"type": "node", "id": 1342942640, "lat": 50.9469219, "lon": 6.9451966, "tags": {"addr:housenumber": "21", "addr:postcode": "50670", "addr:street": "Am K\u00fcmpchenshof", "amenity": "restaurant", "brand": "Sumo", "cuisine": "sushi", "name": "Sumo"}}, {"type": "node", "id": 1375576631, "lat": 50.9413152, "lon": 6.9375161, "tags": {"addr:city": "K\u00f6ln", "addr:country": "DE", "addr:housenumber": "4", "addr:postcode": "50672", "addr:street": "Venloer Stra\u00dfe", "amenity": "restaurant", "check_date:opening_hours": "2021-01-31", "contact:phone": "+49 221 9908531", "contact:website": "http://www.royal-punjab.de", "cuisine": "indian", "diet:vegan": "yes", "diet:vegetarian": "yes", "name": "Royal Punjab", "opening_hours": "Mo-Fr 11:30-23:30; Sa,Su 12:30-23:30; PH 12:30-23:30"}}, {"type": "node", "id": 1512571802, "lat": 50.9514348, "lon": 6.9539277, "tags": {"addr:city": "K\u00f6ln", "addr:country": "DE", "addr:housenumber": "1a", "addr:postcode": "50670", "addr:street": "Aquinostra\u00dfe", "amenity": "restaurant", "cuisine": "italian", "internet_access": "wlan", "internet_access:fee": "no", "name": "Ristorante St. Angelo", "outdoor_seating": "yes", "smoking": "no", "takeaway": "yes", "wheelchair": "no"}}, {"type": "node", "id": 1714311588, "lat": 50.9408369, "lon": 6.94643, "tags": {"amenity": "restaurant", "name": "Angelo", "opening_hours": "Mo-Sa 12:00-15:00,18:00-22:00; PH,Su off"}}, {"type": "node", "id": 1854181838, "lat": 50.9500095, "lon": 6.9583098, "tags": {"addr:city": "K\u00f6ln", "addr:country": "DE", "addr:housenumber": "14-16", "addr:postcode": "50668", "addr:street": "Ebertplatz", "amenity": "restaurant", "brand": "L'Osteria", "brand:wikidata": "Q17323478", "brand:wikipedia": "de:L\u2019Osteria", "cuisine": "italian", "email": "ebertplatz@losteria.de", "name": "L'Osteria", "opening_hours": "Mo-Sa 11:00-24:00; Su,PH 12:00-24:00", "phone": "+49 221 17932090", "toilets:wheelchair": "yes", "was:cuisine": "mexican", "was:name": "Pancho Villa", "website": "https://losteria.net/de/restaurants/restaurant/koeln-ebertplatz/", "wheelchair": "yes"}}, {"type": "node", "id": 1985977707, "lat": 50.9384726, "lon": 6.9408352, "tags": {"amenity": "restaurant", "cuisine": "italian", "name": "Bella Italia Pizzeria"}}, {"type": "node", "id": 1985977816, "lat": 50.9385739, "lon": 6.940855, "tags": {"amenity": "restaurant", "cuisine": "italian", "name": "da Luigi", "opening_hours": "Tu-Sa 12:00-21:00"}}, {"type": "node", "id": 2015257421, "lat": 50.9370881, "lon": 6.9372922, "tags": {"addr:city": "K\u00f6ln", "addr:housenumber": "9", "addr:postcode": "50674", "addr:street": "Brabanter Stra\u00dfe", "amenity": "restaurant", "check_date": "2017-09-06", "cuisine": "vietnamese", "delivery": "no", "diet:gluten_free": "yes", "diet:vegan": "only", "diet:vegetarian": "only", "fair_trade": "no", "name": "L\u00faa by Danny", "opening_hours": "Mo-Sa 11:00-18:00; PH off", "organic": "yes", "takeaway": "yes"}}, {"type": "node", "id": 2042050942, "lat": 50.9371006, "lon": 6.9405016, "tags": {"addr:city": "K\u00f6ln", "addr:housenumber": "16-18", "addr:postcode": "50672", "addr:street": "Friesenwall", "amenity": "restaurant", "cuisine": "mexican", "email": "info@bayareaburrito.de", "level": "0", "name": "Bay Area Burrito Company", "opening_hours": "Mo-Sa 12:00-22:00", "payment:cash": "yes", "payment:credit_cards": "yes", "payment:mastercard": "yes", "payment:visa": "yes", "phone": "+49 221 16823024", "website": "http://www.bayareaburrito.de/de/unsere-standorte"}}, {"type": "node", "id": 2046481130, "lat": 50.9446491, "lon": 6.9432864}, {"type": "node", "id": 2053604643, "lat": 50.9382468, "lon": 6.938583, "tags": {"addr:city": "K\u00f6ln", "addr:housenumber": "3", "addr:postcode": "50672", "addr:street": "Maastrichter Stra\u00dfe", "amenity": "restaurant", "contact:email": "info@cafe-noa.de", "name": "Noa", "opening_hours": "Mo-Sa 10:00-24:00;Su 11:00-24:00", "phone": "+4922116811101", "toilets:wheelchair": "yes", "website": "http://www.cafe-noa.de/", "wheelchair": "yes"}}, {"type": "node", "id": 2072024335, "lat": 50.9496727, "lon": 6.9535381, "tags": {"addr:city": "K\u00f6ln", "addr:housenumber": "119", "addr:postcode": "50670", "addr:street": "Hansaring", "amenity": "restaurant", "cuisine": "pizza", "name": "Pizzeria Tot\u00f2 e Peppino", "opening_hours": "Su-Th 17:00-23:00; Tu off; Fr-Sa 17:00-24:00", "phone": "+49 221 9228661", "website": "https://pizzeria-toto-e-peppino.business.site/"}}, {"type": "node", "id": 2258353009, "lat": 50.9408528, "lon": 6.9442744, "tags": {"amenity": "restaurant", "cuisine": "american", "email": "info@echtzeit-k\u00f6ln.de", "name": "Echtzeit", "opening_hours": "Mo-Su 18:00+", "outdoor_seating": "no", "phone": "+49 221 423 661 31", "website": "https://echtzeit-k\u00f6ln.de/"}}, {"type": "node", "id": 2277589008, "lat": 50.9367422, "lon": 6.9347068}, {"type": "node", "id": 2277589009, "lat": 50.9367422, "lon": 6.9348719}, {"type": "node", "id": 2277589020, "lat": 50.9368402, "lon": 6.9348732}, {"type": "node", "id": 2277589021, "lat": 50.9368411, "lon": 6.9347078}, {"type": "node", "id": 2292327656, "lat": 50.9497935, "lon": 6.9657729, "tags": {"addr:city": "K\u00f6ln", "addr:postcode": "50668", "amenity": "restaurant", "name": "Capavi", "wheelchair": "limited"}}, {"type": "node", "id": 2357409089, "lat": 50.9379829, "lon": 6.9349023}, {"type": "node", "id": 2357409090, "lat": 50.9379846, "lon": 6.9347438}, {"type": "node", "id": 2357409091, "lat": 50.9380089, "lon": 6.9351635}, {"type": "node", "id": 2357409092, "lat": 50.9380114, "lon": 6.9349325}, {"type": "node", "id": 2357409093, "lat": 50.9380295, "lon": 6.934933}, {"type": "node", "id": 2357409094, "lat": 50.9380298, "lon": 6.9349036}, {"type": "node", "id": 2357409095, "lat": 50.9380553, "lon": 6.9351648}, {"type": "node", "id": 2357409096, "lat": 50.9380578, "lon": 6.9349275}, {"type": "node", "id": 2357409097, "lat": 50.9380597, "lon": 6.9347458}, {"type": "node", "id": 2419064715, "lat": 50.9386252, "lon": 6.9405933, "tags": {"addr:postcode": "50672", "amenity": "restaurant", "cuisine": "vietnamese", "name": "Chum Chay", "wheelchair": "limited"}}, {"type": "node", "id": 2419064725, "lat": 50.938841, "lon": 6.9398329, "tags": {"addr:housenumber": "38-40", "addr:postcode": "50672", "addr:street": "Hohenzollernring", "amenity": "restaurant", "brand": "Hans im Gl\u00fcck", "brand:wikidata": "Q22569868", "brand:wikipedia": "de:Hans im Gl\u00fcck (Restaurantkette)", "cuisine": "burger", "diet:vegan": "yes", "name": "Hans im Gl\u00fcck", "opening_hours": "Mo-Sa 12:00-24:00; Su 13:00-24:00", "phone": "+49 221 29892163", "toilets:wheelchair": "yes", "website": "https://www.hansimglueck-burgergrill.de/", "wheelchair": "yes"}}, {"type": "node", "id": 2419064964, "lat": 50.9383901, "lon": 6.9403332, "tags": {"amenity": "restaurant", "cuisine": "sushi", "name": "Eatsu"}}, {"type": "node", "id": 2419064965, "lat": 50.9389872, "lon": 6.9401498, "tags": {"addr:city": "K\u00f6ln", "addr:housenumber": "47", "addr:postcode": "50672", "addr:street": "Palmstra\u00dfe", "amenity": "restaurant", "cuisine": "asian", "name": "Xing Wang", "opening_hours": "Mo-Sa 11:30-23:00", "phone": "+49 221 25899853", "wheelchair": "yes"}}, {"type": "node", "id": 2439165247, "lat": 50.9381937, "lon": 6.939998, "tags": {"addr:postcode": "50672", "amenity": "restaurant", "cuisine": "thai", "email": "koeln-ehrenstr@kittichai.de", "name": "Kitti Chai", "opening_hours": "Su-Th 11:00-23:30; Fr-Sa 11:00-01:00", "phone": "+49 221 27263840", "website": "https://kittichai.de/", "wheelchair": "yes"}}, {"type": "node", "id": 2464039839, "lat": 50.9367422, "lon": 6.9348271}, {"type": "node", "id": 2510376630, "lat": 50.9372256, "lon": 6.9388622, "tags": {"amenity": "restaurant", "cuisine": "steak_house", "delivery": "yes", "email": "reservierung@steaket.de", "name": "Steaket", "operator": "Mangal Premium GmbH", "outdoor_seating": "yes", "phone": "+49 221 250 858 16", "reservation": "yes", "takeaway": "yes", "website": "https://steaket.de/"}}, {"type": "node", "id": 2514174830, "lat": 50.9414395, "lon": 6.9339422}, {"type": "node", "id": 2515945616, "lat": 50.9529539, "lon": 6.951705, "tags": {"addr:city": "K\u00f6ln", "addr:housenumber": "2", "addr:postcode": "50670", "addr:street": "Krefelder Wall", "amenity": "restaurant", "cuisine": "pizza", "name": "Pizzaria Venedig", "wheelchair": "limited"}}, {"type": "node", "id": 2539923314, "lat": 50.9373353, "lon": 6.9405734, "tags": {"amenity": "restaurant", "cuisine": "thai", "email": "info@anselmos-lilakissimo.de", "name": "Thai Food II", "opening_hours": "Tu-Sa 18:30+", "phone": "+49 221 2573228", "website": "http://www.anselmos-lilakissimo.de"}}, {"type": "node", "id": 2574929596, "lat": 50.9556003, "lon": 6.9679168}, {"type": "node", "id": 2574929605, "lat": 50.9556098, "lon": 6.9679852}, {"type": "node", "id": 2574929607, "lat": 50.9556143, "lon": 6.9679557}, {"type": "node", "id": 2574929624, "lat": 50.9556339, "lon": 6.9680452}, {"type": "node", "id": 2574929647, "lat": 50.9556505, "lon": 6.9680514}, {"type": "node", "id": 2574929656, "lat": 50.9556569, "lon": 6.9678663}, {"type": "node", "id": 2574929679, "lat": 50.9556714, "lon": 6.9679024}, {"type": "node", "id": 2574929682, "lat": 50.9556718, "lon": 6.968108}, {"type": "node", "id": 2574929691, "lat": 50.9556837, "lon": 6.9679052}, {"type": "node", "id": 2574929711, "lat": 50.9557008, "lon": 6.967955}, {"type": "node", "id": 2574929731, "lat": 50.9557191, "lon": 6.9679588}, {"type": "node", "id": 2574929739, "lat": 50.9557308, "lon": 6.967879}, {"type": "node", "id": 2574929767, "lat": 50.9557433, "lon": 6.9680926}, {"type": "node", "id": 2574929788, "lat": 50.9557582, "lon": 6.9680774}, {"type": "node", "id": 2574929802, "lat": 50.9557848, "lon": 6.9678986}, {"type": "node", "id": 2574929972, "lat": 50.9561443, "lon": 6.9677194}, {"type": "node", "id": 2574929982, "lat": 50.9563038, "lon": 6.9680772}, {"type": "node", "id": 2574930000, "lat": 50.9565024, "lon": 6.9673191}, {"type": "node", "id": 2574930053, "lat": 50.9566422, "lon": 6.9676326}, {"type": "node", "id": 2574930063, "lat": 50.956653, "lon": 6.9676206}, {"type": "node", "id": 2574930066, "lat": 50.9566602, "lon": 6.9676729}, {"type": "node", "id": 2574930068, "lat": 50.9566619, "lon": 6.9676766}, {"type": "node", "id": 2574930070, "lat": 50.956671, "lon": 6.9676608}, {"type": "node", "id": 2576338197, "lat": 50.9445329, "lon": 6.943166}, {"type": "node", "id": 2576338200, "lat": 50.9445693, "lon": 6.9430792}, {"type": "node", "id": 2576338224, "lat": 50.9446571, "lon": 6.9431694}, {"type": "node", "id": 2576338237, "lat": 50.9446861, "lon": 6.9431995}, {"type": "node", "id": 2578761773, "lat": 50.9390959, "lon": 6.9388327, "tags": {"amenity": "restaurant", "cuisine": "chinese", "diet:vegan": "yes", "diet:vegetarian": "yes", "email": "chinburger821@gmail.com", "level": "0", "name": "Chin Burger", "opening_hours": "Fr-Sa 12:00-22:30; Su-Th, PH 12:00-22:00", "outdoor_seating": "yes", "phone": "+49 221 42311118", "toilets": "yes", "website": "http://www.chin-burger.com/", "wheelchair": "yes"}}, {"type": "node", "id": 2578761776, "lat": 50.9393543, "lon": 6.9386995, "tags": {"amenity": "restaurant", "cuisine": "chinese", "name": "Shanghai K\u00fcche"}}, {"type": "node", "id": 2578761808, "lat": 50.9401254, "lon": 6.9382544, "tags": {"addr:city": "K\u00f6ln", "addr:country": "DE", "addr:housenumber": "35", "addr:postcode": "50672", "addr:street": "Limburger Stra\u00dfe", "amenity": "restaurant", "email": "post@limbourg-restaurant.de", "name": "Limbourg", "opening_hours": "Mo-Th 17:00-24:00; Fr,Sa 17:00-01:00", "phone": "+49 221 2508880", "website": "https://limbourg.restaurant/"}}, {"type": "node", "id": 2583505834, "lat": 50.9395287, "lon": 6.9400233, "tags": {"amenity": "restaurant", "brand": "Sausalitos", "brand:wikidata": "Q2227783", "brand:wikipedia": "de:Sausalitos", "cuisine": "mexican", "name": "Sausalitos", "opening_hours": "Mo-Sa 12:00+; Su 15:00+", "phone": "+49 221 27098822", "toilets:wheelchair": "yes", "wheelchair": "yes"}}, {"type": "node", "id": 2583999791, "lat": 50.9490799, "lon": 6.9497925}, {"type": "node", "id": 2583999795, "lat": 50.9491212, "lon": 6.9495841}, {"type": "node", "id": 2583999796, "lat": 50.9491288, "lon": 6.9496036}, {"type": "node", "id": 2583999804, "lat": 50.9491792, "lon": 6.9495468}, {"type": "node", "id": 2583999805, "lat": 50.9491813, "lon": 6.9495521}, {"type": "node", "id": 2583999813, "lat": 50.9492195, "lon": 6.9496556}, {"type": "node", "id": 2583999839, "lat": 50.9492877, "lon": 6.9495789}, {"type": "node", "id": 2583999840, "lat": 50.9492905, "lon": 6.9495861}, {"type": "node", "id": 2584091929, "lat": 50.9520716, "lon": 6.9460602}, {"type": "node", "id": 2584091930, "lat": 50.9520878, "lon": 6.9461528}, {"type": "node", "id": 2584091931, "lat": 50.9520986, "lon": 6.9461842}, {"type": "node", "id": 2584091932, "lat": 50.9520998, "lon": 6.9461425}, {"type": "node", "id": 2584091933, "lat": 50.9521107, "lon": 6.946174}, {"type": "node", "id": 2584091934, "lat": 50.9521236, "lon": 6.9462117}, {"type": "node", "id": 2584091935, "lat": 50.9521683, "lon": 6.9459771}, {"type": "node", "id": 2584091936, "lat": 50.9521725, "lon": 6.9461697}, {"type": "node", "id": 2584091937, "lat": 50.9521857, "lon": 6.9462076}, {"type": "node", "id": 2584091938, "lat": 50.9522334, "lon": 6.9461664}, {"type": "node", "id": 2585450541, "lat": 50.9555368, "lon": 6.9725916}, {"type": "node", "id": 2585450542, "lat": 50.9556106, "lon": 6.9727468}, {"type": "node", "id": 2585450543, "lat": 50.9556216, "lon": 6.9724906}, {"type": "node", "id": 2585450544, "lat": 50.9556297, "lon": 6.9727243}, {"type": "node", "id": 2585450545, "lat": 50.9556482, "lon": 6.9726417}, {"type": "node", "id": 2585450547, "lat": 50.9556665, "lon": 6.9726802}, {"type": "node", "id": 2585450548, "lat": 50.9556772, "lon": 6.9726072}, {"type": "node", "id": 2611218341, "lat": 50.942313, "lon": 6.940763, "tags": {"addr:housenumber": "94", "addr:street": "Hohenzollernring", "amenity": "restaurant", "cuisine": "sushi", "name": "Nagoya", "opening_hours": "Mo-Th 12:00-23:00; Fr,Sa 12:00-24:00; Su 16:00-23:00", "phone": "+4922116823299", "website": "http://www.nagoya-cologne.com/", "wheelchair": "limited"}}, {"type": "node", "id": 2622352223, "lat": 50.9391338, "lon": 6.9401973, "tags": {"amenity": "restaurant", "cuisine": "burger", "email": "info@beeffarm-inn.de", "name": "Beef Farm Inn", "phone": "+49 221 28068777", "website": "http://www.beeffarm-inn.de"}}, {"type": "node", "id": 2623381118, "lat": 50.9426308, "lon": 6.9409347, "tags": {"addr:city": "K\u00f6ln", "addr:country": "DE", "addr:housenumber": "6-8", "addr:postcode": "50672", "addr:street": "Kaiser-Wilhelm-Ring", "amenity": "restaurant", "cuisine": "asian", "diet:vegan": "only", "email": "hello@bodhikoeln.de", "name": "Bodhi Vegan Living", "opening_hours": "Mo-Fr 11:30-22:30; Sa,PH 12:00-22:30; Su off", "opening_hours:kitchen": "Mo-Sa 11:30-22:00; PH, Su 15:00-22:00", "outdoor_seating": "yes", "payment:credit_cards": "no", "payment:debit_cards": "yes", "phone": "+49 221 29493672", "website": "https://bodhikoeln.de/"}}, {"type": "node", "id": 2630343378, "lat": 50.9404932, "lon": 6.9412696, "tags": {"addr:postcode": "50672", "amenity": "restaurant", "cuisine": "japanese", "email": "mingming332@googlemail.com", "name": "Daimyo", "opening_hours": "Mo-Th off; Tu-Fr 12:00-15:30,17:00-22:30;Sa, Su 14:00-22:30", "outdoor_seating": "yes", "payment:cash": "yes", "payment:maestro": "yes", "payment:mastercard": "yes", "payment:visa": "yes", "phone": "+49 221 28068790", "website": "https://daimyo.eatbu.com", "wheelchair": "no"}}, {"type": "node", "id": 2630343380, "lat": 50.9406104, "lon": 6.9416852, "tags": {"amenity": "restaurant", "cuisine": "thai", "name": "Coco's Tradition", "opening_hours": "Mo-Fr 11:30-15:00, 17:30-22:00; Sa 11:30-22:00, Su, PH off", "phone": "+49 1520 1844637", "smoking": "no"}}, {"type": "node", "id": 2630357964, "lat": 50.9402303, "lon": 6.942315, "tags": {"amenity": "restaurant", "cuisine": "steak", "name": "our.ox"}}, {"type": "node", "id": 2653688217, "lat": 50.9407876, "lon": 6.9429983, "tags": {"amenity": "restaurant", "name": "elferRat"}}, {"type": "node", "id": 2862169196, "lat": 50.9479599, "lon": 6.9570035}, {"type": "node", "id": 2862169198, "lat": 50.9479726, "lon": 6.9568011}, {"type": "node", "id": 2862174101, "lat": 50.9479897, "lon": 6.9570091}, {"type": "node", "id": 2862174107, "lat": 50.9480284, "lon": 6.957016}, {"type": "node", "id": 2862174108, "lat": 50.948029, "lon": 6.9570094}, {"type": "node", "id": 2862174109, "lat": 50.9480433, "lon": 6.9568086}, {"type": "node", "id": 2863169025, "lat": 50.9472508, "lon": 6.9611953}, {"type": "node", "id": 2863169030, "lat": 50.9472645, "lon": 6.9611214}, {"type": "node", "id": 2863169036, "lat": 50.9473362, "lon": 6.961224}, {"type": "node", "id": 2863169044, "lat": 50.9473523, "lon": 6.9611375}, {"type": "node", "id": 2922080153, "lat": 50.9485301, "lon": 6.9435705, "tags": {"amenity": "restaurant", "cuisine": "italian", "email": "buchhandlung@komed.de", "name": "Galestro", "phone": "+49 221 97612267", "wheelchair": "yes"}}, {"type": "node", "id": 3088729157, "lat": 50.9492001, "lon": 6.9615227, "tags": {"addr:city": "K\u00f6ln", "addr:housenumber": "64", "addr:postcode": "50668", "addr:street": "Th\u00fcrmchenswall", "amenity": "restaurant", "capacity": "20", "contact:phone": "+49 221 29427848", "cuisine": "thai", "name": "Chaokoh", "smoking": "no", "takeaway": "yes"}}, {"type": "node", "id": 3186729336, "lat": 50.9428331, "lon": 6.9365287, "tags": {"amenity": "restaurant", "email": "info@restaurant-acht.de", "name": "Acht", "opening_hours": "Mo-Sa 18:00+", "phone": "+49 221 16818408", "website": "http://www.restaurant-acht.de", "wheelchair": "limited"}}, {"type": "node", "id": 3352988177, "lat": 50.9446224, "lon": 6.9559166, "tags": {"amenity": "restaurant", "cuisine": "indian", "name": "Jaipur", "opening_hours": "Tu-Su 12:00-15:00, Mo-Su 18:00-23:30", "wheelchair": "limited"}}, {"type": "node", "id": 3743238453, "lat": 50.949461, "lon": 6.9572652, "tags": {"amenity": "restaurant", "name": "LocaLord"}}, {"type": "node", "id": 3875894559, "lat": 50.940219, "lon": 6.9365586, "tags": {"addr:city": "K\u00f6ln", "addr:housenumber": "15", "addr:postcode": "50672", "addr:street": "Antwerpener Stra\u00dfe", "amenity": "restaurant", "contact:facebook": "https://www.facebook.com/itocologne/", "contact:instagram": "https://www.instagram.com/ito_cologne/", "cuisine": "japanese", "email": "info@ito-restaurant.de", "fax": "+49 2213557329", "name": "Ito", "opening_hours": "Tu,Sa 18:30-21:30; We-Fr 12:00-14:00,18:30-21:30", "operator": "Kengo Nishimi", "outdoor_seating": "no", "phone": "+49 2213557327", "takeaway": "yes", "website": "https://ito-restaurant.de/", "wheelchair": "limited"}}, {"type": "node", "id": 3905183227, "lat": 50.9533529, "lon": 6.9658181, "tags": {"amenity": "restaurant", "contact:phone": "+49 221 7202670", "cuisine": "austrian", "name": "Gruber's Restaurant", "opening_hours": "Mo-Fr 12:00-15:00; Mo-Sa 18:00-22:00", "outdoor_seating": "yes", "website": "http://www.grubersrestaurant.de/", "wheelchair": "no", "wheelchair:description": "Es gibt einen ziemlich schwierigen Weg durchs ganze Geb\u00e4ude"}}, {"type": "node", "id": 3906712419, "lat": 50.939351, "lon": 6.939975, "tags": {"amenity": "restaurant", "cuisine": "burger", "delivery": "yes", "name": "Burgermeister", "outdoor_seating": "yes", "website": "https://www.burgerista.com/koeln/", "wheelchair": "yes"}}, {"type": "node", "id": 4100782694, "lat": 50.9497318, "lon": 6.9590874, "tags": {"addr:city": "K\u00f6ln", "addr:country": "DE", "addr:housenumber": "93", "addr:postcode": "50668", "addr:street": "Domstra\u00dfe", "amenity": "restaurant", "cuisine": "japanese", "name": "Tea Box"}}, {"type": "node", "id": 4163331995, "lat": 50.9499782, "lon": 6.9526189, "tags": {"addr:city": "K\u00f6ln", "addr:country": "DE", "addr:housenumber": "11", "addr:postcode": "50670", "addr:street": "Krefelder Stra\u00dfe", "amenity": "restaurant", "cuisine": "greek", "name": "Taverne Athos", "wheelchair": "limited"}}, {"type": "node", "id": 4182879898, "lat": 50.9375607, "lon": 6.9389284, "tags": {"addr:city": "K\u00f6ln", "addr:country": "DE", "addr:housenumber": "21-23", "addr:postcode": "50672", "addr:street": "Hohenzollernring", "amenity": "restaurant", "cuisine": "burger", "diet:vegan": "only", "level": "0", "name": "Vegan Junk Food Bar", "old_name": "Barrios", "opening_hours": "Su-Th 12:00-24:00; Fr-Sa 12:00-02:00", "outdoor_seating": "yes", "reservation": "no", "toilets": "yes", "toilets:access": "customers", "toilets:wheelchair": "no", "website": "https://www.veganjunkfoodbar.com/locations/keulen"}}, {"type": "node", "id": 4182879899, "lat": 50.9374225, "lon": 6.9388814, "tags": {"amenity": "restaurant", "cuisine": "burger", "email": "info@maxundmoritz.koeln", "name": "Max und Moritz", "outdoor_seating": "yes", "phone": "+49 221 57 00 11 70", "website": "https://maxundmoritz.koeln/"}}, {"type": "node", "id": 4237279189, "lat": 50.948418, "lon": 6.9538895, "tags": {"addr:city": "K\u00f6ln", "addr:country": "DE", "addr:housenumber": "71-73", "addr:postcode": "50668", "addr:street": "Weidengasse", "amenity": "restaurant", "cuisine": "turkish", "name": "Doy Doy Palast", "phone": "+49 221 27075744", "website": "https://doydoykoeln.de/", "wheelchair": "limited"}}, {"type": "node", "id": 4361808742, "lat": 50.9479306, "lon": 6.9568276, "tags": {"addr:city": "K\u00f6ln", "addr:country": "DE", "addr:housenumber": "72", "addr:postcode": "50668", "addr:street": "Eigelstein", "amenity": "restaurant", "email": "fischparadies@outlook.de", "name": "Reef House", "opening_hours": "Mo-Th 11:00-19:00; Fr,Sa 11:00-20:00", "phone": "+49 221 42365539", "shop": "seafood", "website": "https://www.reefhouse.de/"}}, {"type": "node", "id": 4396508193, "lat": 50.9490582, "lon": 6.949401}, {"type": "node", "id": 4459385174, "lat": 50.9391304, "lon": 6.9399627, "tags": {"amenity": "restaurant", "name": "Luxx", "shop": "vacant"}}, {"type": "node", "id": 4459414302, "lat": 50.9457629, "lon": 6.9450817, "tags": {"amenity": "restaurant", "cuisine": "chinese", "name": "Hong Kong Dim"}}, {"type": "node", "id": 4477333496, "lat": 50.9523288, "lon": 6.9524008, "tags": {"amenity": "restaurant", "contact:email": "info@meisterlampe.eu", "contact:phone": "+49 221 2907531", "contact:website": "http://www.meisterlampe.eu", "cuisine": "regional", "level": "0", "name": "Meister Lampe", "opening_hours": "Mo-Fr 11:00-19:00; Sa 11:00-16:00; PH off", "operator": "Christian Matth\u00e4i", "takeaway": "yes"}}, {"type": "node", "id": 4539113677, "lat": 50.9380313, "lon": 6.9396424, "tags": {"amenity": "restaurant", "cuisine": "moroccan", "email": "info@latifs.de", "name": "Latif's", "opening_hours": "Mo-Su 12:00+", "opening_hours:kitchen": "Mo-Th 12:00-22:00; Fr, Sa 12:00-23:00", "outdoor_seating": "yes", "phone": "+49 221 2710 8955", "reservation": "yes", "website": "https://www.latifs.de/", "website:menu": "https://www.latifs.de/speisekarte/"}}, {"type": "node", "id": 4586602314, "lat": 50.948444, "lon": 6.9617898, "tags": {"addr:city": "K\u00f6ln", "addr:housenumber": "27", "addr:postcode": "50668", "addr:street": "Unter Kahlenhausen", "amenity": "restaurant", "capacity": "10", "cuisine": "regional", "name": "Kochkollektiv", "opening_hours": "Mo-Fr 12:00-15:00", "phone": "+49 221 16822462", "takeaway": "yes", "wheelchair": "limited"}}, {"type": "node", "id": 4614922886, "lat": 50.9522096, "lon": 6.9598452, "tags": {"addr:city": "K\u00f6ln", "addr:country": "DE", "addr:housenumber": "45", "addr:postcode": "50670", "addr:street": "Schillingstra\u00dfe", "amenity": "restaurant", "contact:email": "ristorante.davide@t-online.de", "contact:phone": "+49 221 28097000", "contact:website": "http://www.da-vide.de/", "cuisine": "sicilian", "name": "Da Vide", "opening_hours": "Su-Fr 12:00-15:00,18:00-22:30; Tu off; Sa 18:00+", "wheelchair": "no"}}, {"type": "node", "id": 4679581458, "lat": 50.9482753, "lon": 6.9547493, "tags": {"addr:city": "K\u00f6ln", "addr:country": "DE", "addr:housenumber": "42-44", "addr:postcode": "50668", "addr:street": "Weidengasse", "amenity": "restaurant", "cuisine": "turkish", "name": "Adana Et", "phone": "+49 221 27645001", "takeaway": "yes", "wheelchair": "yes"}}, {"type": "node", "id": 4692617940, "lat": 50.948491, "lon": 6.9541346, "tags": {"addr:city": "K\u00f6ln", "addr:country": "DE", "addr:housenumber": "58-62", "addr:postcode": "50668", "addr:street": "Weidengasse", "amenity": "restaurant", "cuisine": "turkish", "email": "info@mangal-restaurant.de", "name": "Mangal Restaurant", "phone": "+49 221 298 834 20", "website": "https://www.mangal-restaurant.de/", "wheelchair": "limited"}}, {"type": "node", "id": 4692617945, "lat": 50.9480762, "lon": 6.9552076, "tags": {"addr:city": "K\u00f6ln", "addr:country": "DE", "addr:housenumber": "28-34", "addr:postcode": "50668", "addr:street": "Weidengasse", "amenity": "restaurant", "cuisine": "turkish", "name": "\u00d6z Harran DoyDoy Restautrant", "wheelchair": "yes"}}, {"type": "node", "id": 4732569521, "lat": 50.9472343, "lon": 6.9565209, "tags": {"addr:city": "K\u00f6ln", "addr:country": "DE", "addr:housenumber": "67", "addr:postcode": "50668", "addr:street": "Eigelstein", "amenity": "restaurant", "cuisine": "italian_pizza", "delivery": "yes", "fax": "+4922116861158", "level": "0", "name": "Pizzeria La Venezia", "opening_hours": "Mo-Th 11:30-24:00; Fr-Sa 11:30-01:00; Su,PH 13:00-23:30", "outdoor_seating": "no", "phone": "+4922116834210", "smoking": "no", "takeaway": "yes", "website": "http://www.lavenezia-koeln.de/"}}, {"type": "node", "id": 4776547023, "lat": 50.9476261, "lon": 6.9533425, "tags": {"amenity": "restaurant", "delivery": "yes", "description": "URL f\u00fcr Lieferservice: http://www.vega-taxi.de", "diet:vegan": "only", "name": "Past & Future", "opening_hours": "Tu-Fr 12:00-14:30,18:00-23:00; Sa,Su,PH 18:00-23:00", "opening_hours:kitchen": "12:00-14:30,18:00-21:30", "website": "https://www.past-future.net/"}}, {"type": "node", "id": 5038198025, "lat": 50.940101, "lon": 6.9379323, "tags": {"amenity": "restaurant", "contact:phone": "+49 221 16815224", "contact:website": "https://bibimbab-brabanter.de/", "cuisine": "korean", "diet:vegan": "no", "diet:vegetarian": "limited", "name": "Bibimbab", "opening_hours": "Mo-Th 12:00-16:00, 17:30-22:00; Fr 12:00-16:00, 17:30-22:30; Sa 12:00-22:30", "outdoor_seating": "no", "wheelchair": "no"}}, {"type": "node", "id": 5113252232, "lat": 50.9374125, "lon": 6.9394865, "tags": {"amenity": "restaurant", "cuisine": "italian", "name": "Spencer & Hill", "opening_hours": "Mo-Th 17:00-24:00, Fr,Sa 17:00-01:00, Su 15:00-22:00", "phone": "+49 221 280646362"}}, {"type": "node", "id": 5236136881, "lat": 50.9497281, "lon": 6.9567453, "tags": {"amenity": "restaurant", "brand": "Rossini", "cuisine": "italian", "email": "reservierung@rossini-koeln.de", "name": "Rossini", "outdoor_seating": "yes", "phone": "+49 221 1391234", "website": "https://www.rossini-koeln.de/"}}, {"type": "node", "id": 5288025873, "lat": 50.9415597, "lon": 6.9412358, "tags": {"amenity": "restaurant", "name": "Tapas y Tapas"}}, {"type": "node", "id": 5417099482, "lat": 50.9373092, "lon": 6.9388736, "tags": {"amenity": "restaurant", "cuisine": "indian", "email": "koeln@eatdoori.com", "name": "eatDOORI", "opening_hours": "Mo, Tu 11:30-22:30; We-Su 11:30-23:00; Su 11:30-22:30", "phone": "+49 221 25897988", "reservation": "yes", "website": "https://eatdoori.com/koeln/", "website:menu": "https://eatdoori.com/wp-content/uploads/2022/12/ED_Speisekarte_08_2022_Allergene_DE.pdf"}}, {"type": "node", "id": 5527024607, "lat": 50.9487025, "lon": 6.95384, "tags": {"addr:city": "K\u00f6ln", "addr:country": "DE", "addr:housenumber": "68", "addr:postcode": "50668", "addr:street": "Weidengasse", "amenity": "restaurant", "cuisine": "thai;vietnamese", "email": "info@hoai-viet.de", "name": "Hoai Viet", "opening_hours": "Mo-Th 12:00-22:00; Fr 12:00-23:00; Sa 17:00-23:00; Su 17:00-22:00", "outdoor_seating": "yes", "phone": "+49 221 1393093", "start_date": "2001", "takeaway": "yes", "website": "https://www.hoai-viet.de/", "wheelchair": "no"}}, {"type": "node", "id": 5696667896, "lat": 50.9539246, "lon": 6.9577565, "tags": {"addr:city": "K\u00f6ln", "addr:housenumber": "45", "addr:postcode": "50670", "addr:street": "Lupusstra\u00dfe", "amenity": "restaurant", "cuisine": "thai", "name": "Thai Imbiss", "opening_hours": "Mo-Sa 11:00-22:00; Su 12:00-22:00", "outdoor_seating": "yes", "payment:cash": "yes", "phone": "+49 221 71739789", "takeaway": "yes"}}, {"type": "node", "id": 5696986389, "lat": 50.9521262, "lon": 6.956925, "tags": {"addr:city": "K\u00f6ln", "addr:housenumber": "25", "addr:postcode": "50670", "addr:street": "Neusser Stra\u00dfe", "amenity": "restaurant", "name": "Feuer & Flamme", "opening_hours": "Mo-Sa 11:30-21:00", "outdoor_seating": "no", "website": "https://feuerundflam.me"}}, {"type": "node", "id": 5697113788, "lat": 50.9528662, "lon": 6.9569681, "tags": {"addr:city": "K\u00f6ln", "addr:housenumber": "41", "addr:postcode": "50670", "addr:street": "Neusser Stra\u00dfe", "amenity": "restaurant", "cuisine": "japanese", "delivery": "yes", "name": "bento box", "outdoor_seating": "no", "phone": "+49 221 29891110", "website": "https://www.bentobox.de", "wheelchair": "yes"}}, {"type": "node", "id": 5697180412, "lat": 50.9523069, "lon": 6.9573641, "tags": {"addr:city": "K\u00f6ln", "addr:housenumber": "24", "addr:postcode": "50670", "addr:street": "Neusser Stra\u00dfe", "amenity": "restaurant", "contact:email": "info@reispapier.de", "cuisine": "vietnamese", "diet:gluten_free": "yes", "diet:lactose_free": "yes", "diet:vegan": "yes", "diet:vegetarian": "yes", "drive_through": "no", "name": "Reispapier", "opening_hours": "Tu-Th 12:00-15:00, 17:00-21:30; Fr 12:00-15:00, 17:00-22:00; Sa, Su, PH 13:00-16:00, 17:00-22:00", "phone": "+49 221 27649870", "website": "https://www.reispapier.de/"}}, {"type": "node", "id": 5699935107, "lat": 50.9539267, "lon": 6.9581589, "tags": {"addr:city": "K\u00f6ln", "addr:housenumber": "32", "addr:postcode": "50670", "addr:street": "Wei\u00dfenburgstra\u00dfe", "amenity": "restaurant", "bar": "yes", "cuisine": "international;tapas", "diet:vegan": "yes", "diet:vegetarian": "yes", "name": "Ritter W\u00fclfing", "opening_hours": "Tu-Fr 17:00-24:00; Sa 15:00-24:00; Su 10:00-24:00", "outdoor_seating": "yes", "phone": "+49 221 91391875", "website": "https://ritterwuelfing.de/"}}, {"type": "node", "id": 5699935108, "lat": 50.9511376, "lon": 6.9549577, "tags": {"addr:city": "K\u00f6ln", "addr:housenumber": "6", "addr:postcode": "50670", "addr:street": "Sudermanplatz", "amenity": "restaurant", "name": "La Gustosa", "outdoor_seating": "yes", "phone": "+49 221 37998577", "website": "https://www.restaurantlagustosa.com", "wheelchair": "yes"}}, {"type": "node", "id": 5699935109, "lat": 50.9505011, "lon": 6.9536331, "tags": {"addr:city": "K\u00f6ln", "addr:housenumber": "152", "addr:postcode": "50670", "addr:street": "Maybachstra\u00dfe", "amenity": "restaurant", "contact:facebook": "https://www.facebook.com/Ngon-Ngon-Restaurant-107278093964439/", "cuisine": "vietnamese", "name": "Ngon Ngon", "opening_hours": "Mo-Fr 11:00-22:30; Sa-Su 12:30-22:30", "outdoor_seating": "yes", "phone": "+49 221 13955460", "toilets:wheelchair": "no", "website": "http://ngonngon-restaurant.de/", "wheelchair": "limited"}}, {"type": "node", "id": 5734029321, "lat": 50.9539549, "lon": 6.9564804, "tags": {"addr:city": "K\u00f6ln", "addr:country": "DE", "addr:housenumber": "30", "addr:postcode": "50670", "addr:street": "Wei\u00dfenburgstra\u00dfe", "amenity": "restaurant", "cuisine": "italian", "name": "Barile", "outdoor_seating": "yes", "smoking": "outside", "toilets:wheelchair": "no", "website": "https://www.barile-koeln.de/", "wheelchair": "yes"}}, {"type": "node", "id": 5816425855, "lat": 50.9389829, "lon": 6.9392526, "tags": {"amenity": "restaurant", "email": "info@mango-koeln.de", "name": "Mango", "opening_hours": "Su-Th 11:00-01:00; Fr-Sa 11:00-03:00", "operator": "Murat Ayazg\u00f6k", "outdoor_seating": "yes", "phone": "+49 221 27 09 67 76", "website": "http://www.mango-koeln.de"}}, {"type": "node", "id": 5905835836, "lat": 50.9435472, "lon": 6.9448148, "tags": {"addr:housenumber": "8", "addr:postcode": "50670", "addr:street": "Gereonskloster", "amenity": "restaurant", "bar": "yes", "cuisine": "regional", "cuisine:crossover": "regional; mediterranean", "diet:vegan": "yes", "diet:vegetarian": "yes", "name": "La Fonda", "outdoor_seating": "yes", "phone": "+49 221 16817515"}}, {"type": "node", "id": 5995331449, "lat": 50.9365972, "lon": 6.9370079, "tags": {"addr:housenumber": "14", "addr:postcode": "50674", "addr:street": "Aachener Stra\u00dfe", "amenity": "restaurant", "contact:facebook": "NishNushCGN", "cuisine": "oriental", "name": "Nish Nush", "opening_hours": "Mo-Fr 11:00-23:30; Sa-Su 11:00-01:00", "outdoor_seating": "yes", "phone": "+49 221 42335009", "website": "https://facebook.com/NishNushCGN"}}, {"type": "node", "id": 6015485230, "lat": 50.9420578, "lon": 6.9435699, "tags": {"amenity": "restaurant", "contact:email": "neni.thecircle@25hours-hotels.com", "contact:phone": "+49 221 16 25 35 61", "contact:website": "https://www.nenikoeln.de/", "cuisine": "israelian", "name": "NENI K\u00f6ln", "opening_hours": "Mo-Fr 12:00-15:00,17:00-22:00; Sa,Su 17:00-22:00", "operator": "25hours Hotel Company GmbH", "outdoor_seating": "yes"}}, {"type": "node", "id": 6034519395, "lat": 50.9378075, "lon": 6.9389638, "tags": {"amenity": "restaurant", "cuisine": "noodle;pizza;steak_house", "name": "Adaccio", "outdoor_seating": "yes", "toilets:wheelchair": "yes", "wheelchair": "yes"}}, {"type": "node", "id": 6216030340, "lat": 50.9386627, "lon": 6.9404365, "tags": {"addr:city": "K\u00f6ln", "addr:housenumber": "29", "addr:postcode": "50672", "addr:street": "Friesenwall", "amenity": "restaurant", "contact:email": "info@chum-chay.de", "contact:phone": "+49 221 79003798", "contact:website": "http://www.chum-chay.de/", "cuisine": "vietnamese", "diet:vegetarian": "only", "name": "Chum Chay", "opening_hours": "Mo-Sa 12:00-23:00; PH 15:00-23:00; Su off", "takeaway": "yes", "wheelchair": "limited"}}, {"type": "node", "id": 6339572723, "lat": 50.9512632, "lon": 6.9557475, "tags": {"amenity": "restaurant", "cuisine": "breton", "email": "salut@delibon.de", "name": "Brasserie D\u00e9libon", "opening_hours": "Mo off; Tu-Su 12:00-22:00", "phone": "+49 221 16903786", "website": "https://www.delibon.de/"}}, {"type": "node", "id": 6341918319, "lat": 50.9480056, "lon": 6.9457734, "tags": {"amenity": "restaurant", "cuisine": "sushi", "internet_access": "no", "level": "0", "name": "Sushiou", "opening_hours": "Mo-Fr 12:00-15:00,18:00-23:00; Sa 18:00-23:00; Su,PH 13:00-23:00", "outdoor_seating": "no", "reservation": "yes", "smoking": "no", "website": "http://www.sushiou.de"}}, {"type": "node", "id": 6344339311, "lat": 50.9462426, "lon": 6.9447184, "tags": {"amenity": "restaurant", "cuisine": "spanish", "name": "Arriba", "phone": "+4915229940368"}}, {"type": "node", "id": 6346646780, "lat": 50.9485805, "lon": 6.9504561, "tags": {"amenity": "restaurant", "cuisine": "asian", "name": "Anichi", "opening_hours": "Mo-Sa 10:00-21:00", "website": "https://www.anichi-koeln.de/"}}, {"type": "node", "id": 6356990017, "lat": 50.9372357, "lon": 6.9375266, "tags": {"addr:city": "K\u00f6ln", "addr:country": "DE", "addr:housenumber": "7", "addr:postcode": "50674", "addr:street": "L\u00fctticher Stra\u00dfe", "amenity": "restaurant", "cuisine": "sushi", "diet:vegetarian": "yes", "name": "Grand The Sushi Circle", "opening_hours": "Tu-Sa 12:00-15:00,18:00-23:00, Su,PH 15:00-23:00", "outdoor_seating": "no", "phone": "+4922127249328", "takeaway": "yes", "website": "http://www.grand-koeln.de/"}}, {"type": "node", "id": 6385991645, "lat": 50.9486376, "lon": 6.9432984, "tags": {"amenity": "restaurant", "name": "undsohn", "opening_hours": "Mo-Fr 11:30-15:00", "website": "https://undsohn.business.site/"}}, {"type": "node", "id": 6400260885, "lat": 50.9369048, "lon": 6.9373014, "tags": {"amenity": "restaurant", "name": "Warung Bayu", "opening_hours": "PH,Mo-Su 18:00-23:00"}}, {"type": "node", "id": 6412421809, "lat": 50.9403932, "lon": 6.9389063, "tags": {"amenity": "restaurant", "cuisine": "asian", "name": "Kastanie", "outdoor_seating": "yes"}}, {"type": "node", "id": 6412421810, "lat": 50.9404072, "lon": 6.9389955, "tags": {"addr:city": "K\u00f6ln", "addr:country": "DE", "addr:housenumber": "9", "addr:postcode": "50672", "addr:street": "Friesenplatz", "amenity": "restaurant", "cuisine": "mexican", "email": "si-claro@t-online.de", "name": "Si Claro", "opening_hours": "Mo-Th 12:00-23:00; Fr 12:00-01:00; Sa 15:00-01:00; Su 15:00-23:00", "outdoor_seating": "yes", "payment:cash": "yes", "payment:maestro": "yes", "payment:mastercard": "yes", "payment:visa": "yes", "phone": "+49 221 27107370", "website": "http://www.si-claro.de/"}}, {"type": "node", "id": 6412421811, "lat": 50.9404096, "lon": 6.939101, "tags": {"addr:city": "K\u00f6ln", "addr:country": "DE", "addr:housenumber": "7", "addr:postcode": "50672", "addr:street": "Friesenplatz", "amenity": "restaurant", "cuisine": "vietnamese", "name": "Maison Sen", "old_name": "Alpha", "opening_hours": "Mo-Sa 12:00-22:30; PH,Su 13:00-22:30", "outdoor_seating": "yes", "phone": "+49 221 252897", "website": "https://www.maisonsen.de/"}}, {"type": "node", "id": 6412421817, "lat": 50.940431, "lon": 6.9392961, "tags": {"amenity": "restaurant", "name": "Aspendos", "outdoor_seating": "yes"}}, {"type": "node", "id": 6412425752, "lat": 50.9407583, "lon": 6.9396676, "tags": {"amenity": "restaurant", "brand": "Peter Pane", "brand:wikidata": "Q66084419", "brand:wikipedia": "nl:Peter Pane", "cuisine": "burger", "internet_access": "wlan", "internet_access:fee": "no", "name": "Peter Pane", "opening_hours": "Mo-Su 11:00+", "outdoor_seating": "no", "phone": "+49 221 17062826", "reservation": "yes", "smoking": "no", "toilets:wheelchair": "yes", "website": "https://www.peterpane.de/gemuetliche-restaurants/koeln", "wheelchair": "yes"}}, {"type": "node", "id": 6516656213, "lat": 50.9399214, "lon": 6.9383546, "tags": {"addr:city": "K\u00f6ln", "addr:country": "DE", "addr:housenumber": "29", "addr:postcode": "50672", "addr:street": "Limburger Stra\u00dfe", "amenity": "restaurant", "craft": "caterer", "cuisine": "african", "description": "South african restaurant and catering", "name": "Shaka Zulu", "opening_hours": "Mo-Th 17:00-22:00; Fr 17:00-23:30; Sa 17:00-24:00; Su 17:00-21:30", "phone": "+49 221 16862814", "website": "https://www.shaka-zulu.de/"}}, {"type": "node", "id": 6559813985, "lat": 50.9368168, "lon": 6.937337, "tags": {"amenity": "restaurant", "cuisine": "japanese", "name": "Tanoshii", "opening_hours": "Mo-Sa 12:00-14:30, 17:30-23:00; Su 12:00-15:00, 17:00-22:00", "website": "http://www.tanoshii.eu"}}, {"type": "node", "id": 6566180551, "lat": 50.9398122, "lon": 6.93787, "tags": {"addr:city": "K\u00f6ln", "addr:housenumber": "42", "addr:postcode": "50672", "addr:street": "Brabanter Stra\u00dfe", "amenity": "restaurant", "cuisine": "korean", "delivery": "yes", "name": "Hankki K\u00f6ln", "opening_hours": "Fr-Su 12:00-00:00; Tu-Th 17:00-00:00", "phone": "+49 221 67811694", "reservation": "yes", "takeaway": "yes", "website": "https://www.hankki.de/"}}, {"type": "node", "id": 6638366054, "lat": 50.9513176, "lon": 6.9520765, "tags": {"amenity": "restaurant", "lunch": "yes", "lunch:menu": "yes", "name": "astrein", "opening_hours": "Tu-Sa 12:00-14:30, 18:00-21:30", "phone": "+49 221 95623990", "website": "https://www.astrein-restaurant.de"}}, {"type": "node", "id": 6653751086, "lat": 50.9380384, "lon": 6.9358202, "tags": {"amenity": "restaurant", "opening_hours": "Mo-Fr 12:00-19:00; Sa 12:00-20:00"}}, {"type": "node", "id": 6822499810, "lat": 50.9407172, "lon": 6.9409879, "tags": {"addr:city": "K\u00f6ln", "addr:country": "DE", "addr:housenumber": "80", "addr:postcode": "50670", "addr:street": "Friesenstra\u00dfe", "amenity": "restaurant", "email": "koeln@coyacan.de", "name": "Coyacan", "opening_hours": "Mo-Su 11:30-01:00", "phone": "+49 221 42918201", "website": "https://www.coyacan.de"}}, {"type": "node", "id": 6846931576, "lat": 50.9407655, "lon": 6.9408912, "tags": {"addr:city": "K\u00f6ln", "addr:country": "DE", "addr:housenumber": "82", "addr:postcode": "50670", "addr:street": "Friesenstra\u00dfe", "amenity": "restaurant", "name": "Wilma Wunder", "opening_hours": "Su-Th 09:00-24:00; Fr-Sa 09:00-01:00", "phone": "+49 221 42918210", "website": "https://koeln.wilma-wunder.de/"}}, {"type": "node", "id": 7006986593, "lat": 50.9497863, "lon": 6.956745, "tags": {"amenity": "restaurant", "cuisine": "italian", "name": "La Dolce Vita"}}, {"type": "node", "id": 7006986596, "lat": 50.9497528, "lon": 6.9571012, "tags": {"amenity": "restaurant", "cuisine": "italian", "name": "Il Cancello"}}, {"type": "node", "id": 7353586517, "lat": 50.9411666, "lon": 6.9372889, "tags": {"amenity": "restaurant", "delivery": "yes", "diet:vegan": "yes", "diet:vegetarian": "yes", "email": "koeln@make-food.de", "name": "MaKe", "opening_hours": "Mo-Su 11:30-20:00", "takeaway": "yes", "website": "https://www.make-food.de/koeln-venloer/menue"}}, {"type": "node", "id": 7368800891, "lat": 50.9390409, "lon": 6.9404788, "tags": {"addr:postcode": "50672", "amenity": "restaurant", "contact:facebook": "bailunoodles", "cuisine": "chinese", "name": "Bai Lu Noodles"}}, {"type": "node", "id": 7635404828, "lat": 50.9429042, "lon": 6.9352467, "tags": {"addr:city": "K\u00f6ln", "addr:housenumber": "40", "addr:postcode": "50672", "addr:street": "Venloer Stra\u00dfe", "amenity": "restaurant", "cuisine": "german", "name": "Stadtgarten - Restaurant", "opening_hours": "Mo-Th 12:00-01:00, Fr,Sa 12:00-02:00, Su 10:30-01:00", "wheelchair": "yes"}}, {"type": "node", "id": 8948712287, "lat": 50.951391, "lon": 6.9520315, "tags": {"amenity": "restaurant", "cuisine": "italian", "email": "m@rcellino.de", "name": "Marcellino Pane e Vino", "opening_hours": "Mo-Th off; Fr-Su 12:00-18:00", "outdoor_seating": "no", "phone": "+49 221 99 87 83 20", "shop": "deli", "website": "http://www.marcellino-pane-e-vino.de/"}}, {"type": "node", "id": 9331787676, "lat": 50.9400312, "lon": 6.9379299, "tags": {"addr:city": "K\u00f6ln", "addr:country": "DE", "addr:housenumber": "48", "addr:postcode": "50672", "addr:street": "Brabanter Stra\u00dfe", "amenity": "restaurant", "contact:facebook": "https://www.facebook.com/wellbeingkoeln", "contact:instagram": "https://www.instagram.com/wellbeing_koeln", "contact:phone": "+49 221 29925682", "contact:website": "https://www.wellbeing-koeln.de", "cuisine": "vietnamese", "delivery": "yes", "diet:vegan": "only", "name": "Well Being", "opening_hours": "Tu-Su 17:00-21:30", "operator": "Thu Khue", "organic": "only", "reusable_packaging:accept": "only", "reusable_packaging:offer": "no", "takeaway": "yes"}}, {"type": "node", "id": 9365683005, "lat": 50.9380817, "lon": 6.9344747, "tags": {"addr:city": "K\u00f6ln", "addr:housenumber": "55", "addr:postcode": "50674", "addr:street": "Br\u00fcsseler Stra\u00dfe", "amenity": "restaurant", "name": "Tante Kurt", "opening_hours": "Mo-Th 16:00-24:00; Fr 12:00-16:00; Sa,Su 17:00-24:00", "website": "https://tante-kurt.business.site/"}}, {"type": "node", "id": 9597600194, "lat": 50.9379546, "lon": 6.9387702, "tags": {"amenity": "restaurant", "cuisine": "italian", "name": "eat italien", "outdoor_seating": "yes", "payment:cash": "yes", "payment:credit_cards": "no", "payment:debit_cards": "no", "reservation": "yes"}}, {"type": "node", "id": 9707453266, "lat": 50.9415139, "lon": 6.9405545, "tags": {"addr:city": "K\u00f6ln", "addr:country": "DE", "addr:housenumber": "74-80", "addr:postcode": "50672", "addr:street": "Hohenzollernring", "amenity": "restaurant", "cuisine": "sushi", "email": "rollzandbowlz@web.de", "name": "Rollz & Bowlz", "phone": "+49 221 57004484", "website": "https://www.rollzandbowlz.de/"}}, {"type": "node", "id": 9798007663, "lat": 50.9404241, "lon": 6.9369262, "tags": {"addr:city": "K\u00f6ln", "addr:country": "DE", "addr:housenumber": "6", "addr:postcode": "50672", "addr:street": "Antwerpener Stra\u00dfe", "amenity": "restaurant", "cuisine": "cuban", "email": "info@restaurant-lafe.de", "name": "La Fe", "opening_hours": "Mo-Sa 11:00-21:00;Su 15:00-24:00", "phone": "+49 221 99875744", "website": "https://www.restaurant-lafe.de/"}}, {"type": "node", "id": 9798030644, "lat": 50.942788, "lon": 6.9410831, "tags": {"addr:city": "K\u00f6ln", "addr:country": "DE", "addr:housenumber": "6", "addr:postcode": "50672", "addr:street": "Kaiser-Wilhelm-Ring", "amenity": "restaurant", "contact:facebook": "ZademCologne", "cuisine": "turkish", "email": "zademcologne@gmail.com", "name": "Zadem"}}, {"type": "node", "id": 9803140333, "lat": 50.9376273, "lon": 6.9368291, "tags": {"addr:housenumber": "12", "addr:street": "L\u00fctticher Stra\u00dfe", "amenity": "restaurant", "description": "Modernes Restaurant mit feiner und abwechslungsreicher internationaler K\u00fcche.", "name": "L\u00fctticher", "opening_hours": "Mo-Su 18:00-01:00", "phone": "+49 221 525453", "website": "https://luetticher-koeln.de/"}}, {"type": "node", "id": 9926932922, "lat": 50.9517288, "lon": 6.9596626, "tags": {"amenity": "restaurant", "name": "Miga"}}, {"type": "node", "id": 10202044180, "lat": 50.9458475, "lon": 6.9562827, "tags": {"addr:city": "K\u00f6ln", "addr:country": "DE", "addr:housenumber": "25", "addr:postcode": "50668", "addr:street": "Eigelstein", "amenity": "restaurant", "cuisine": "asian", "name": "Ngoc Ha Tee", "phone": "+49 221 13011334"}}, {"type": "node", "id": 10202316876, "lat": 50.9494382, "lon": 6.9581225, "tags": {"amenity": "restaurant", "cuisine": "chinese", "name": "Reis & Tee"}}, {"type": "node", "id": 10202340567, "lat": 50.9483017, "lon": 6.9541731, "tags": {"amenity": "restaurant", "cuisine": "turkish", "name": "Mangal Burger"}}, {"type": "node", "id": 10277991724, "lat": 50.9427198, "lon": 6.9410612, "tags": {"amenity": "restaurant", "name": "bodhi vegan living"}}, {"type": "node", "id": 10285612192, "lat": 50.9454197, "lon": 6.9404203, "tags": {"amenity": "restaurant", "cuisine": "spanish", "name": "Meson el Cordobes", "website": "http://www.meson-el-cordobes.de/", "website:menu": "http://www.meson-el-cordobes.de/wordpress/meson-el-cordobes/speisekarte-3/"}}, {"type": "node", "id": 10310714610, "lat": 50.9366098, "lon": 6.9366429, "tags": {"amenity": "restaurant", "name": "Balthasars"}}, {"type": "way", "id": 27275730, "nodes": [2584091935, 2584091929, 2584091932, 2584091930, 2584091931, 2584091933, 2584091934, 2584091936, 2584091937, 2584091938, 2584091935], "tags": {"amenity": "restaurant", "building": "yes", "cuisine": "german", "name": "DB Kantine", "operator": "DB Gastronomie GmbH"}}, {"type": "way", "id": 52168965, "nodes": [2574930000, 2574929972, 2574929982, 2574930068, 2574930066, 2574930070, 2574930063, 2574930053, 2574930000], "tags": {"addr:city": "K\u00f6ln", "addr:country": "DE", "addr:housenumber": "1", "addr:postcode": "50668", "addr:street": "Amsterdamer Stra\u00dfe", "amenity": "restaurant", "building": "yes", "building:use": "foodservice", "email": "info@weinmuseum.org", "name": "Weinmuseum", "operator": "Weinmuseum K\u00f6ln e.V.", "phone": "+49 221 9723069", "source": "Bing", "tourism": "museum", "website": "https://www.weinmuseum.org/", "wheelchair": "limited"}}, {"type": "way", "id": 84599949, "nodes": [661213735, 661213734, 2514174830, 982860523, 982860609, 661213736, 661213738, 982860525, 661213735], "tags": {"amenity": "restaurant", "building": "yes", "cuisine": "pizza", "wheelchair": "yes"}}, {"type": "way", "id": 91045132, "nodes": [289728800, 1057275869, 4396508193, 283770291, 2583999795, 2583999796, 2583999805, 2583999804, 283770294, 283770297, 2583999839, 2583999840, 2583999813, 2583999791, 283770305, 289728800], "tags": {"addr:city": "K\u00f6ln", "addr:country": "DE", "amenity": "restaurant", "bar": "yes", "breakfast:brunch": "Su 10:00-15:00", "building": "yes", "cuisine": "german", "cuisine:crossover": "german;italian;american", "name": "Maybach", "opening_hours": "Tu-Fr 12:00-14:30, 18:00+; Sa 18:00+", "operator": "maybach Gastronomie GmbH", "outdoor_seating": "yes", "phone": "+49 221 9123598", "ref:vatin": "DE228661203", "smoking": "outside", "source": "yahoo", "website": "https://maybach111.de/", "website:menu": "https://maybach111.de/downloads/maybach_Tageskarte.pdf", "wheelchair": "yes"}}, {"type": "way", "id": 109232385, "nodes": [2585450543, 2585450541, 2585450542, 2585450544, 2585450547, 2585450545, 2585450548, 2585450543], "tags": {"addr:city": "K\u00f6ln", "addr:country": "DE", "addr:housenumber": "115", "addr:postcode": "50668", "addr:street": "Konrad-Adenauer-Ufer", "amenity": "restaurant", "building": "yes", "building:use": "foodservice", "name": "Richters", "toilets:wheelchair": "no", "website": "https://www.richters-koeln.de/", "wheelchair": "yes"}}, {"type": "way", "id": 196600206, "nodes": [2574929691, 2574929679, 2574929656, 2574929596, 2574929607, 2574929605, 2574929624, 2574929647, 2574929682, 2574929767, 2574929788, 2574929802, 2574929739, 2574929731, 2574929711, 2574929691], "tags": {"addr:city": "K\u00f6ln", "addr:country": "DE", "addr:housenumber": "105", "addr:postcode": "50668", "addr:street": "Riehler Stra\u00dfe", "amenity": "restaurant", "building": "yes", "building:levels": "5", "building:use": "residential;industrial", "contact:website": "http://www.steakhaus-lacasona.de/", "cuisine": "steak_house", "name": "Steakhaus La Casona", "opening_hours:url": "http://www.steakhaus-lacasona.de/index.php?p=contact", "outdoor_seating": "yes", "roof:shape": "gabled", "wheelchair": "limited"}}, {"type": "way", "id": 218523811, "nodes": [2277589008, 2277589021, 2277589020, 2277589009, 2464039839, 2277589008], "tags": {"addr:city": "K\u00f6ln", "addr:country": "DE", "addr:housenumber": "46", "addr:postcode": "50674", "addr:street": "Br\u00fcsseler Stra\u00dfe", "amenity": "restaurant", "building": "yes", "building:use": "residential;industrial", "cuisine": "sushi", "email": "info@fisch-hof.de", "name": "Fisch Hof", "opening_hours": "Mo-Sa 11:00-23:00; Su 14:30-22:30", "phone": "+49-221-5103433", "source": "Survey", "website": "https://www.fisch-hof.de/"}}, {"type": "way", "id": 227007244, "nodes": [2357409097, 2357409096, 2357409095, 2357409091, 2357409092, 2357409093, 2357409094, 2357409089, 2357409090, 2357409097], "tags": {"addr:city": "K\u00f6ln", "addr:country": "DE", "addr:housenumber": "66", "addr:postcode": "50674", "addr:street": "Br\u00fcsseler Stra\u00dfe", "amenity": "restaurant", "building": "yes", "building:use": "residential;industrial", "cuisine": "burger;sandwich", "name": "Elea Candia"}}, {"type": "way", "id": 237083960, "nodes": [2863169044, 2863169030, 2863169025, 2863169036, 2863169044], "tags": {"addr:city": "K\u00f6ln", "addr:country": "DE", "addr:housenumber": "68", "addr:postcode": "50668", "addr:street": "Unter Krahnenb\u00e4umen", "amenity": "restaurant", "building": "yes", "building:levels": "3", "building:use": "residential;industrial", "cuisine": "latin_american", "email": "miguelitos@hotmail.de", "name": "Miguelitos", "opening_hours": "Tu-Su 12:00-20:00", "phone": "+49 (0)1573 3222159", "roof:orientation": "across", "roof:shape": "gabled"}}, {"type": "way", "id": 241601503, "nodes": [2576338200, 2576338197, 2046481130, 2576338237, 2576338224, 2576338200], "tags": {"addr:city": "K\u00f6ln", "addr:country": "DE", "addr:housenumber": "54", "addr:postcode": "50670", "addr:street": "Christophstra\u00dfe", "amenity": "restaurant", "building": "yes", "building:levels": "4", "building:use": "foodservice", "name": "Trattoria Bennyssimo", "opening_hours": "Mo-Fr 12:00-14:30,18:00-22:30; Sa 18:00-22:30; Su off", "roof:shape": "flat"}}, {"type": "way", "id": 282279828, "nodes": [2862174109, 2862169198, 2862169196, 2862174101, 2862174107, 2862174108, 2862174109], "tags": {"addr:city": "K\u00f6ln", "addr:country": "DE", "addr:housenumber": "74", "addr:postcode": "50668", "addr:street": "Eigelstein", "amenity": "restaurant", "building": "yes", "building:levels": "2", "building:use": "foodservice", "cuisine": "regional", "name": "Bier- und Weinhaus K. Vogel", "opening_hours": "Tu-Su 12:00-23:00; Mo off", "outdoor_seating": "yes", "phone": "+49 221 139913", "roof:shape": "flat", "toilets:wheelchair": "no", "wheelchair": "yes", "wheelchair:description": "Zugang und Toilette ebenerdig, Toilette nicht behindertengerecht"}}]}