{"version": 0.6, "generator": "Overpass API 0.7.60.2 e4cf9f7a", "osm3s": {"timestamp_osm_base": "2023-04-29T12:57:54Z", "copyright": "The data included in this document is from www.openstreetmap.org. The data is made available under ODbL."}, "elements": [{"type": "node", "id": 373811949, "lat": 50.8936659, "lon": 6.9919645, "tags": {"addr:city": "K\u00f6ln", "addr:housenumber": "35a", "addr:postcode": "50996", "addr:street": "Wilhelmstra\u00dfe", "amenity": "restaurant", "contact:email": "info@luis-dias.com", "contact:facebook": "https://www.facebook.com/luisdiaskoch/", "contact:phone": "+49 221 9352323", "contact:website": "https://luis-dias.com", "cuisine": "international", "delivery": "no", "name": "Luis Dias", "opening_hours": "Tu-Su 12:00-14:30,18:00-22:00; Sa 18:00-22:00", "operator": "Luis Dias", "reservation": "recommended", "smoking": "no", "source": "survey", "wheelchair": "no"}}, {"type": "node", "id": 660151778, "lat": 50.8941998, "lon": 6.9937923, "tags": {"addr:city": "K\u00f6ln", "addr:housenumber": "47", "addr:postcode": "50996", "addr:street": "Hauptstra\u00dfe", "amenity": "restaurant", "cuisine": "italian", "name": "Del Bajazzo", "website": "http://delbajazzo.de/", "wheelchair": "no"}}, {"type": "node", "id": 1386159418, "lat": 50.8909297, "lon": 7.0232402, "tags": {"amenity": "restaurant", "name": "Restaurant Haus Berger", "outdoor_seating": "yes", "toilets:wheelchair": "no", "wheelchair": "no"}}, {"type": "node", "id": 1397164627, "lat": 50.8809836, "lon": 7.014895, "tags": {"addr:city": "K\u00f6ln", "addr:housenumber": "4", "addr:postcode": "50999", "addr:street": "Lucas-Cranach-Stra\u00dfe", "amenity": "restaurant", "biergarten": "yes", "cuisine": "greek", "name": "Delphi", "opening_hours": "17:00-24:00", "phone": "+49 221 354286", "toilets:wheelchair": "no", "website": "http://www.delphi-koeln.de/", "wheelchair": "yes"}}, {"type": "node", "id": 1491848869, "lat": 50.8909596, "lon": 7.0211106, "tags": {"addr:city": "K\u00f6ln", "addr:housenumber": "63", "addr:postcode": "50996", "addr:street": "Uferstra\u00dfe", "amenity": "restaurant", "cuisine": "thai", "name": "Sala Rim Naam", "toilets:wheelchair": "no", "wheelchair": "no"}}, {"type": "node", "id": 1630147137, "lat": 50.8923367, "lon": 6.9934006, "tags": {"amenity": "restaurant", "cuisine": "italian", "name": "Palladio", "toilets:wheelchair": "no", "wheelchair": "yes"}}, {"type": "node", "id": 1638242598, "lat": 50.8967555, "lon": 6.990796, "tags": {"addr:city": "K\u00f6ln", "addr:housenumber": "7", "addr:postcode": "50996", "addr:street": "Hauptstra\u00dfe", "amenity": "restaurant", "cuisine": "regional", "email": "info@brauhaus-quetsch.de", "name": "Brauhaus Quetsch", "opening_hours": "Mo-Su 11:30-00:00", "operator": "Serpil & Heiko P. H\u00f6rnecke", "outdoor_seating": "yes", "phone": "+49 221 260 36 80", "smoking": "outside", "toilets:wheelchair": "no", "website": "http://www.brauhaus-quetsch.de", "website:menu": "https://brauhaus-quetsch.de/wp-content/uploads/2022/06/Speisekarte-ohne-WK06-22.pdf", "wheelchair": "yes", "wheelchair:description": "Zugang ebenerdig und mit Aktivrolli m\u00f6glich. Toiletten ebenerdig zug\u00e4nglich, jedoch nur bis Vorraum mit Waschbecken zug\u00e4nglich. Keine spezielle Toilette f\u00fcr Rollstuhlfahrer vorhanden. Gewisse Restmobilit\u00e4t muss vorhanden sein. Stand 17.10.2015"}}, {"type": "node", "id": 2381013679, "lat": 50.8976324, "lon": 6.9906099, "tags": {"amenity": "restaurant", "name": "Bootshaus Alte Liebe", "website": "https://bootshaus-alte-liebe.de/", "wikidata": "Q99896383", "wikimedia_commons": "Category:Alte Liebe (K\u00f6ln)"}}, {"type": "node", "id": 2406622186, "lat": 50.8882273, "lon": 7.000967, "tags": {"addr:city": "K\u00f6ln", "addr:housenumber": "43", "addr:postcode": "50996", "addr:street": "Wei\u00dfer Stra\u00dfe", "amenity": "restaurant", "contact:facebook": "https://www.facebook.com/Rhodos-Grill-827116327332424/", "cuisine": "pizza;greek", "name": "Rhodos Grill"}}, {"type": "node", "id": 2708494701, "lat": 50.8948313, "lon": 6.9949779}, {"type": "node", "id": 2708494730, "lat": 50.8948665, "lon": 6.9949295}, {"type": "node", "id": 2708494737, "lat": 50.894883, "lon": 6.9950594}, {"type": "node", "id": 2708494739, "lat": 50.8948871, "lon": 6.9949671}, {"type": "node", "id": 2708494743, "lat": 50.8948966, "lon": 6.9948004}, {"type": "node", "id": 2708494746, "lat": 50.8949045, "lon": 6.9950323}, {"type": "node", "id": 2708494775, "lat": 50.8949395, "lon": 6.9950975}, {"type": "node", "id": 2708494776, "lat": 50.8949428, "lon": 6.9947103}, {"type": "node", "id": 2708494778, "lat": 50.8949441, "lon": 6.9948905}, {"type": "node", "id": 2708494780, "lat": 50.8949459, "lon": 6.9951021}, {"type": "node", "id": 2708494784, "lat": 50.8949494, "lon": 6.9951037}, {"type": "node", "id": 2708494793, "lat": 50.8949556, "lon": 6.9951052}, {"type": "node", "id": 2708494795, "lat": 50.8949633, "lon": 6.9951025}, {"type": "node", "id": 2708494801, "lat": 50.8949689, "lon": 6.9950982}, {"type": "node", "id": 2708494803, "lat": 50.8949738, "lon": 6.9950917}, {"type": "node", "id": 2708494806, "lat": 50.8949772, "lon": 6.9950841}, {"type": "node", "id": 2708494808, "lat": 50.8949795, "lon": 6.9950757}, {"type": "node", "id": 2708494810, "lat": 50.8949798, "lon": 6.995054}, {"type": "node", "id": 2708494812, "lat": 50.8949807, "lon": 6.9950645}, {"type": "node", "id": 2708494816, "lat": 50.8949912, "lon": 6.9950746}, {"type": "node", "id": 2708494818, "lat": 50.8949933, "lon": 6.9948043}, {"type": "node", "id": 2708494819, "lat": 50.8950349, "lon": 6.9947472}, {"type": "node", "id": 2708494821, "lat": 50.8950461, "lon": 6.9949387}, {"type": "node", "id": 2708494825, "lat": 50.8950647, "lon": 6.9949725}, {"type": "node", "id": 2708494829, "lat": 50.8950798, "lon": 6.9948632}, {"type": "node", "id": 2708494834, "lat": 50.8950887, "lon": 6.9948795}, {"type": "node", "id": 2708494835, "lat": 50.8950896, "lon": 6.9948495}, {"type": "node", "id": 2708494903, "lat": 50.8953985, "lon": 6.9944675}, {"type": "node", "id": 2708494928, "lat": 50.8954251, "lon": 6.9944098}, {"type": "node", "id": 2708494930, "lat": 50.8954407, "lon": 6.9945096}, {"type": "node", "id": 2708494934, "lat": 50.8954604, "lon": 6.9945309}, {"type": "node", "id": 2708494936, "lat": 50.8954855, "lon": 6.9944723}, {"type": "node", "id": 2708543112, "lat": 50.893011, "lon": 6.9922749}, {"type": "node", "id": 2708543127, "lat": 50.8930707, "lon": 6.9924243}, {"type": "node", "id": 2708543152, "lat": 50.8931466, "lon": 6.9921416}, {"type": "node", "id": 2708543159, "lat": 50.8931663, "lon": 6.9922253}, {"type": "node", "id": 2708543162, "lat": 50.89317, "lon": 6.9921984}, {"type": "node", "id": 2708543171, "lat": 50.8931966, "lon": 6.9923038}, {"type": "node", "id": 2708543188, "lat": 50.8932331, "lon": 6.9941566}, {"type": "node", "id": 2708543192, "lat": 50.8932432, "lon": 6.9941769}, {"type": "node", "id": 2708543208, "lat": 50.893284, "lon": 6.9942583}, {"type": "node", "id": 2708543211, "lat": 50.8932888, "lon": 6.9940862}, {"type": "node", "id": 2708543220, "lat": 50.8933119, "lon": 6.9943141}, {"type": "node", "id": 2708543227, "lat": 50.8933345, "lon": 6.9940288}, {"type": "node", "id": 2708543229, "lat": 50.8933431, "lon": 6.9942761}, {"type": "node", "id": 2708543241, "lat": 50.8933823, "lon": 6.9942281}, {"type": "node", "id": 2708543252, "lat": 50.8934142, "lon": 6.9941897}, {"type": "node", "id": 2709713549, "lat": 50.8953157, "lon": 6.9942155}, {"type": "node", "id": 2709713553, "lat": 50.8953445, "lon": 6.9941461}, {"type": "node", "id": 2709713557, "lat": 50.8953893, "lon": 6.9941926}, {"type": "node", "id": 2709713559, "lat": 50.895396, "lon": 6.9941763}, {"type": "node", "id": 2709713563, "lat": 50.8954105, "lon": 6.9942145}, {"type": "node", "id": 2709713565, "lat": 50.8954172, "lon": 6.9941983}, {"type": "node", "id": 2709713567, "lat": 50.8954439, "lon": 6.9943483}, {"type": "node", "id": 2709713569, "lat": 50.8954726, "lon": 6.994279}, {"type": "node", "id": 3984260378, "lat": 50.8950031, "lon": 6.992378, "tags": {"addr:city": "K\u00f6ln", "addr:housenumber": "44", "addr:postcode": "50996", "addr:street": "Hauptstra\u00dfe", "amenity": "restaurant", "cuisine": "mexican", "name": "Conchita\u00b4s Cantina", "smoking": "outside", "website": "https://www.conchitas-cantina.de/", "wheelchair": "limited"}}, {"type": "node", "id": 3984541587, "lat": 50.8932588, "lon": 6.9950948, "tags": {"addr:city": "K\u00f6ln", "addr:housenumber": "71", "addr:postcode": "50996", "addr:street": "Hauptstra\u00dfe", "amenity": "restaurant", "cuisine": "chinese", "level": "1", "name": "China Restaurant Orchidee", "smoking": "outside", "website": "http://www.chinarestaurant-orchidee.de/", "wheelchair": "limited"}}, {"type": "node", "id": 3984541588, "lat": 50.8950627, "lon": 6.994152, "tags": {"addr:city": "K\u00f6ln", "addr:housenumber": "16", "addr:postcode": "50996", "addr:street": "Kirchstra\u00dfe", "amenity": "restaurant", "cuisine": "international", "name": "Artistanbul", "opening_hours": "We-Mo 17:00-23:00", "website": "http://artistanbul-restaurant.de/"}}, {"type": "node", "id": 3985263370, "lat": 50.8920408, "lon": 6.9961245, "tags": {"addr:city": "K\u00f6ln", "addr:housenumber": "118", "addr:postcode": "50996", "addr:street": "Hauptstra\u00dfe", "amenity": "restaurant", "cuisine": "regional", "delivery": "no", "name": "K\u00f6lnisch Wasser", "smoking": "outside", "takeaway": "no", "wheelchair": "no"}}, {"type": "node", "id": 4023666149, "lat": 50.8932617, "lon": 6.9941204, "tags": {"entrance": "yes"}}, {"type": "node", "id": 4365954855, "lat": 50.8869592, "lon": 7.0024498, "tags": {"addr:city": "K\u00f6ln", "addr:housenumber": "71", "addr:postcode": "50996", "addr:street": "Wei\u00dfer Stra\u00dfe", "amenity": "restaurant", "cuisine": "italian", "name": "Il Nido Osteria", "website": "http://www.ristorante-ilnido.de"}}, {"type": "node", "id": 6958122453, "lat": 50.893835, "lon": 6.9942789, "tags": {"addr:city": "K\u00f6ln", "addr:housenumber": "61", "addr:postcode": "50996", "addr:street": "Hauptstra\u00dfe", "amenity": "restaurant", "cuisine": "french", "delivery": "no", "name": "Petite Marie", "opening_hours": "Tu-Sa 12:00-14:30, 17:30-23:00", "phone": "+49 221 3779133", "smoking": "no", "source": "survey", "takeaway": "no", "website": "https://restaurant-petitemarie.de", "wheelchair": "no"}}, {"type": "node", "id": 6958122454, "lat": 50.8940785, "lon": 6.9950925, "tags": {"addr:city": "K\u00f6ln", "addr:housenumber": "6", "addr:postcode": "50996", "addr:street": "Rheinstra\u00dfe", "amenity": "restaurant", "cuisine": "steak_house", "name": "Steakhaus Asado Pampa", "smoking": "outside", "source": "survey", "website": "http://www.asadopampa.de/", "wheelchair": "no"}}, {"type": "node", "id": 7004053581, "lat": 50.8913252, "lon": 6.99007, "tags": {"amenity": "restaurant", "name": "Heisse Ecke"}}, {"type": "node", "id": 7254954241, "lat": 50.8919567, "lon": 7.0018434, "tags": {"amenity": "restaurant", "cuisine": "steak_house", "email": "kontakt@oxroyal.de", "name": "Ox Royal", "opening_hours": "Mo-Su 17:30-23:00", "phone": "+49 221 37984606", "website": "https://steakhaus-ox-royal-koeln.de/"}}, {"type": "node", "id": 7913164408, "lat": 50.8781834, "lon": 7.0029703, "tags": {"amenity": "restaurant", "cuisine": "pizza;pasta", "name": "Roses", "note": "Es gibt unter anderem Vorspeisen, Pizza, Burger, Waffeln, Salate. Ab Oktober 2020 gibt es (an Wochenenden) Brunch.", "opening_hours": "Mo-Su 09:00-23:00", "start_date": "September 2020"}}, {"type": "way", "id": 265182142, "nodes": [2708494776, 2708494743, 2708494778, 2708494739, 2708494730, 2708494701, 2708494737, 2708494746, 2708494775, 2708494780, 2708494784, 2708494793, 2708494795, 2708494801, 2708494803, 2708494806, 2708494808, 2708494812, 2708494810, 2708494816, 2708494825, 2708494821, 2708494834, 2708494829, 2708494835, 2708494819, 2708494818, 2708494776], "tags": {"addr:city": "K\u00f6ln", "addr:country": "DE", "addr:housenumber": "9", "addr:postcode": "50996", "addr:street": "Karlstra\u00dfe", "amenity": "restaurant", "building": "yes", "building:use": "residential;commercial", "cuisine": "international", "name": "Rheinstation", "smoking": "outside", "tourism": "hotel", "website": "http://just-six.de/rheinstation_cms/", "wheelchair": "no"}}, {"type": "way", "id": 265182184, "nodes": [2708494928, 2708494903, 2708494930, 2708494934, 2708494936, 2708494928], "tags": {"addr:city": "K\u00f6ln", "addr:country": "DE", "addr:housenumber": "1", "addr:postcode": "50996", "addr:street": "Steinstra\u00dfe", "amenity": "restaurant", "building": "yes", "building:use": "foodservice", "name": "F\u00e4hrhaus", "phone": "+49 221 9359969", "website": "https://www.faehrhauskoeln.de/", "wheelchair": "no"}}, {"type": "way", "id": 265188362, "nodes": [2708543159, 2708543162, 2708543152, 2708543112, 2708543127, 2708543171, 2708543159], "tags": {"addr:city": "K\u00f6ln", "addr:country": "DE", "addr:housenumber": "58", "addr:postcode": "50996", "addr:street": "Wilhelmstra\u00dfe", "amenity": "restaurant", "building": "yes", "building:use": "residential;industrial", "capacity": "45", "cuisine": "regional", "name": "Hinger dr' Heck", "opening_hours": "Mo-Su 17:30-24:00", "smoking": "outside", "wheelchair": "yes"}}, {"type": "way", "id": 265188456, "nodes": [2708543227, 2708543211, 4023666149, 2708543188, 2708543192, 2708543208, 2708543220, 2708543229, 2708543241, 2708543252, 2708543227], "tags": {"addr:city": "K\u00f6ln", "addr:housenumber": "6", "addr:postcode": "50996", "addr:street": "Maternusstra\u00dfe", "amenity": "restaurant", "building": "yes", "cuisine": "international", "delivery": "no", "name": "Walterscheidt's Bistro Verde", "opening_hours": "Mo-We 11:00-18:30; Th,Fr 11:00-23:00; Sa 10:00-16:00", "smoking": "outside", "takeaway": "yes", "website": "https://www.walterscheidt.net/bistro.html", "wheelchair": "limited"}}, {"type": "way", "id": 265303269, "nodes": [2709713563, 2709713565, 2709713559, 2709713557, 2709713553, 2709713549, 2709713567, 2709713569, 2709713563], "tags": {"addr:city": "K\u00f6ln", "addr:country": "DE", "addr:housenumber": "15", "addr:postcode": "50996", "addr:street": "Kirchstra\u00dfe", "amenity": "restaurant", "building": "yes", "cuisine": "german", "name": "Zum Treppchen", "website": "https://www.zum-treppchen-koeln.de/", "wheelchair": "no"}}]}