{"version": 0.6, "generator": "Overpass API 0.7.60.2 e4cf9f7a", "osm3s": {"timestamp_osm_base": "2023-04-29T12:57:54Z", "copyright": "The data included in this document is from www.openstreetmap.org. The data is made available under ODbL."}, "elements": [{"type": "node", "id": 248711120, "lat": 50.9395399, "lon": 6.9753385, "tags": {"addr:city": "K\u00f6ln", "addr:country": "DE", "addr:housenumber": "32", "addr:postcode": "50679", "addr:street": "Neuh\u00f6fferstra\u00dfe", "addr:suburb": "Deutz", "amenity": "restaurant", "cuisine": "mexican", "fax": "+49 (0)221 9213479", "name": "Cafe Especial", "opening_hours": "Mo-Su 11:00-01:00", "operator": "Reposados Betreiber UG", "outdoor_seating": "yes", "phone": "+49 (0)221 814755", "smoking": "separated", "toilets": "yes", "toilets:wheelchair": "no", "website": "https://www.cafe-especial.com/", "wheelchair": "limited"}}, {"type": "node", "id": 249420160, "lat": 50.9389185, "lon": 6.9780129, "tags": {"addr:city": "K\u00f6ln", "addr:housenumber": "96", "addr:postcode": "50679", "addr:street": "Constantinstra\u00dfe", "addr:suburb": "Deutz", "amenity": "restaurant", "cuisine": "burger", "description": "American Sportsbar/Restaurant Deutz", "name": "Joe Champs", "website": "http://deutz.joe-champs.de", "wheelchair": "limited"}}, {"type": "node", "id": 295993266, "lat": 50.9402502, "lon": 6.9722495, "tags": {"addr:city": "K\u00f6ln", "addr:country": "DE", "addr:housenumber": "1", "addr:postcode": "50679", "addr:street": "Ottoplatz", "amenity": "restaurant", "designated": "Restaurant", "diet:vegan": "yes", "diet:vegetarian": "yes", "name": "Mongo's", "opening_hours": "Mo-Th 12:00-24:00; Fr-Sa 12:00-01:00; Su,PH 11:00-24:00", "outdoor_seating": "yes", "phone": "+49 221 9893810", "source": "survey", "toilets:wheelchair": "no", "website": "https://www.mongos.de/de/restaurant/koeln.php", "wheelchair": "yes", "wheelchair:description": "keine Rollstuhltoilette"}}, {"type": "node", "id": 370908673, "lat": 50.9370181, "lon": 6.971946, "tags": {"addr:city": "K\u00f6ln", "addr:country": "DE", "addr:housenumber": "2", "addr:postcode": "50679", "addr:street": "Mindener Stra\u00dfe", "amenity": "restaurant", "bar": "yes", "cafe": "yes", "email": "info@rosenstock-koeln.com", "name": "Rosenstock", "opening_hours": "Mo-Fr 00:00-01:00,10:00-24:00; Sa,Su 00:00-02:00,10:00-24:00", "operator": "Rosenstock Gastronomie GmbH & Co. KG", "outdoor_seating": "yes", "phone": "+49 221 33839951", "toilets:wheelchair": "no", "website": "https://rosenstockdeutz.de/", "wheelchair": "yes"}}, {"type": "node", "id": 390965762, "lat": 50.9348555, "lon": 6.9734266, "tags": {"addr:housenumber": "41-43", "addr:postcode": "50679", "addr:street": "Tempelstra\u00dfe", "amenity": "restaurant", "name": "B\u00fcrgerzentrum Deutz", "toilets:wheelchair": "yes", "wheelchair": "yes"}}, {"type": "node", "id": 410104508, "lat": 50.9393601, "lon": 6.976782, "tags": {"addr:city": "K\u00f6ln", "addr:country": "DE", "addr:housenumber": "87-89", "addr:postcode": "50679", "addr:street": "Constantinstra\u00dfe", "air_conditioning": "yes", "amenity": "restaurant", "brand": "Vapiano", "brand:wikidata": "Q506252", "brand:wikipedia": "en:Vapiano", "cuisine": "italian", "delivery": "yes", "diet:vegan": "yes", "diet:vegetarian": "yes", "indoor_seating": "yes", "name": "Vapiano", "outdoor_seating": "yes", "smoking": "outside", "takeaway": "yes", "website": "http://www.vapiano.de", "wheelchair": "yes"}}, {"type": "node", "id": 448021117, "lat": 50.9492666, "lon": 6.9873943, "tags": {"addr:city": "K\u00f6ln", "addr:housenumber": "146b", "addr:postcode": "51063", "addr:street": "Deutz-M\u00fclheimer Stra\u00dfe", "amenity": "restaurant", "name": "Radieschen & Co", "website": "https://www.radieschenundco.de/"}}, {"type": "node", "id": 567071920, "lat": 50.9454783, "lon": 6.9696719}, {"type": "node", "id": 567082283, "lat": 50.9456472, "lon": 6.9700426}, {"type": "node", "id": 567082289, "lat": 50.9455629, "lon": 6.9698756}, {"type": "node", "id": 567082320, "lat": 50.9459297, "lon": 6.9700971}, {"type": "node", "id": 567082322, "lat": 50.9458575, "lon": 6.9701608}, {"type": "node", "id": 663712939, "lat": 50.9375426, "lon": 6.9688646, "tags": {"addr:city": "K\u00f6ln", "addr:housenumber": "1", "addr:postcode": "50679", "addr:street": "Kennedy-Ufer", "amenity": "restaurant", "cuisine": "greek", "name": "Oasis", "outdoor_seating": "yes", "source": "photography", "toilets:wheelchair": "no", "website": "https://www.restaurantoasis.de/", "wheelchair": "limited", "wheelchair:description": "Sehr gro\u00dfr\u00e4umige Behindertentoilette. Den Rollstuhlzugang zum Restaurant muss man sich kurz von einer Bedienung aufschlie\u00dfen lassen. Nur ein Teil der Tische ist ohne Stufe erreichbar wegen Podesten im Restaurantraum. Daher reservieren und sagen, dass ein"}}, {"type": "node", "id": 663713065, "lat": 50.9404062, "lon": 6.9717531, "tags": {"amenity": "restaurant", "level": "0", "name": "l\u00b4Orange", "toilets:wheelchair": "no", "wheelchair": "yes"}}, {"type": "node", "id": 743384078, "lat": 50.9460433, "lon": 6.9704574}, {"type": "node", "id": 743384079, "lat": 50.9462374, "lon": 6.9703088}, {"type": "node", "id": 1880756354, "lat": 50.946107, "lon": 6.9699516}, {"type": "node", "id": 2065517372, "lat": 50.9505868, "lon": 6.9805299, "tags": {"amenity": "restaurant", "cuisine": "international", "name": "Eau de Cologne", "phone": "+49 221 98144 55", "website": "https://www.claudius-therme.de/de/eau-de-cologne.htm"}}, {"type": "node", "id": 2173978804, "lat": 50.9425631, "lon": 6.9817275, "tags": {"amenity": "restaurant", "name": "D\u00fcx", "opening_hours": "Mo-Su, PH 12:00-23:00", "website": "https://hotel-koeln-messe.dorint.com/de/restaurants/bierstube-und-restaurant-duex/", "wheelchair": "yes"}}, {"type": "node", "id": 2270507792, "lat": 50.9390112, "lon": 6.97736, "tags": {"addr:city": "K\u00f6ln", "addr:housenumber": "12", "addr:postcode": "50679", "addr:street": "Von-Sandt-Platz", "addr:suburb": "Deutz", "amenity": "restaurant", "cuisine": "sushi", "name": "Sushi-Haus Deutz", "opening_hours": "Mo-Th 11:00-22:00; Fr 11:00-23:00; Sa 16:00-23:00; Su 16:00-22:00", "phone": "+49 221 88754515", "website": "http://www.sushi-haus-deutz.de", "wheelchair": "yes"}}, {"type": "node", "id": 2272436590, "lat": 50.9386556, "lon": 6.9815059, "tags": {"amenity": "restaurant", "cuisine": "regional", "email": "henkelmaennchen@lanxess-arena.de", "fax": "+49 221 802 3801", "name": "Henkelm\u00e4nnchen", "phone": "+49 221 802 3456", "website": "http://www.lanxess-arena.de/gastronomie/unsere-restaurants/henkelmaennchen.html", "wheelchair": "yes"}}, {"type": "node", "id": 2380887107, "lat": 50.9405012, "lon": 6.9739258, "tags": {"addr:city": "K\u00f6ln", "addr:housenumber": "7", "addr:postcode": "50679", "addr:street": "Ottoplatz", "amenity": "restaurant", "capacity": "400", "cuisine": "german", "description": "K\u00f6lsche K\u00fcche", "diet:vegetarian": "yes", "email": "info@deutzerbrauhaus.de", "indoor_seating": "yes", "level": "0", "name": "Deutzer Brauhaus", "opening_hours": "Mo-Fr 11:00-24:00; Sa,Su 10:00-24:00", "outdoor_seating": "yes", "phone": "+49 221 89998420", "toilets:wheelchair": "yes", "website": "https://www.deutzerbrauhaus.de/", "wheelchair": "yes"}}, {"type": "node", "id": 2514943011, "lat": 50.9370675, "lon": 6.9698497, "tags": {"amenity": "restaurant", "name": "bona'me", "opening_hours": "Mo-Su 10:00-24:00", "phone": "+49 221 94999252", "wheelchair": "yes", "wheelchair:description": "Zurzeit, 31.10.2013, ist noch eine Baustelle an der Deutzer Br\u00fccke."}}, {"type": "node", "id": 2868600933, "lat": 50.9329133, "lon": 6.9806794, "tags": {"amenity": "restaurant", "name": "Caf\u00e9 Lichthof", "opening_hours": "Mo-Fr 07:00-18:00; Sa-Su 09:00-18:00", "wheelchair": "yes"}}, {"type": "node", "id": 2975437871, "lat": 50.9409356, "lon": 6.9843743, "tags": {"access": "private", "amenity": "restaurant", "delivery": "no", "internet_access": "no", "internet_access:fee": "no", "name": "DB Casino", "opening_hours": "Mo-Th 07:00-14:00; Fr 07:00-13:00", "operator": "DB Gastronomie GmbH", "outdoor_seating": "yes", "payment:cash": "no", "smoking": "outside", "takeaway": "no", "wheelchair": "yes"}}, {"type": "node", "id": 3083510892, "lat": 50.9476576, "lon": 6.9832106}, {"type": "node", "id": 3083511187, "lat": 50.9478674, "lon": 6.9822406}, {"type": "node", "id": 3657165150, "lat": 50.9405374, "lon": 6.968905}, {"type": "node", "id": 3657165151, "lat": 50.9407496, "lon": 6.9687653}, {"type": "node", "id": 3657165152, "lat": 50.9407454, "lon": 6.9689169}, {"type": "node", "id": 3657165153, "lat": 50.9405409, "lon": 6.9687521}, {"type": "node", "id": 3682748277, "lat": 50.9456438, "lon": 6.9699053}, {"type": "node", "id": 4037245093, "lat": 50.9382907, "lon": 6.9718451, "tags": {"addr:city": "K\u00f6ln", "addr:housenumber": "4", "addr:postcode": "50679", "addr:street": "Mindener Stra\u00dfe", "amenity": "restaurant", "cuisine": "asian", "delivery": "no", "diet:vegan": "yes", "diet:vegetarian": "yes", "name": "Min Cuisine asiatique & bar", "operator": "Jian Sun", "outdoor_seating": "no", "phone": "+49 221 837 97968", "smoking": "no", "website": "https://www.min-cuisine-asiatiquebar.de/", "wheelchair": "yes"}}, {"type": "node", "id": 4378025016, "lat": 50.9343012, "lon": 6.9709673, "tags": {"addr:city": "K\u00f6ln", "addr:housenumber": "81", "addr:postcode": "50679", "addr:street": "Siegburger Stra\u00dfe", "amenity": "restaurant", "name": "Wasabifun (Sushi, Asianfusion, Wine)", "opening_hours": "Mo-Th 15:00-22:00; Fr,Sa 15:00-23:00; PH,Su 15:00-22:00"}}, {"type": "node", "id": 4635460255, "lat": 50.9382098, "lon": 6.9750551, "tags": {"addr:city": "K\u00f6ln", "addr:country": "DE", "addr:housenumber": "27-29", "addr:postcode": "50679", "addr:street": "Neuh\u00f6fferstra\u00dfe", "amenity": "restaurant", "capacity": "40", "cuisine": "german", "delivery": "no", "diet:vegetarian": "no", "name": "Haus Zeyen", "opening_hours": "Tu-Fr 12:00-14:30,16:30-24:00; Sa 16:30-24:00; Su 16:30-23:00", "operator": "Bettina Krupp", "outdoor_seating": "yes", "phone": "+49 221 29755327", "takeaway": "no", "website": "http://www.gaststaette-zeyen.de/"}}, {"type": "node", "id": 4771143577, "lat": 50.936642, "lon": 6.9740403, "tags": {"addr:city": "K\u00f6ln", "addr:country": "DE", "addr:housenumber": "72", "addr:postcode": "50679", "addr:street": "Deutzer Freiheit", "amenity": "restaurant", "cuisine": "italian;italian_pizza", "diet:vegan": "yes", "diet:vegetarian": "yes", "name": "Pizzeria Diana", "opening_hours": "Sa-Su 17:00-22:00; Mo-Fr 12:00-22:00", "wheelchair": "limited"}}, {"type": "node", "id": 5884684485, "lat": 50.9349427, "lon": 6.9732572, "tags": {"addr:city": "K\u00f6ln", "addr:housenumber": "41", "addr:postcode": "50679", "addr:street": "Tempelstra\u00dfe", "amenity": "restaurant", "name": "Bu\u0308rger\u2019z", "website": "http://www.buergerz-deutz.de/restaurant.html", "wheelchair": "yes"}}, {"type": "node", "id": 6779305819, "lat": 50.9360326, "lon": 6.9772941, "tags": {"addr:city": "K\u00f6ln", "addr:housenumber": "20", "addr:postcode": "50679", "addr:street": "Reischplatz", "air_conditioning": "no", "amenity": "restaurant", "bar": "no", "capacity": "18", "comment": "Ehemals \"DB Kneipe\" (bis ca. Mai 2022).", "cuisine": "thai", "delivery": "no", "highchair": "yes", "level": "1", "name": "Nanu Thai Kitchen", "opening_hours": "Mo-Fr 11:30-15:00, 17:00-21:30; Su 13:00-21:30", "outdoor_seating": "no", "phone": "+49 221 64798927", "smoking": "no", "takeaway": "yes", "website": "http://www.nanuthaikitchen.de", "wheelchair": "no"}}, {"type": "node", "id": 7714198121, "lat": 50.9419055, "lon": 6.9754016, "tags": {"addr:city": "K\u00f6ln", "addr:housenumber": "4", "addr:postcode": "50679", "addr:street": "Hans-Imhoff-Stra\u00dfe", "amenity": "restaurant", "brand": "L'Osteria", "brand:wikidata": "Q17323478", "brand:wikipedia": "de:L\u2019Osteria", "cuisine": "italian", "email": "koeln.deutz@losteria.de", "level": "0", "name": "L'Osteria", "opening_hours": "Mo-Su 11:00-00:00, PH 12:00-00:00", "outdoor_seating": "yes", "phone": "+49 221 99994616", "website": "https://losteria.net/de/restaurants/restaurant/koeln-deutz/"}}, {"type": "node", "id": 9315085706, "lat": 50.9415747, "lon": 6.9771121}, {"type": "node", "id": 9315085707, "lat": 50.9415314, "lon": 6.9773306}, {"type": "node", "id": 9315085708, "lat": 50.9414206, "lon": 6.9772753}, {"type": "node", "id": 9315085709, "lat": 50.9414638, "lon": 6.9770568}, {"type": "node", "id": 9581373075, "lat": 50.9414425, "lon": 6.9771648, "tags": {"entrance": "yes"}}, {"type": "node", "id": 9653644275, "lat": 50.945548, "lon": 6.9698233}, {"type": "node", "id": 9951187491, "lat": 50.9401093, "lon": 6.9721891, "tags": {"addr:housenumber": "1", "addr:street": "Ottoplatz", "amenity": "restaurant", "level": "26;27", "name": "K\u00f6lnSKY", "phone": "+49 221 888897 0", "website": "https://koelnsky.com"}}, {"type": "node", "id": 10116237672, "lat": 50.9365107, "lon": 6.9920522, "tags": {"addr:city": "K\u00f6ln", "addr:country": "DE", "addr:housenumber": "142", "addr:postcode": "50679", "addr:street": "Deutz-Kalker Stra\u00dfe", "amenity": "restaurant", "cuisine": "turkish", "name": "Saman Restaurant", "opening_hours": "We-Su 14:00-22:00", "phone": "+49 221 45366714", "website": "https://www.saman-restaurant.com/"}}, {"type": "node", "id": 10160075217, "lat": 50.9401681, "lon": 6.9688065, "tags": {"addr:city": "K\u00f6ln", "addr:housenumber": "2-A", "addr:postcode": "50679", "addr:street": "Kennedy-Ufer", "amenity": "restaurant", "contact:instagram": "stickyfingerscologne", "cuisine": "burger", "diet:vegetarian": "yes", "email": "stickyfingers.cologne@hyatt.com", "name": "Sticky Fingers", "opening_hours": "Mo-Su 11:30-20:30", "website": "https://www.stickyfingers-restaurant.de"}}, {"type": "node", "id": 10624191516, "lat": 50.9406206, "lon": 6.9688428, "tags": {"addr:city": "K\u00f6ln", "addr:postcode": "50679", "addr:street": "Kennedy-Ufer", "air_conditioning": "yes", "amenity": "restaurant", "bar": "yes", "name": "Grissini"}}, {"type": "node", "id": 10682653554, "lat": 50.947961, "lon": 6.9823127}, {"type": "way", "id": 177658181, "nodes": [1880756354, 743384079, 743384078, 567082320, 567082322, 567082283, 3682748277, 567082289, 9653644275, 567071920, 1880756354], "tags": {"amenity": "restaurant", "building": "yes", "layer": "1", "name": "Rheinterrassen", "outdoor_seating": "yes", "website": "http://www.rhein-terrassen.de/", "wheelchair": "no"}}, {"type": "way", "id": 361209249, "nodes": [3657165151, 3657165153, 3657165150, 3657165152, 3657165151], "tags": {"amenity": "restaurant", "building": "yes", "building:levels": "1", "cuisine": "italian", "diet:vegetarian": "yes", "email": "grissini.cologne@hyatt.com", "name": "Grissini", "note": "Umrisse nur grob nach Fotos von der Hohenzollernbr\u00fccke.", "opening_hours": "Mo-Su, PH 11:30-23:00; Dec 24 off", "outdoor_seating": "yes", "payment:american_express": "yes", "payment:cash": "yes", "payment:diners_club": "yes", "payment:jcb": "yes", "payment:maestro": "yes", "payment:mastercard": "yes", "payment:visa": "yes", "phone": "+49 221 82811868", "roof:shape": "flat", "website": "https://www.grissini-restaurant.de/"}}, {"type": "way", "id": 1009573290, "nodes": [9315085706, 9315085707, 9315085708, 9581373075, 9315085709, 9315085706], "tags": {"addr:city": "K\u00f6ln", "addr:housenumber": "4", "addr:postcode": "50679", "addr:street": "Luise-Straus-Ernst-Stra\u00dfe", "amenity": "restaurant", "building": "yes", "building:colour": "brown", "building:levels": "2", "cuisine": "steak_house", "email": "koelnmesse@the-ash.com", "name": "The Ash", "opening_hours": "Mo-Th 12:00-23:00; Fr-Sa 12:00-24:00; Su 12:00-23:00", "phone": "+49 221 71 59 89 59", "roof:shape": "flat", "website": "https://ash-steakhouse.de/restaurants/koeln-messecity/"}}, {"type": "way", "id": 1148158643, "nodes": [3083511187, 10682653554, 3083510892, 3083511187], "tags": {"amenity": "restaurant", "indoor": "room", "name": "Self-Restaurant Curie"}}]}