{"version": 0.6, "generator": "Overpass API 0.7.60 f4c14d41", "osm3s": {"timestamp_osm_base": "2023-04-29T14:48:24Z", "copyright": "The data included in this document is from www.openstreetmap.org. The data is made available under ODbL."}, "elements": [{"type": "node", "id": 83156659, "lat": 50.986889, "lon": 7.0085143}, {"type": "node", "id": 258341120, "lat": 50.9972358, "lon": 6.9781966}, {"type": "node", "id": 258341121, "lat": 50.9970089, "lon": 6.9813617}, {"type": "node", "id": 263255141, "lat": 50.987111, "lon": 6.9806727}, {"type": "node", "id": 263255207, "lat": 50.9867094, "lon": 6.9810409}, {"type": "node", "id": 263255208, "lat": 50.986493, "lon": 6.9804529}, {"type": "node", "id": 263255209, "lat": 50.9868806, "lon": 6.9800236}, {"type": "node", "id": 317332848, "lat": 50.9933507, "lon": 6.9914494}, {"type": "node", "id": 317332921, "lat": 50.9858206, "lon": 6.9978798}, {"type": "node", "id": 317332957, "lat": 50.9881414, "lon": 6.9985526}, {"type": "node", "id": 317332958, "lat": 50.9881397, "lon": 6.9981608}, {"type": "node", "id": 317333092, "lat": 50.9912355, "lon": 6.9973415, "tags": {"amenity": "recycling", "recycling:glass": "yes"}}, {"type": "node", "id": 317333146, "lat": 50.9896239, "lon": 6.9972833, "tags": {"amenity": "post_box", "collection_times": "Mo-Fr 17:00, Sa 11:45", "operator": "Deutsche Post", "operator:wikidata": "Q157645", "operator:wikipedia": "de:Deutsche Post AG"}}, {"type": "node", "id": 317333200, "lat": 50.9955219, "lon": 6.9841928, "tags": {"amenity": "recycling", "location": "overground", "recycling:glass": "yes", "recycling_type": "container"}}, {"type": "node", "id": 317378178, "lat": 50.9931736, "lon": 6.992346, "tags": {"amenity": "recycling", "operator": "AWB K\u00f6ln", "recycling:clothes": "yes", "recycling_type": "container"}}, {"type": "node", "id": 317378181, "lat": 50.9931333, "lon": 6.9923408, "tags": {"amenity": "recycling", "recycling:glass_bottles": "yes", "recycling_type": "container"}}, {"type": "node", "id": 317378372, "lat": 50.9969364, "lon": 6.9897837}, {"type": "node", "id": 317378376, "lat": 50.997057, "lon": 6.9897749}, {"type": "node", "id": 317378378, "lat": 50.997079, "lon": 6.9904542}, {"type": "node", "id": 326906977, "lat": 50.9862918, "lon": 7.0089565}, {"type": "node", "id": 326928533, "lat": 50.9804365, "lon": 7.0037815}, {"type": "node", "id": 332046237, "lat": 50.9864352, "lon": 7.003989}, {"type": "node", "id": 332046238, "lat": 50.9859087, "lon": 7.0045821}, {"type": "node", "id": 332046239, "lat": 50.9856159, "lon": 7.0047814}, {"type": "node", "id": 332046240, "lat": 50.9855078, "lon": 7.0048645}, {"type": "node", "id": 332046241, "lat": 50.9849041, "lon": 7.0052268}, {"type": "node", "id": 332046243, "lat": 50.9848366, "lon": 7.0049921}, {"type": "node", "id": 332046244, "lat": 50.9853294, "lon": 7.0046803}, {"type": "node", "id": 332046245, "lat": 50.9857704, "lon": 7.0044085}, {"type": "node", "id": 332046246, "lat": 50.9863432, "lon": 7.0038249}, {"type": "node", "id": 332046934, "lat": 50.9859306, "lon": 7.006372}, {"type": "node", "id": 332046938, "lat": 50.9858896, "lon": 7.0063107}, {"type": "node", "id": 332046939, "lat": 50.9860274, "lon": 7.0060698}, {"type": "node", "id": 333729128, "lat": 50.9871131, "lon": 6.9791794, "tags": {"addr:city": "K\u00f6ln", "addr:housenumber": "20", "addr:postcode": "51061", "addr:street": "Am Stammheimer Schlo\u00dfpark", "amenity": "restaurant", "cuisine": "german", "name": "RTHC Bayer Leverkusen", "opening_hours": "Tu-Su 11:00-23:00", "phone": "+49-221-6640331", "website": "http://www.rthc.de/", "wheelchair": "no"}}, {"type": "node", "id": 333773852, "lat": 50.9864452, "lon": 6.9933714}, {"type": "node", "id": 338750508, "lat": 50.989869, "lon": 7.0022448}, {"type": "node", "id": 338750509, "lat": 50.9890848, "lon": 7.0024159}, {"type": "node", "id": 338750510, "lat": 50.9890519, "lon": 7.0028146}, {"type": "node", "id": 338750511, "lat": 50.9898768, "lon": 7.0037156}, {"type": "node", "id": 338750512, "lat": 50.9899619, "lon": 7.0035801}, {"type": "node", "id": 342404298, "lat": 50.9975638, "lon": 6.9958964, "tags": {"amenity": "post_box", "collection_times": "Mo-Fr 17:00, Sa 11:45", "operator": "Deutsche Post", "operator:wikidata": "Q157645", "operator:wikipedia": "de:Deutsche Post AG"}}, {"type": "node", "id": 469420123, "lat": 50.9826102, "lon": 6.9972098, "tags": {"amenity": "post_box", "collection_times": "Mo-Fr 16:30; Sa 11:15", "lastcheck": "2015-09-25", "operator": "Deutsche Post", "operator:wikidata": "Q157645"}}, {"type": "node", "id": 469420124, "lat": 50.9839576, "lon": 6.9951305, "tags": {"amenity": "recycling", "operator": "Malteser", "recycling:clothes": "yes", "recycling_type": "container"}}, {"type": "node", "id": 469472289, "lat": 50.9874027, "lon": 6.9925359, "tags": {"amenity": "cafe", "name": "Caf\u00e9 Lichtblick", "opening_hours": "Tu-Sa 09:30-13:00, 15:00-18:00; Su 15:00-18:00", "wheelchair": "yes", "wheelchair:description": "WC vorhanden"}}, {"type": "node", "id": 469472297, "lat": 50.9874324, "lon": 6.9920798, "tags": {"addr:city": "K\u00f6ln", "addr:country": "DE", "addr:postcode": "51061", "addr:street": "Gisbertstra\u00dfe", "amenity": "restaurant", "name": "Gastst\u00e4tte zum Krug"}}, {"type": "node", "id": 469472299, "lat": 50.9872788, "lon": 6.9922303, "tags": {"amenity": "pharmacy", "contact:email": "schloss-apotheke-koeln@t-online.de", "contact:fax": "+49 221 664238", "contact:phone": "+49 221 661357", "contact:website": "http://www.apotheke-koeln-stammheim.de/", "dispensing": "yes", "name": "Schlo\u00df-Apotheke", "opening_hours": "Mo,Tu 08:00-13:00,14:00-19:00; We 08:00-15:30; Th 08:00-13:00,14:00-19:00; Fr 08:00-13:00, 14:00-18:30; Sa 08:30-13:00", "operator": "Dr. Josef Kraume", "wheelchair": "no"}}, {"type": "node", "id": 469472314, "lat": 50.986905, "lon": 6.9914727, "tags": {"amenity": "bank", "atm": "yes", "name": "Volksbank D\u00fcnnwald-Holweide", "opening_hours": "Mo-Tu,Fr 08:30-13:00,14:00-16:00; We 08:30-13:00; Th 08:30-13:00,14:00-18:00", "wheelchair": "yes"}}, {"type": "node", "id": 469472316, "lat": 50.9867582, "lon": 6.9910952, "tags": {"addr:city": "K\u00f6ln", "addr:housenumber": "21", "addr:postcode": "51061", "addr:street": "Bonhoefferstra\u00dfe", "amenity": "cafe", "name": "Italienisches Eiscaf\u00e9", "opening_hours": "Mo, We-Sa 10:00-21:00; Tu 15:00-21:00; Su 11:00-21:00", "wheelchair": "yes", "wheelchair:description": "kein WC"}}, {"type": "node", "id": 469472317, "lat": 50.9865557, "lon": 6.9913069, "tags": {"addr:city": "K\u00f6ln", "addr:country": "DE", "addr:housenumber": "17", "addr:postcode": "51061", "addr:street": "Bonhoefferstra\u00dfe", "amenity": "restaurant", "cuisine": "steak_house", "name": "Steak- und Grillstube Richartz", "opening_hours": "Mo-Th 11:00-20:00; Fr 11:00-15:00; Sa 11:00-17:00", "phone": "+49 221 666236", "wheelchair": "yes"}}, {"type": "node", "id": 469472379, "lat": 50.9843897, "lon": 6.9867001, "tags": {"amenity": "bench"}}, {"type": "node", "id": 469472399, "lat": 50.9860992, "lon": 6.9858846, "tags": {"amenity": "post_box", "operator": "Deutsche Post", "operator:wikidata": "Q157645", "operator:wikipedia": "de:Deutsche Post AG"}}, {"type": "node", "id": 469472447, "lat": 50.9897772, "lon": 6.983636, "tags": {"amenity": "social_club", "club": "shooting", "name": "Sebastianus Sch\u00fctzenbr\u00fcderschaft"}}, {"type": "node", "id": 469472449, "lat": 50.9834938, "lon": 6.9896782, "tags": {"amenity": "bench"}}, {"type": "node", "id": 469472450, "lat": 50.9832869, "lon": 6.9902542, "tags": {"amenity": "bench"}}, {"type": "node", "id": 469472451, "lat": 50.9830703, "lon": 6.9909269, "tags": {"amenity": "bench"}}, {"type": "node", "id": 469472452, "lat": 50.9819557, "lon": 6.9936484, "tags": {"amenity": "bench"}}, {"type": "node", "id": 469472453, "lat": 50.9817074, "lon": 6.9941239, "tags": {"amenity": "bench", "backrest": "yes"}}, {"type": "node", "id": 469472454, "lat": 50.9795267, "lon": 6.9975761, "tags": {"amenity": "bench", "backrest": "yes"}}, {"type": "node", "id": 469472455, "lat": 50.9785629, "lon": 6.9983956, "tags": {"amenity": "bench", "backrest": "yes"}}, {"type": "node", "id": 469472456, "lat": 50.9778375, "lon": 6.9990876, "tags": {"amenity": "bench", "backrest": "yes", "check_date": "2021-07-25"}}, {"type": "node", "id": 486298071, "lat": 50.9837007, "lon": 7.008736, "tags": {"amenity": "bench"}}, {"type": "node", "id": 486298076, "lat": 50.9845458, "lon": 7.0080124, "tags": {"amenity": "bench"}}, {"type": "node", "id": 486658746, "lat": 50.9844258, "lon": 7.0098443, "tags": {"amenity": "bench"}}, {"type": "node", "id": 486658749, "lat": 50.984511, "lon": 7.0096954, "tags": {"amenity": "bench"}}, {"type": "node", "id": 486658756, "lat": 50.9847837, "lon": 7.0071295}, {"type": "node", "id": 486659542, "lat": 50.9863671, "lon": 7.0090813, "tags": {"barrier": "gate"}}, {"type": "node", "id": 486659593, "lat": 50.9851247, "lon": 7.0072582, "tags": {"amenity": "post_box", "collection_times": "Mo-Fr 16:45; Sa 12:15", "collection_times:lastcheck": "2015-06-04", "operator": "Deutsche Post", "operator:wikidata": "Q157645"}}, {"type": "node", "id": 487083344, "lat": 50.9848933, "lon": 7.0069889, "tags": {"amenity": "recycling", "recycling:glass_bottles": "yes", "recycling_type": "container"}}, {"type": "node", "id": 527133342, "lat": 50.9842178, "lon": 6.9920364, "tags": {"amenity": "recycling", "recycling:glass_bottles": "yes", "recycling_type": "container"}}, {"type": "node", "id": 596154912, "lat": 50.9957042, "lon": 6.9909239, "tags": {"amenity": "post_box"}}, {"type": "node", "id": 597647015, "lat": 50.9957788, "lon": 6.9903148, "tags": {"addr:city": "K\u00f6ln", "addr:country": "DE", "addr:postcode": "51061", "addr:street": "Peter-Grie\u00df-Stra\u00dfe", "amenity": "post_office", "wheelchair": "limited"}}, {"type": "node", "id": 635042930, "lat": 50.9957432, "lon": 6.9903841, "tags": {"amenity": "atm", "wheelchair": "yes", "wheelchair:description": "ausserhalb des Geb\u00e4udes, stufenlos, kein WC"}}, {"type": "node", "id": 677596907, "lat": 50.9898456, "lon": 7.0023858}, {"type": "node", "id": 1337167406, "lat": 50.9824968, "lon": 6.9923799, "tags": {"amenity": "bench"}}, {"type": "node", "id": 1337167513, "lat": 50.9826251, "lon": 6.9920258, "tags": {"amenity": "bench"}}, {"type": "node", "id": 1337167937, "lat": 50.982929, "lon": 6.9912533, "tags": {"amenity": "bench"}}, {"type": "node", "id": 1337168399, "lat": 50.9838679, "lon": 6.9887535, "tags": {"amenity": "bench"}}, {"type": "node", "id": 1337168970, "lat": 50.9854259, "lon": 6.9839224, "tags": {"amenity": "bench"}}, {"type": "node", "id": 1337169234, "lat": 50.9855045, "lon": 6.9832398, "tags": {"amenity": "bench"}}, {"type": "node", "id": 1337169529, "lat": 50.9856723, "lon": 6.9824802, "tags": {"amenity": "bench", "backrest": "yes"}}, {"type": "node", "id": 1337171028, "lat": 50.9857859, "lon": 6.9820502, "tags": {"amenity": "bench", "backrest": "yes"}}, {"type": "node", "id": 1337171875, "lat": 50.9865898, "lon": 6.9797628, "tags": {"amenity": "bench", "backrest": "yes"}}, {"type": "node", "id": 1337172911, "lat": 50.9897302, "lon": 6.9766299, "tags": {"amenity": "bench", "backrest": "yes"}}, {"type": "node", "id": 1337173484, "lat": 50.9920737, "lon": 6.9749354, "tags": {"amenity": "bench", "backrest": "yes"}}, {"type": "node", "id": 1337174424, "lat": 50.9932111, "lon": 6.974119, "tags": {"amenity": "bench", "backrest": "yes"}}, {"type": "node", "id": 1337175070, "lat": 50.9942967, "lon": 6.9733399, "tags": {"amenity": "bench", "backrest": "yes", "colour": "green", "material": "metal", "seats": "3"}}, {"type": "node", "id": 1369150426, "lat": 50.9865864, "lon": 6.9840175, "tags": {"amenity": "bench"}}, {"type": "node", "id": 1369150427, "lat": 50.9864952, "lon": 6.984039, "tags": {"amenity": "bench"}}, {"type": "node", "id": 1369150428, "lat": 50.9865695, "lon": 6.9841623, "tags": {"amenity": "bench"}}, {"type": "node", "id": 1465595701, "lat": 50.9859831, "lon": 7.0061472}, {"type": "node", "id": 1649252175, "lat": 50.9879688, "lon": 7.0015318}, {"type": "node", "id": 1649252180, "lat": 50.9879918, "lon": 7.0014092}, {"type": "node", "id": 1649252184, "lat": 50.9880502, "lon": 7.0017273}, {"type": "node", "id": 1649252186, "lat": 50.9880836, "lon": 7.0021515}, {"type": "node", "id": 1649252188, "lat": 50.9881441, "lon": 7.0013959}, {"type": "node", "id": 1649252189, "lat": 50.9881472, "lon": 7.0014572}, {"type": "node", "id": 1649252190, "lat": 50.9884148, "lon": 7.00163}, {"type": "node", "id": 1649252197, "lat": 50.9886537, "lon": 7.0014086}, {"type": "node", "id": 1649252200, "lat": 50.9886557, "lon": 7.0015061}, {"type": "node", "id": 1649293602, "lat": 50.9884367, "lon": 7.0020809}, {"type": "node", "id": 1649293604, "lat": 50.9886591, "lon": 7.0016031}, {"type": "node", "id": 1753029136, "lat": 50.985704, "lon": 7.0044528}, {"type": "node", "id": 1753029166, "lat": 50.9861323, "lon": 7.0040397}, {"type": "node", "id": 1753743326, "lat": 50.9881163, "lon": 6.9915164}, {"type": "node", "id": 1753743332, "lat": 50.9883233, "lon": 6.9914425}, {"type": "node", "id": 1753743371, "lat": 50.9885268, "lon": 6.9915743}, {"type": "node", "id": 1753743375, "lat": 50.9886032, "lon": 6.9917843}, {"type": "node", "id": 2058918016, "lat": 50.9964189, "lon": 6.978635}, {"type": "node", "id": 2058918021, "lat": 50.9965815, "lon": 6.9781521}, {"type": "node", "id": 2179437131, "lat": 50.9876793, "lon": 6.9847803, "tags": {"amenity": "bench"}}, {"type": "node", "id": 2179437132, "lat": 50.9871863, "lon": 6.9833534, "tags": {"amenity": "bench"}}, {"type": "node", "id": 2208133936, "lat": 50.9855048, "lon": 6.9837607, "tags": {"amenity": "bench"}}, {"type": "node", "id": 2208133937, "lat": 50.985534, "lon": 6.9831707, "tags": {"amenity": "waste_basket"}}, {"type": "node", "id": 2208133938, "lat": 50.9855595, "lon": 6.9830062, "tags": {"amenity": "bench"}}, {"type": "node", "id": 2208133939, "lat": 50.9855872, "lon": 6.9829409, "tags": {"amenity": "waste_basket"}}, {"type": "node", "id": 2208133940, "lat": 50.9856037, "lon": 6.9828449, "tags": {"amenity": "bench"}}, {"type": "node", "id": 2208133941, "lat": 50.9856344, "lon": 6.9827674, "tags": {"amenity": "waste_basket"}}, {"type": "node", "id": 2208133942, "lat": 50.9856428, "lon": 6.9826548, "tags": {"amenity": "bench", "backrest": "yes"}}, {"type": "node", "id": 2208133943, "lat": 50.9856639, "lon": 6.9825797, "tags": {"amenity": "waste_basket", "check_date": "2022-04-16"}}, {"type": "node", "id": 2208133944, "lat": 50.9857112, "lon": 6.9823358, "tags": {"amenity": "waste_basket", "check_date": "2022-04-16"}}, {"type": "node", "id": 2208133945, "lat": 50.9857339, "lon": 6.9822827, "tags": {"amenity": "bench", "backrest": "yes"}}, {"type": "node", "id": 2208133946, "lat": 50.9857702, "lon": 6.9821107, "tags": {"amenity": "waste_basket", "check_date": "2022-04-16"}}, {"type": "node", "id": 2208133947, "lat": 50.9859616, "lon": 6.9836801, "tags": {"amenity": "bench"}}, {"type": "node", "id": 2208133948, "lat": 50.9860228, "lon": 6.9836821, "tags": {"amenity": "bench"}}, {"type": "node", "id": 2208133954, "lat": 50.986532, "lon": 6.9844653, "tags": {"amenity": "bench"}}, {"type": "node", "id": 2208133955, "lat": 50.9865586, "lon": 6.9797373, "tags": {"amenity": "waste_basket", "check_date": "2022-04-16"}}, {"type": "node", "id": 2208133957, "lat": 50.9865881, "lon": 6.9845075, "tags": {"amenity": "bench"}}, {"type": "node", "id": 2208133962, "lat": 50.9867371, "lon": 6.9818899, "tags": {"amenity": "bench"}}, {"type": "node", "id": 2208133963, "lat": 50.9867564, "lon": 6.9819606, "tags": {"amenity": "waste_basket"}}, {"type": "node", "id": 2208133966, "lat": 50.9869544, "lon": 6.982322, "tags": {"amenity": "bench"}}, {"type": "node", "id": 2208133968, "lat": 50.9871993, "lon": 6.981984, "tags": {"amenity": "waste_basket"}}, {"type": "node", "id": 2208133969, "lat": 50.9872584, "lon": 6.9820028, "tags": {"amenity": "bench"}}, {"type": "node", "id": 2208133971, "lat": 50.987722, "lon": 6.9834334, "tags": {"amenity": "waste_basket"}}, {"type": "node", "id": 2208133972, "lat": 50.9877367, "lon": 6.9835272, "tags": {"amenity": "bench"}}, {"type": "node", "id": 2445356938, "lat": 50.9895457, "lon": 6.9831131, "tags": {"amenity": "hunting_stand"}}, {"type": "node", "id": 2480127350, "lat": 50.983824, "lon": 6.9949589, "tags": {"amenity": "recycling", "recycling:glass": "yes", "recycling_type": "container"}}, {"type": "node", "id": 2480127351, "lat": 50.9856679, "lon": 6.9979683, "tags": {"amenity": "recycling", "operator": "AWB K\u00f6ln", "recycling:clothes": "yes", "recycling_type": "container"}}, {"type": "node", "id": 2604235167, "lat": 50.9895643, "lon": 6.998708, "tags": {"amenity": "fuel", "brand": "Aral", "brand:wikidata": "Q565734", "brand:wikipedia": "de:Aral", "name": "Aral", "operator": "Aral", "wheelchair": "yes"}}, {"type": "node", "id": 2604235168, "lat": 50.9895599, "lon": 6.9982852, "tags": {"amenity": "car_wash"}}, {"type": "node", "id": 2883810018, "lat": 50.9792713, "lon": 6.9978168}, {"type": "node", "id": 2883810031, "lat": 50.9797061, "lon": 6.9987215}, {"type": "node", "id": 2883810032, "lat": 50.9797019, "lon": 6.9972823}, {"type": "node", "id": 2949664688, "lat": 50.9844649, "lon": 6.9922025, "tags": {"amenity": "recycling", "operator": "Malteser", "recycling:clothes": "yes", "recycling_type": "container"}}, {"type": "node", "id": 2949667026, "lat": 50.9858677, "lon": 6.9980487, "tags": {"amenity": "post_box", "collection_times": "Mo-Fr 16:30,19:00; Sa 11:15; Su 09:00", "lastcheck": "2015-09-25", "operator": "Deutsche Post", "operator:wikidata": "Q157645"}}, {"type": "node", "id": 2949667027, "lat": 50.9868929, "lon": 6.9912604, "tags": {"amenity": "post_box", "operator": "Deutsche Post", "operator:wikidata": "Q157645", "operator:wikipedia": "de:Deutsche Post AG"}}, {"type": "node", "id": 3006615537, "lat": 50.9849763, "lon": 7.0060677}, {"type": "node", "id": 3006615574, "lat": 50.9850482, "lon": 7.0061725}, {"type": "node", "id": 3006615591, "lat": 50.9850737, "lon": 7.0058998}, {"type": "node", "id": 3006615611, "lat": 50.9850978, "lon": 7.0060872}, {"type": "node", "id": 3006615658, "lat": 50.9851473, "lon": 7.0060013}, {"type": "node", "id": 3006616290, "lat": 50.9859447, "lon": 7.0114172}, {"type": "node", "id": 3006616298, "lat": 50.9859663, "lon": 7.0115093}, {"type": "node", "id": 3006616301, "lat": 50.985977, "lon": 7.0112026}, {"type": "node", "id": 3006616318, "lat": 50.9860156, "lon": 7.0113758}, {"type": "node", "id": 3006616365, "lat": 50.9861209, "lon": 7.0111198}, {"type": "node", "id": 3006616385, "lat": 50.9861825, "lon": 7.0113821}, {"type": "node", "id": 3215649840, "lat": 50.989165, "lon": 7.002892}, {"type": "node", "id": 3239711772, "lat": 50.989807, "lon": 7.0014223, "tags": {"amenity": "bicycle_parking", "bicycle_parking": "shed", "covered": "yes", "fee": "no", "opening_hours": "24/7", "supervised": "no"}}, {"type": "node", "id": 3239711774, "lat": 50.989937, "lon": 7.00063, "tags": {"amenity": "bicycle_parking", "bicycle_parking": "shed", "covered": "yes", "fee": "no", "opening_hours": "24/7", "supervised": "no"}}, {"type": "node", "id": 3239711775, "lat": 50.9900091, "lon": 7.0009023, "tags": {"amenity": "bicycle_parking", "bicycle_parking": "shed", "covered": "yes", "fee": "no", "opening_hours": "24/7", "supervised": "no"}}, {"type": "node", "id": 3239711776, "lat": 50.9900641, "lon": 7.001117, "tags": {"amenity": "bicycle_parking", "bicycle_parking": "shed", "covered": "yes", "fee": "no", "opening_hours": "24/7", "supervised": "no"}}, {"type": "node", "id": 3239711777, "lat": 50.9901109, "lon": 7.0013463, "tags": {"amenity": "bicycle_parking", "bicycle_parking": "shed", "covered": "yes", "fee": "no", "opening_hours": "24/7", "supervised": "no"}}, {"type": "node", "id": 3377915637, "lat": 50.9973989, "lon": 6.9806383}, {"type": "node", "id": 3377915978, "lat": 50.9972819, "lon": 6.9806199}, {"type": "node", "id": 3377916068, "lat": 50.9975626, "lon": 6.9806646}, {"type": "node", "id": 3377916072, "lat": 50.9975841, "lon": 6.9806677}, {"type": "node", "id": 3378051723, "lat": 50.9963175, "lon": 6.9893062, "tags": {"amenity": "pharmacy", "contact:email": "info@marienapothekekoeln.de", "contact:fax": "+49 221 661176", "contact:phone": "+49 221 662116", "contact:website": "http://www.marienapothekekoeln.de/", "dispensing": "yes", "name": "Marien-Apotheke", "opening_hours": "Mo 08:00-13:30,14:30-19:00; Tu 08:30-13:30,14:30-18:30; We 08:00-14:00; Th,Fr 08:00-13:30,14:30-18:30; Sa 08:30-13:00", "operator": "Dr. Peter Weber", "wheelchair": "yes"}}, {"type": "node", "id": 3378052054, "lat": 50.9963269, "lon": 6.9902328}, {"type": "node", "id": 3378052538, "lat": 50.9966352, "lon": 6.98954}, {"type": "node", "id": 3378052545, "lat": 50.9966384, "lon": 6.9896105}, {"type": "node", "id": 3378052554, "lat": 50.9966453, "lon": 6.9895246}, {"type": "node", "id": 3378052557, "lat": 50.9966466, "lon": 6.9895384}, {"type": "node", "id": 3378052834, "lat": 50.9960833, "lon": 6.9901899}, {"type": "node", "id": 3378052864, "lat": 50.9961148, "lon": 6.9896764}, {"type": "node", "id": 3378053557, "lat": 50.9965656, "lon": 6.9894237}, {"type": "node", "id": 3378053562, "lat": 50.9965699, "lon": 6.9896173}, {"type": "node", "id": 3378053636, "lat": 50.9963585, "lon": 6.9897137}, {"type": "node", "id": 3378054021, "lat": 50.996563, "lon": 6.9893127}, {"type": "node", "id": 3378054026, "lat": 50.9965643, "lon": 6.9893734}, {"type": "node", "id": 3378054033, "lat": 50.9965735, "lon": 6.9893786}, {"type": "node", "id": 3378054034, "lat": 50.9965738, "lon": 6.989416}, {"type": "node", "id": 3378054127, "lat": 50.9966293, "lon": 6.9893044}, {"type": "node", "id": 3378054130, "lat": 50.9966307, "lon": 6.9893237}, {"type": "node", "id": 3378054249, "lat": 50.9965952, "lon": 6.9903675}, {"type": "node", "id": 3378054250, "lat": 50.9966039, "lon": 6.9903686}, {"type": "node", "id": 3378054546, "lat": 50.9964808, "lon": 6.9898168}, {"type": "node", "id": 3378054550, "lat": 50.9965464, "lon": 6.9902913}, {"type": "node", "id": 3378054574, "lat": 50.9965516, "lon": 6.9903173}, {"type": "node", "id": 3378054578, "lat": 50.9965643, "lon": 6.9903416}, {"type": "node", "id": 3378054596, "lat": 50.9965739, "lon": 6.9903528}, {"type": "node", "id": 3378054609, "lat": 50.9965827, "lon": 6.9903617}, {"type": "node", "id": 3378205648, "lat": 50.9863537, "lon": 6.9804426}, {"type": "node", "id": 3378205653, "lat": 50.9863586, "lon": 6.9803387}, {"type": "node", "id": 3378205667, "lat": 50.9863756, "lon": 6.9805408}, {"type": "node", "id": 3378205669, "lat": 50.9865625, "lon": 6.9854485}, {"type": "node", "id": 3378205670, "lat": 50.9865626, "lon": 6.985263}, {"type": "node", "id": 3378205673, "lat": 50.986566, "lon": 6.9852536}, {"type": "node", "id": 3378205674, "lat": 50.9865708, "lon": 6.9852707}, {"type": "node", "id": 3378205675, "lat": 50.9865728, "lon": 6.9853167}, {"type": "node", "id": 3378205677, "lat": 50.9865733, "lon": 6.9854449}, {"type": "node", "id": 3378205678, "lat": 50.9865734, "lon": 6.9853213}, {"type": "node", "id": 3378205680, "lat": 50.9865737, "lon": 6.9852609}, {"type": "node", "id": 3378205681, "lat": 50.986574, "lon": 6.9854495}, {"type": "node", "id": 3378205683, "lat": 50.9865767, "lon": 6.9853154}, {"type": "node", "id": 3378205688, "lat": 50.9865917, "lon": 6.9855105}, {"type": "node", "id": 3378205689, "lat": 50.9865929, "lon": 6.9854463}, {"type": "node", "id": 3378205690, "lat": 50.9865958, "lon": 6.9852142}, {"type": "node", "id": 3378205691, "lat": 50.9865965, "lon": 6.9852225}, {"type": "node", "id": 3378205692, "lat": 50.9865973, "lon": 6.9855176}, {"type": "node", "id": 3378209811, "lat": 50.9869422, "lon": 6.9854286}, {"type": "node", "id": 3378209812, "lat": 50.9869429, "lon": 6.9852454}, {"type": "node", "id": 3378209813, "lat": 50.9869457, "lon": 6.9853061}, {"type": "node", "id": 3378209814, "lat": 50.986948, "lon": 6.9853695}, {"type": "node", "id": 3378209815, "lat": 50.9869484, "lon": 6.9852947}, {"type": "node", "id": 3378209817, "lat": 50.9869494, "lon": 6.985226}, {"type": "node", "id": 3378209818, "lat": 50.9869508, "lon": 6.9854036}, {"type": "node", "id": 3378209820, "lat": 50.9869531, "lon": 6.9852349}, {"type": "node", "id": 3378209822, "lat": 50.9869576, "lon": 6.9853102}, {"type": "node", "id": 3378209823, "lat": 50.9869592, "lon": 6.9852986}, {"type": "node", "id": 3378210076, "lat": 50.9863897, "lon": 6.9802468}, {"type": "node", "id": 3378210090, "lat": 50.9867809, "lon": 6.9851696}, {"type": "node", "id": 3378210092, "lat": 50.9867819, "lon": 6.9851839}, {"type": "node", "id": 3378210152, "lat": 50.9864725, "lon": 6.9802689}, {"type": "node", "id": 3378210157, "lat": 50.9866826, "lon": 6.9854991}, {"type": "node", "id": 3378210158, "lat": 50.9866877, "lon": 6.9854791}, {"type": "node", "id": 3378210159, "lat": 50.9866897, "lon": 6.9854968}, {"type": "node", "id": 3378210161, "lat": 50.9866922, "lon": 6.9851962}, {"type": "node", "id": 3378210163, "lat": 50.9866943, "lon": 6.9852125}, {"type": "node", "id": 3378210165, "lat": 50.9866992, "lon": 6.9851941}, {"type": "node", "id": 3378210167, "lat": 50.9867016, "lon": 6.9852101}, {"type": "node", "id": 3378210175, "lat": 50.9867245, "lon": 6.9854676}, {"type": "node", "id": 3378210177, "lat": 50.9867267, "lon": 6.9854848}, {"type": "node", "id": 3378210180, "lat": 50.9867317, "lon": 6.9854653}, {"type": "node", "id": 3378210182, "lat": 50.9867339, "lon": 6.9854824}, {"type": "node", "id": 3378210184, "lat": 50.9867369, "lon": 6.9851828}, {"type": "node", "id": 3378210187, "lat": 50.9867381, "lon": 6.9851981}, {"type": "node", "id": 3378210191, "lat": 50.9867445, "lon": 6.9851805}, {"type": "node", "id": 3378210192, "lat": 50.9867468, "lon": 6.9851953}, {"type": "node", "id": 3378210309, "lat": 50.9864277, "lon": 6.9804938}, {"type": "node", "id": 3378210313, "lat": 50.9864414, "lon": 6.9801825}, {"type": "node", "id": 3378210320, "lat": 50.9865001, "lon": 6.980461}, {"type": "node", "id": 3378210323, "lat": 50.9865063, "lon": 6.980465}, {"type": "node", "id": 3378210325, "lat": 50.9865122, "lon": 6.9803532}, {"type": "node", "id": 3378210326, "lat": 50.9865131, "lon": 6.9803569}, {"type": "node", "id": 3378210327, "lat": 50.9865145, "lon": 6.9804675}, {"type": "node", "id": 3378210328, "lat": 50.9865176, "lon": 6.9803557}, {"type": "node", "id": 3378210330, "lat": 50.9865246, "lon": 6.9803572}, {"type": "node", "id": 3378210331, "lat": 50.9865246, "lon": 6.9804663}, {"type": "node", "id": 3378210334, "lat": 50.9865337, "lon": 6.9804613}, {"type": "node", "id": 3378210335, "lat": 50.9865345, "lon": 6.9803628}, {"type": "node", "id": 3378210337, "lat": 50.9865407, "lon": 6.980453}, {"type": "node", "id": 3378210338, "lat": 50.9865439, "lon": 6.9803748}, {"type": "node", "id": 3378210339, "lat": 50.9865456, "lon": 6.9804447}, {"type": "node", "id": 3378210341, "lat": 50.9865478, "lon": 6.9853365}, {"type": "node", "id": 3378210342, "lat": 50.9865493, "lon": 6.9803894}, {"type": "node", "id": 3378210343, "lat": 50.9865503, "lon": 6.9804317}, {"type": "node", "id": 3378210344, "lat": 50.9865522, "lon": 6.9804048}, {"type": "node", "id": 3378210345, "lat": 50.9865524, "lon": 6.9804178}, {"type": "node", "id": 3378210347, "lat": 50.9865579, "lon": 6.9853264}, {"type": "node", "id": 3378210348, "lat": 50.9865587, "lon": 6.985333}, {"type": "node", "id": 3378210352, "lat": 50.9868402, "lon": 6.9855117}, {"type": "node", "id": 3378210353, "lat": 50.9868418, "lon": 6.9851476}, {"type": "node", "id": 3378210354, "lat": 50.9868423, "lon": 6.9854986}, {"type": "node", "id": 3378210356, "lat": 50.9868439, "lon": 6.9851636}, {"type": "node", "id": 3378210358, "lat": 50.9868464, "lon": 6.9855142}, {"type": "node", "id": 3378210359, "lat": 50.9868483, "lon": 6.9855027}, {"type": "node", "id": 3378210370, "lat": 50.9868686, "lon": 6.9851388}, {"type": "node", "id": 3378210371, "lat": 50.9868721, "lon": 6.9851662}, {"type": "node", "id": 3378210372, "lat": 50.9868755, "lon": 6.9854932}, {"type": "node", "id": 3378210374, "lat": 50.9868807, "lon": 6.9854846}, {"type": "node", "id": 3378210375, "lat": 50.9868809, "lon": 6.9854996}, {"type": "node", "id": 3378210377, "lat": 50.9868836, "lon": 6.9854943}, {"type": "node", "id": 3378210383, "lat": 50.986889, "lon": 6.9854497}, {"type": "node", "id": 3378210386, "lat": 50.9868925, "lon": 6.9851597}, {"type": "node", "id": 3378210388, "lat": 50.9868958, "lon": 6.9851535}, {"type": "node", "id": 3378210389, "lat": 50.9868959, "lon": 6.9854506}, {"type": "node", "id": 3378210390, "lat": 50.9868963, "lon": 6.9854444}, {"type": "node", "id": 3378210391, "lat": 50.9868971, "lon": 6.9851728}, {"type": "node", "id": 3378210392, "lat": 50.9868985, "lon": 6.9851849}, {"type": "node", "id": 3378210493, "lat": 50.986599, "lon": 6.9854959}, {"type": "node", "id": 3378210494, "lat": 50.986601, "lon": 6.9852521}, {"type": "node", "id": 3378210495, "lat": 50.9866019, "lon": 6.9852435}, {"type": "node", "id": 3378210496, "lat": 50.9866027, "lon": 6.9851744}, {"type": "node", "id": 3378210497, "lat": 50.9866033, "lon": 6.9852123}, {"type": "node", "id": 3378210498, "lat": 50.9866033, "lon": 6.9852208}, {"type": "node", "id": 3378210500, "lat": 50.9866041, "lon": 6.9855039}, {"type": "node", "id": 3378210501, "lat": 50.9866055, "lon": 6.9852425}, {"type": "node", "id": 3378210502, "lat": 50.9866057, "lon": 6.985168}, {"type": "node", "id": 3378210505, "lat": 50.986611, "lon": 6.9851745}, {"type": "node", "id": 3378210506, "lat": 50.9866111, "lon": 6.9851847}, {"type": "node", "id": 3378210513, "lat": 50.9866318, "lon": 6.9851686}, {"type": "node", "id": 3378210514, "lat": 50.9866347, "lon": 6.9851606}, {"type": "node", "id": 3378210515, "lat": 50.9866359, "lon": 6.9854939}, {"type": "node", "id": 3378210516, "lat": 50.9866363, "lon": 6.9851743}, {"type": "node", "id": 3378210519, "lat": 50.9866384, "lon": 6.9855133}, {"type": "node", "id": 3378210521, "lat": 50.9866396, "lon": 6.9851653}, {"type": "node", "id": 3378210523, "lat": 50.9866433, "lon": 6.9854929}, {"type": "node", "id": 3378210524, "lat": 50.9866456, "lon": 6.9855111}, {"type": "node", "id": 3378210525, "lat": 50.9866498, "lon": 6.9851968}, {"type": "node", "id": 3378210528, "lat": 50.9866544, "lon": 6.9852026}, {"type": "node", "id": 3378210530, "lat": 50.9866561, "lon": 6.9851945}, {"type": "node", "id": 3378210532, "lat": 50.9866571, "lon": 6.9852017}, {"type": "node", "id": 3378210533, "lat": 50.9866573, "lon": 6.9852246}, {"type": "node", "id": 3378210535, "lat": 50.9866586, "lon": 6.981138}, {"type": "node", "id": 3378210547, "lat": 50.9866805, "lon": 6.9854813}, {"type": "node", "id": 3378210550, "lat": 50.9867657, "lon": 6.9811084}, {"type": "node", "id": 3378210553, "lat": 50.9867684, "lon": 6.9854539}, {"type": "node", "id": 3378210554, "lat": 50.986771, "lon": 6.9854705}, {"type": "node", "id": 3378210555, "lat": 50.986775, "lon": 6.9854518}, {"type": "node", "id": 3378210556, "lat": 50.9867773, "lon": 6.9854684}, {"type": "node", "id": 3378210693, "lat": 50.9867475, "lon": 6.9810581}, {"type": "node", "id": 3378210796, "lat": 50.9867889, "lon": 6.9851672}, {"type": "node", "id": 3378210798, "lat": 50.9867904, "lon": 6.9851811}, {"type": "node", "id": 3378210807, "lat": 50.9868136, "lon": 6.9854398}, {"type": "node", "id": 3378210808, "lat": 50.9868148, "lon": 6.9854476}, {"type": "node", "id": 3378210809, "lat": 50.9868156, "lon": 6.9854645}, {"type": "node", "id": 3378210812, "lat": 50.9868179, "lon": 6.985472}, {"type": "node", "id": 3378210813, "lat": 50.9868189, "lon": 6.9854485}, {"type": "node", "id": 3378210814, "lat": 50.9868199, "lon": 6.9854585}, {"type": "node", "id": 3378210815, "lat": 50.9868231, "lon": 6.985468}, {"type": "node", "id": 3378210820, "lat": 50.98719, "lon": 6.9862108}, {"type": "node", "id": 3378210822, "lat": 50.9872014, "lon": 6.9807126}, {"type": "node", "id": 3378210825, "lat": 50.9872165, "lon": 6.986045}, {"type": "node", "id": 3378210827, "lat": 50.9872197, "lon": 6.9862964}, {"type": "node", "id": 3378210894, "lat": 50.9869003, "lon": 6.9852033}, {"type": "node", "id": 3378210895, "lat": 50.9869009, "lon": 6.9851601}, {"type": "node", "id": 3378210896, "lat": 50.9869025, "lon": 6.9798798}, {"type": "node", "id": 3378210898, "lat": 50.9869054, "lon": 6.9852012}, {"type": "node", "id": 3378210899, "lat": 50.9869085, "lon": 6.98522}, {"type": "node", "id": 3378210904, "lat": 50.9869196, "lon": 6.9856768}, {"type": "node", "id": 3378210906, "lat": 50.9869234, "lon": 6.9857537}, {"type": "node", "id": 3378210907, "lat": 50.9869235, "lon": 6.9853328}, {"type": "node", "id": 3378210908, "lat": 50.986926, "lon": 6.9853556}, {"type": "node", "id": 3378210914, "lat": 50.9869334, "lon": 6.9853536}, {"type": "node", "id": 3378210916, "lat": 50.9869372, "lon": 6.9852384}, {"type": "node", "id": 3378210932, "lat": 50.9870139, "lon": 6.9857423}, {"type": "node", "id": 3378210950, "lat": 50.9870757, "lon": 6.9856566}, {"type": "node", "id": 3378210956, "lat": 50.9871276, "lon": 6.9807798}, {"type": "node", "id": 3378210958, "lat": 50.9871401, "lon": 6.9860909}, {"type": "node", "id": 3378211002, "lat": 50.9871554, "lon": 6.9861271}, {"type": "node", "id": 3378211004, "lat": 50.9871739, "lon": 6.98606}, {"type": "node", "id": 3378211006, "lat": 50.9871804, "lon": 6.9860779}, {"type": "node", "id": 3378211008, "lat": 50.9871861, "lon": 6.9807268}, {"type": "node", "id": 3378211009, "lat": 50.9871864, "lon": 6.9862138}, {"type": "node", "id": 3378211010, "lat": 50.9871876, "lon": 6.9860978}, {"type": "node", "id": 3378211031, "lat": 50.9872429, "lon": 6.9862764}, {"type": "node", "id": 3378211033, "lat": 50.9872554, "lon": 6.9861524}, {"type": "node", "id": 3378211038, "lat": 50.9872865, "lon": 6.9862383}, {"type": "node", "id": 3378213454, "lat": 50.9884001, "lon": 6.9903666}, {"type": "node", "id": 3378213464, "lat": 50.9885357, "lon": 6.9904757}, {"type": "node", "id": 3378214165, "lat": 50.9884656, "lon": 6.990545}, {"type": "node", "id": 3378214169, "lat": 50.9884715, "lon": 6.9903009}, {"type": "node", "id": 3378214693, "lat": 50.9885, "lon": 6.9903782}, {"type": "node", "id": 3378454541, "lat": 50.9835528, "lon": 7.0013386}, {"type": "node", "id": 3378454905, "lat": 50.9836393, "lon": 7.0012752}, {"type": "node", "id": 3378454908, "lat": 50.9836453, "lon": 7.0016548}, {"type": "node", "id": 3378454920, "lat": 50.9837318, "lon": 7.0015915}, {"type": "node", "id": 3378456568, "lat": 50.9860239, "lon": 6.9982504}, {"type": "node", "id": 3378456693, "lat": 50.9859017, "lon": 6.9980382}, {"type": "node", "id": 3378456701, "lat": 50.9859125, "lon": 6.9980224}, {"type": "node", "id": 3378456746, "lat": 50.986626, "lon": 6.9997724}, {"type": "node", "id": 3378456747, "lat": 50.9866263, "lon": 6.9997973}, {"type": "node", "id": 3378456798, "lat": 50.9859308, "lon": 6.9979961}, {"type": "node", "id": 3378456820, "lat": 50.9860361, "lon": 6.998233}, {"type": "node", "id": 3378457032, "lat": 50.9860487, "lon": 6.9982147}, {"type": "node", "id": 3378457040, "lat": 50.9860633, "lon": 6.997805}, {"type": "node", "id": 3378457067, "lat": 50.9861853, "lon": 6.9980172}, {"type": "node", "id": 3378457828, "lat": 50.9866666, "lon": 6.9997716}, {"type": "node", "id": 3378457829, "lat": 50.9866669, "lon": 6.9997966}, {"type": "node", "id": 3378458077, "lat": 50.9870883, "lon": 6.9912339}, {"type": "node", "id": 3378458138, "lat": 50.9871526, "lon": 6.9911608}, {"type": "node", "id": 3378458151, "lat": 50.9872027, "lon": 6.9912948}, {"type": "node", "id": 3378458295, "lat": 50.987137, "lon": 6.9913558}, {"type": "node", "id": 3378458310, "lat": 50.9872042, "lon": 6.991293}, {"type": "node", "id": 3378460146, "lat": 50.9887934, "lon": 6.999293}, {"type": "node", "id": 3378460148, "lat": 50.9887942, "lon": 6.999315}, {"type": "node", "id": 3378460239, "lat": 50.9888333, "lon": 6.9992893}, {"type": "node", "id": 3378460240, "lat": 50.9888341, "lon": 6.9993113}, {"type": "node", "id": 3427360893, "lat": 50.9859472, "lon": 6.9975456, "tags": {"addr:city": "K\u00f6ln", "addr:housenumber": "8-10", "addr:postcode": "51061", "addr:street": "Moses-He\u00df-Stra\u00dfe", "amenity": "post_office", "name": "Lotto Bel", "opening_hours": "Mo-Fr 08:00-13:00, 15:00-18:30; Sa 08:00-13:00", "wheelchair": "yes", "wheelchair:description": "kein WC"}}, {"type": "node", "id": 3427548133, "lat": 50.9859638, "lon": 6.9870892}, {"type": "node", "id": 3427548134, "lat": 50.9861737, "lon": 6.9876206}, {"type": "node", "id": 3427548135, "lat": 50.9862219, "lon": 6.98758}, {"type": "node", "id": 3427548136, "lat": 50.9864194, "lon": 6.9880812}, {"type": "node", "id": 3427548137, "lat": 50.9866877, "lon": 6.9864202}, {"type": "node", "id": 3427548138, "lat": 50.9867143, "lon": 6.9878033}, {"type": "node", "id": 3427548139, "lat": 50.9867841, "lon": 6.9879891}, {"type": "node", "id": 3427548140, "lat": 50.9868903, "lon": 6.9879032}, {"type": "node", "id": 3427548141, "lat": 50.9869221, "lon": 6.9864824}, {"type": "node", "id": 3427548142, "lat": 50.9870249, "lon": 6.9883108}, {"type": "node", "id": 3427548144, "lat": 50.9874643, "lon": 6.9879548}, {"type": "node", "id": 3429281602, "lat": 50.9970377, "lon": 6.981413}, {"type": "node", "id": 3429281604, "lat": 50.9970796, "lon": 6.9805907}, {"type": "node", "id": 3429281606, "lat": 50.9972528, "lon": 6.9812849}, {"type": "node", "id": 3429281607, "lat": 50.997459, "lon": 6.9811691}, {"type": "node", "id": 3429281609, "lat": 50.9976369, "lon": 6.9810911}, {"type": "node", "id": 3429281610, "lat": 50.9976648, "lon": 6.9806806}, {"type": "node", "id": 3429281611, "lat": 50.9977252, "lon": 6.97802}, {"type": "node", "id": 3429281612, "lat": 50.9977387, "lon": 6.9783495}, {"type": "node", "id": 3429281615, "lat": 50.9978116, "lon": 6.9810255}, {"type": "node", "id": 3429281618, "lat": 50.9979019, "lon": 6.9783281}, {"type": "node", "id": 3429281619, "lat": 50.9979192, "lon": 6.9794205}, {"type": "node", "id": 3429418963, "lat": 50.9963171, "lon": 6.9920258}, {"type": "node", "id": 3429418965, "lat": 50.9964595, "lon": 6.9915175}, {"type": "node", "id": 3429418966, "lat": 50.9965337, "lon": 6.9905535}, {"type": "node", "id": 3429418967, "lat": 50.9966546, "lon": 6.9905442}, {"type": "node", "id": 3429418968, "lat": 50.9967912, "lon": 6.9905628}, {"type": "node", "id": 3429418969, "lat": 50.9978191, "lon": 6.9916073}, {"type": "node", "id": 3429418970, "lat": 50.9978933, "lon": 6.9907767}, {"type": "node", "id": 3430870023, "lat": 50.9860563, "lon": 6.9927775}, {"type": "node", "id": 3430870024, "lat": 50.9860762, "lon": 6.9928775}, {"type": "node", "id": 3430870025, "lat": 50.9860858, "lon": 6.9929178, "tags": {"entrance": "main"}}, {"type": "node", "id": 3430870026, "lat": 50.9860913, "lon": 6.9929441}, {"type": "node", "id": 3430870027, "lat": 50.9860974, "lon": 6.992853}, {"type": "node", "id": 3430870028, "lat": 50.9861393, "lon": 6.9929328}, {"type": "node", "id": 3430870029, "lat": 50.9861981, "lon": 6.9930518}, {"type": "node", "id": 3430870030, "lat": 50.9862389, "lon": 6.9925421}, {"type": "node", "id": 3430870031, "lat": 50.9863799, "lon": 6.9928121}, {"type": "node", "id": 3430870059, "lat": 50.987948, "lon": 6.9918724}, {"type": "node", "id": 3430870062, "lat": 50.9879707, "lon": 6.9919243}, {"type": "node", "id": 3430870069, "lat": 50.9880588, "lon": 6.9916648}, {"type": "node", "id": 3431990379, "lat": 50.9856631, "lon": 7.0080118}, {"type": "node", "id": 3431990389, "lat": 50.9859401, "lon": 7.008543}, {"type": "node", "id": 3431990391, "lat": 50.9859592, "lon": 7.0064132}, {"type": "node", "id": 3431990694, "lat": 50.9859863, "lon": 7.0086452}, {"type": "node", "id": 3431990696, "lat": 50.9860143, "lon": 7.0087808}, {"type": "node", "id": 3431990697, "lat": 50.986018, "lon": 7.0089282}, {"type": "node", "id": 3431990698, "lat": 50.9860199, "lon": 7.0088408}, {"type": "node", "id": 3431990700, "lat": 50.9860795, "lon": 7.0073012}, {"type": "node", "id": 3431990701, "lat": 50.9860977, "lon": 7.0061712}, {"type": "node", "id": 3431990717, "lat": 50.9863218, "lon": 7.0091305}, {"type": "node", "id": 3445421053, "lat": 50.9828844, "lon": 6.9913984}, {"type": "node", "id": 3445421054, "lat": 50.9835803, "lon": 6.9920091}, {"type": "node", "id": 3445421055, "lat": 50.9836, "lon": 6.9893012}, {"type": "node", "id": 3445421056, "lat": 50.9836512, "lon": 6.9921885}, {"type": "node", "id": 3445421057, "lat": 50.9840009, "lon": 6.9917504}, {"type": "node", "id": 3445421058, "lat": 50.9840329, "lon": 6.9920599}, {"type": "node", "id": 3445421059, "lat": 50.9840848, "lon": 6.9898612}, {"type": "node", "id": 3445421060, "lat": 50.9840918, "lon": 6.9898898}, {"type": "node", "id": 3445421061, "lat": 50.9841178, "lon": 6.9916996}, {"type": "node", "id": 3469497755, "lat": 50.9846635, "lon": 7.0053057, "tags": {"amenity": "doctors", "healthcare:speciality": "general;internal", "name": "Gemeinschaftspraxis Dudarov und Kohtz", "opening_hours": "Mo-Tu 08:00-13:00,16:00-19:00; We 08:00-13:00; Th 08:00-13:00,16:00-19:00, Fr 08:00-13:00", "phone": "+49 221 644687"}}, {"type": "node", "id": 3752486362, "lat": 50.9854766, "lon": 7.0048641, "tags": {"amenity": "recycling", "recycling:glass_bottles": "yes", "recycling_type": "container"}}, {"type": "node", "id": 3752486363, "lat": 50.989857, "lon": 7.002483}, {"type": "node", "id": 3752486364, "lat": 50.9900057, "lon": 6.984886, "tags": {"amenity": "recycling", "operator": "Malteser", "recycling:clothes": "yes", "recycling_type": "container"}}, {"type": "node", "id": 3760151653, "lat": 50.9855367, "lon": 6.9978367, "tags": {"amenity": "recycling", "operator": "Malteser", "recycling:clothes": "yes", "recycling_type": "container"}}, {"type": "node", "id": 3760151654, "lat": 50.9856877, "lon": 6.9979366, "tags": {"amenity": "recycling", "recycling:glass": "yes", "recycling_type": "container"}}, {"type": "node", "id": 3760151655, "lat": 50.9858751, "lon": 6.9979075, "tags": {"amenity": "recycling", "description:de": "Adresse des operators: Karl-Legien-Stra\u00dfe 10, 45356 Essen, 0201-8339333", "operator": "L.G.R Recycling GmbH", "recycling:clothes": "yes", "recycling_type": "container"}}, {"type": "node", "id": 3760151656, "lat": 50.9864248, "lon": 6.9972816, "tags": {"amenity": "recycling", "recycling:glass": "yes", "recycling_type": "container"}}, {"type": "node", "id": 4126131760, "lat": 50.9859726, "lon": 6.9975925, "tags": {"addr:city": "K\u00f6ln", "addr:housenumber": "6", "addr:postcode": "51061", "addr:street": "Moses-He\u00df-Stra\u00dfe", "amenity": "restaurant", "cuisine": "pizza", "name": "Pizzeria Al Dente", "takeaway": "only", "wheelchair": "yes"}}, {"type": "node", "id": 4200385812, "lat": 50.985764, "lon": 7.0046806}, {"type": "node", "id": 4264453712, "lat": 50.9860178, "lon": 6.9976796, "tags": {"addr:city": "K\u00f6ln", "addr:housenumber": "2", "addr:postcode": "51061", "addr:street": "Moses-He\u00df-Stra\u00dfe", "amenity": "bar", "name": "Sportsbar21", "opening_hours": "9:00-6:00", "smoking": "outside"}}, {"type": "node", "id": 4264453713, "lat": 50.9859957, "lon": 6.9976364, "tags": {"addr:city": "K\u00f6ln", "addr:housenumber": "4", "addr:postcode": "51061", "addr:street": "Moses-He\u00df-Stra\u00dfe", "amenity": "bar", "name": "Bet3000", "opening_hours": "11:00-23:00", "smoking": "outside"}}, {"type": "node", "id": 4271086389, "lat": 50.9797041, "lon": 7.0018334, "tags": {"addr:postcode": "51063", "amenity": "car_rental", "brand": "Enterprise", "brand:wikidata": "Q17085454", "brand:wikipedia": "en:Enterprise Rent-A-Car", "name": "Enterprise", "official_name": "Enterprise Rent-A-Car", "opening_hours": "Mo-Fr 07:30-18:00; Sa 09:00-12:00", "phone": "+49 221 968500"}}, {"type": "node", "id": 4347385804, "lat": 50.9873141, "lon": 7.0084231}, {"type": "node", "id": 4347385805, "lat": 50.9868453, "lon": 7.0104425}, {"type": "node", "id": 4347385806, "lat": 50.9864358, "lon": 7.009604}, {"type": "node", "id": 4347385807, "lat": 50.9877674, "lon": 7.0092777}, {"type": "node", "id": 4448987191, "lat": 50.9859207, "lon": 6.998739, "tags": {"addr:postcode": "51061", "amenity": "dentist", "name": "Dr. med. dent. Sybille Dosch", "phone": "+49 221 27255990"}}, {"type": "node", "id": 4539894790, "lat": 50.9878041, "lon": 6.9924019, "tags": {"addr:postcode": "51061", "amenity": "doctors", "email": "info@arztpraxis-reisloh-ates.de", "healthcare": "doctor", "name": "Arztpraxis Reisloh & Ates", "opening_hours": "Mo-Tu,Th 07:30-19:30; We 07:30-15:30; Fr 07:30-13:30", "phone": "+49 221 661066", "website": "http://www.arztpraxis-reisloh-ates.de"}}, {"type": "node", "id": 4560017090, "lat": 50.9781727, "lon": 6.9988593, "tags": {"amenity": "bench", "backrest": "yes"}}, {"type": "node", "id": 4560017091, "lat": 50.978159, "lon": 6.9988782, "tags": {"amenity": "waste_basket"}}, {"type": "node", "id": 4560017092, "lat": 50.9778629, "lon": 6.9990741, "tags": {"amenity": "waste_basket"}}, {"type": "node", "id": 4560017792, "lat": 50.9790401, "lon": 6.9980054, "tags": {"amenity": "waste_basket"}}, {"type": "node", "id": 4560017793, "lat": 50.9786079, "lon": 6.9983535, "tags": {"amenity": "waste_basket"}}, {"type": "node", "id": 4560079190, "lat": 50.9781343, "lon": 6.9988957, "tags": {"amenity": "bench", "backrest": "yes"}}, {"type": "node", "id": 4560095390, "lat": 50.9780081, "lon": 6.9990147, "tags": {"amenity": "bench", "backrest": "yes"}}, {"type": "node", "id": 4560113690, "lat": 50.9779843, "lon": 6.9990423, "tags": {"amenity": "waste_basket"}}, {"type": "node", "id": 4560151392, "lat": 50.9822604, "lon": 6.9978322, "tags": {"amenity": "waste_basket"}}, {"type": "node", "id": 4570305498, "lat": 50.9829354, "lon": 6.9912241, "tags": {"amenity": "waste_basket"}}, {"type": "node", "id": 4570305499, "lat": 50.9832985, "lon": 6.9901914, "tags": {"amenity": "waste_basket"}}, {"type": "node", "id": 4570317293, "lat": 50.9835096, "lon": 6.9896053, "tags": {"amenity": "waste_basket"}}, {"type": "node", "id": 4570317493, "lat": 50.9841156, "lon": 6.9872062, "tags": {"amenity": "waste_basket"}}, {"type": "node", "id": 4570325906, "lat": 50.9848778, "lon": 6.984886, "tags": {"amenity": "bench", "backrest": "yes"}}, {"type": "node", "id": 4570325907, "lat": 50.9849666, "lon": 6.984618, "tags": {"amenity": "bench", "backrest": "yes"}}, {"type": "node", "id": 4570325908, "lat": 50.9851919, "lon": 6.9838007, "tags": {"amenity": "waste_basket"}}, {"type": "node", "id": 4570325909, "lat": 50.9853338, "lon": 6.983132, "tags": {"amenity": "waste_basket"}}, {"type": "node", "id": 4570326127, "lat": 50.9852069, "lon": 6.9837565, "tags": {"amenity": "bench", "backrest": "yes"}}, {"type": "node", "id": 4570326813, "lat": 50.9851811, "lon": 6.9838556, "tags": {"amenity": "bench", "backrest": "yes"}}, {"type": "node", "id": 4570326814, "lat": 50.9853446, "lon": 6.983075, "tags": {"amenity": "bench"}}, {"type": "node", "id": 4570331791, "lat": 50.9830783, "lon": 6.9908771, "tags": {"amenity": "waste_basket"}}, {"type": "node", "id": 4570348291, "lat": 50.9851193, "lon": 6.984125, "tags": {"amenity": "bench", "backrest": "yes"}}, {"type": "node", "id": 4570348292, "lat": 50.9851328, "lon": 6.9840657, "tags": {"amenity": "waste_basket"}}, {"type": "node", "id": 4570348293, "lat": 50.985158, "lon": 6.9839633, "tags": {"amenity": "bench", "backrest": "yes"}}, {"type": "node", "id": 4793450022, "lat": 50.9819767, "lon": 6.9935841, "tags": {"amenity": "waste_basket"}}, {"type": "node", "id": 4793450023, "lat": 50.9817292, "lon": 6.9940819, "tags": {"amenity": "waste_basket"}}, {"type": "node", "id": 4793455121, "lat": 50.9841671, "lon": 6.9926039, "tags": {"amenity": "waste_basket"}}, {"type": "node", "id": 4793455122, "lat": 50.983851, "lon": 6.9929752, "tags": {"amenity": "waste_basket"}}, {"type": "node", "id": 4793455123, "lat": 50.9839811, "lon": 6.9928758, "tags": {"amenity": "waste_basket"}}, {"type": "node", "id": 4793482522, "lat": 50.9783649, "lon": 6.9989721, "tags": {"amenity": "bench"}}, {"type": "node", "id": 4793482523, "lat": 50.9783674, "lon": 6.9990191, "tags": {"amenity": "waste_basket"}}, {"type": "node", "id": 4845570015, "lat": 50.9898473, "lon": 7.0003918}, {"type": "node", "id": 4845570016, "lat": 50.9898671, "lon": 7.0004597}, {"type": "node", "id": 4845570017, "lat": 50.9898883, "lon": 7.0004441}, {"type": "node", "id": 4845570018, "lat": 50.9898684, "lon": 7.0003762}, {"type": "node", "id": 4849730626, "lat": 50.9856448, "lon": 6.9818147, "tags": {"amenity": "bench"}}, {"type": "node", "id": 4849730627, "lat": 50.9856343, "lon": 6.9818591, "tags": {"amenity": "waste_basket"}}, {"type": "node", "id": 4849730628, "lat": 50.9857705, "lon": 6.9813286, "tags": {"amenity": "waste_basket"}}, {"type": "node", "id": 4849730725, "lat": 50.9862578, "lon": 6.9799409, "tags": {"amenity": "waste_basket"}}, {"type": "node", "id": 4849733122, "lat": 50.9857832, "lon": 6.9812742, "tags": {"amenity": "bench"}}, {"type": "node", "id": 4849733124, "lat": 50.9862764, "lon": 6.9799039, "tags": {"amenity": "bench", "backrest": "yes"}}, {"type": "node", "id": 4905949622, "lat": 50.9836633, "lon": 6.9887464, "tags": {"amenity": "waste_basket"}}, {"type": "node", "id": 4905950521, "lat": 50.9835465, "lon": 6.9891058, "tags": {"amenity": "waste_basket"}}, {"type": "node", "id": 4905967522, "lat": 50.9848641, "lon": 6.9849389, "tags": {"amenity": "waste_basket"}}, {"type": "node", "id": 4905974022, "lat": 50.9842029, "lon": 6.9926583, "tags": {"amenity": "bench"}}, {"type": "node", "id": 4905974023, "lat": 50.9843835, "lon": 6.9937303, "tags": {"amenity": "waste_basket"}}, {"type": "node", "id": 4905993322, "lat": 50.9840571, "lon": 6.9941498, "tags": {"amenity": "waste_basket"}}, {"type": "node", "id": 4906004821, "lat": 50.9846524, "lon": 6.9934506, "tags": {"amenity": "waste_basket"}}, {"type": "node", "id": 4906004822, "lat": 50.9848338, "lon": 6.993866, "tags": {"amenity": "waste_basket"}}, {"type": "node", "id": 4906004823, "lat": 50.9848005, "lon": 6.99395, "tags": {"amenity": "bench"}}, {"type": "node", "id": 4906004824, "lat": 50.9851754, "lon": 6.9950024, "tags": {"amenity": "bench"}}, {"type": "node", "id": 4906004825, "lat": 50.9850802, "lon": 6.9945174, "tags": {"amenity": "waste_basket"}}, {"type": "node", "id": 4906004826, "lat": 50.9851509, "lon": 6.9949346, "tags": {"amenity": "waste_basket"}}, {"type": "node", "id": 4906004827, "lat": 50.9854402, "lon": 6.9953889, "tags": {"amenity": "bench"}}, {"type": "node", "id": 4906004828, "lat": 50.985415, "lon": 6.995329, "tags": {"amenity": "waste_basket"}}, {"type": "node", "id": 4906004829, "lat": 50.9857862, "lon": 6.9958111, "tags": {"amenity": "waste_basket"}}, {"type": "node", "id": 4906007921, "lat": 50.98505, "lon": 6.9944311, "tags": {"amenity": "bench"}}, {"type": "node", "id": 4906007922, "lat": 50.9857453, "lon": 6.9957487, "tags": {"amenity": "bench"}}, {"type": "node", "id": 4906019622, "lat": 50.9838123, "lon": 6.9971287, "tags": {"amenity": "waste_basket"}}, {"type": "node", "id": 4906029222, "lat": 50.982813, "lon": 6.9967164, "tags": {"amenity": "waste_basket"}}, {"type": "node", "id": 4906030821, "lat": 50.983862, "lon": 6.9974464, "tags": {"amenity": "bench"}}, {"type": "node", "id": 4906030822, "lat": 50.9838941, "lon": 6.9975577, "tags": {"amenity": "bench"}}, {"type": "node", "id": 4906055521, "lat": 50.9841315, "lon": 6.9933001, "tags": {"amenity": "waste_basket"}}, {"type": "node", "id": 4906163723, "lat": 50.9838402, "lon": 6.9935438, "tags": {"amenity": "waste_basket"}}, {"type": "node", "id": 4936627869, "lat": 50.9854319, "lon": 6.9993692}, {"type": "node", "id": 4936627870, "lat": 50.9854321, "lon": 6.9993987}, {"type": "node", "id": 4936627871, "lat": 50.9853925, "lon": 6.9993994}, {"type": "node", "id": 4936627872, "lat": 50.9853922, "lon": 6.99937}, {"type": "node", "id": 4968878223, "lat": 50.9867988, "lon": 6.9941395, "tags": {"amenity": "bench"}}, {"type": "node", "id": 4968881121, "lat": 50.9864348, "lon": 6.9939329, "tags": {"amenity": "bench"}}, {"type": "node", "id": 4971597730, "lat": 50.9856021, "lon": 6.9935556, "tags": {"amenity": "bench"}}, {"type": "node", "id": 4973326924, "lat": 50.9876071, "lon": 6.9843148, "tags": {"amenity": "bench"}}, {"type": "node", "id": 4973328022, "lat": 50.9856192, "lon": 6.9935266, "tags": {"amenity": "waste_basket"}}, {"type": "node", "id": 4973328023, "lat": 50.9880179, "lon": 6.9854557, "tags": {"amenity": "waste_basket"}}, {"type": "node", "id": 4973328024, "lat": 50.9879577, "lon": 6.9853052, "tags": {"amenity": "bench"}}, {"type": "node", "id": 4973730522, "lat": 50.9873862, "lon": 6.9838532, "tags": {"amenity": "bench"}}, {"type": "node", "id": 4973730824, "lat": 50.9869684, "lon": 6.9911587, "tags": {"amenity": "waste_basket"}}, {"type": "node", "id": 4973730825, "lat": 50.9871348, "lon": 6.9881256, "tags": {"amenity": "bench"}}, {"type": "node", "id": 4973730826, "lat": 50.9872764, "lon": 6.9878801, "tags": {"amenity": "bench"}}, {"type": "node", "id": 4973730827, "lat": 50.9876193, "lon": 6.9853722, "tags": {"amenity": "waste_basket"}}, {"type": "node", "id": 4973748523, "lat": 50.9871462, "lon": 6.988078, "tags": {"amenity": "waste_basket"}}, {"type": "node", "id": 4973748524, "lat": 50.9872647, "lon": 6.9833541, "tags": {"amenity": "bench"}}, {"type": "node", "id": 4973748921, "lat": 50.9872403, "lon": 6.9832955, "tags": {"amenity": "waste_basket"}}, {"type": "node", "id": 4973748922, "lat": 50.986427, "lon": 6.9917741, "tags": {"amenity": "waste_basket"}}, {"type": "node", "id": 4973748923, "lat": 50.9874439, "lon": 6.9924666, "tags": {"amenity": "waste_basket"}}, {"type": "node", "id": 4973756121, "lat": 50.9868284, "lon": 6.9842299, "tags": {"amenity": "waste_basket"}}, {"type": "node", "id": 4973756221, "lat": 50.9868127, "lon": 6.9841939, "tags": {"amenity": "bench"}}, {"type": "node", "id": 4973756222, "lat": 50.9865122, "lon": 6.9839984, "tags": {"amenity": "waste_basket"}}, {"type": "node", "id": 4973756223, "lat": 50.9860996, "lon": 6.9828427, "tags": {"amenity": "waste_basket"}}, {"type": "node", "id": 4973756224, "lat": 50.9860874, "lon": 6.9827936, "tags": {"amenity": "bench"}}, {"type": "node", "id": 4973756225, "lat": 50.9870737, "lon": 6.9846838, "tags": {"amenity": "waste_basket"}}, {"type": "node", "id": 4973756321, "lat": 50.9859896, "lon": 6.983665, "tags": {"amenity": "waste_basket"}}, {"type": "node", "id": 4973756322, "lat": 50.9861014, "lon": 6.9828861, "tags": {"amenity": "bench"}}, {"type": "node", "id": 5001715622, "lat": 50.9897633, "lon": 7.0024035, "tags": {"amenity": "waste_basket"}}, {"type": "node", "id": 5229105195, "lat": 50.9864569, "lon": 7.0096931}, {"type": "node", "id": 5229105196, "lat": 50.9870884, "lon": 7.0119381, "tags": {"amenity": "bench", "backrest": "yes", "colour": "green", "material": "metal", "seats": "3"}}, {"type": "node", "id": 5229105197, "lat": 50.9890976, "lon": 7.0107646, "tags": {"amenity": "bench", "backrest": "yes", "colour": "green", "material": "metal", "seats": "3"}}, {"type": "node", "id": 5229105198, "lat": 50.9897839, "lon": 7.0111522, "tags": {"amenity": "bench", "backrest": "yes", "colour": "green", "material": "metal", "seats": "3"}}, {"type": "node", "id": 5581911403, "lat": 50.9897849, "lon": 7.0024334}, {"type": "node", "id": 5581911404, "lat": 50.9897906, "lon": 7.0024977}, {"type": "node", "id": 5581911405, "lat": 50.9898513, "lon": 7.0024188}, {"type": "node", "id": 5581911406, "lat": 50.9897756, "lon": 7.0023408}, {"type": "node", "id": 5581911407, "lat": 50.9898396, "lon": 7.0023249}, {"type": "node", "id": 5581911408, "lat": 50.9897816, "lon": 7.0024017}, {"type": "node", "id": 5581911409, "lat": 50.9896914, "lon": 7.0023436}, {"type": "node", "id": 5581911410, "lat": 50.9897209, "lon": 7.0023363}, {"type": "node", "id": 5581911411, "lat": 50.9896885, "lon": 7.0023135}, {"type": "node", "id": 5581911412, "lat": 50.989718, "lon": 7.0023062}, {"type": "node", "id": 5581911417, "lat": 50.9899942, "lon": 7.0019045, "tags": {"amenity": "vending_machine", "brand": "Deutsche Bahn", "brand:wikidata": "Q9322", "brand:wikipedia": "de:Deutsche Bahn", "layer": "1", "operator": "DB Vertrieb GmbH", "operator:wikidata": "Q1152124", "operator:wikipedia": "de:DB Vertrieb", "payment:american_express": "yes", "payment:coins": "yes", "payment:ep_geldkarte": "yes", "payment:maestro": "yes", "payment:mastercard": "yes", "payment:notes": "yes", "payment:visa": "yes", "ref": "B 88326", "vending": "public_transport_tickets"}}, {"type": "node", "id": 5581911418, "lat": 50.9890353, "lon": 7.0025734}, {"type": "node", "id": 5581911419, "lat": 50.9890951, "lon": 7.0025563}, {"type": "node", "id": 5765113461, "lat": 50.9925414, "lon": 6.9893906}, {"type": "node", "id": 5765113462, "lat": 50.9922642, "lon": 6.9897093}, {"type": "node", "id": 5765113463, "lat": 50.9933703, "lon": 6.9924334}, {"type": "node", "id": 6200415343, "lat": 50.9934267, "lon": 6.9924471}, {"type": "node", "id": 6395630592, "lat": 50.9861609, "lon": 6.9984018, "tags": {"amenity": "taxi"}}, {"type": "node", "id": 6571279665, "lat": 50.9884094, "lon": 6.9916848}, {"type": "node", "id": 7395752134, "lat": 50.9959687, "lon": 6.9907777}, {"type": "node", "id": 7395752135, "lat": 50.9963364, "lon": 6.9904131}, {"type": "node", "id": 7395752136, "lat": 50.9959763, "lon": 6.9907032}, {"type": "node", "id": 7395752137, "lat": 50.9959797, "lon": 6.9907353, "tags": {"amenity": "recycling", "opening_hours": "24/7", "recycling:clothes": "yes", "recycling_type": "container"}}, {"type": "node", "id": 7956273834, "lat": 50.9956846, "lon": 6.9919475}, {"type": "node", "id": 7956273835, "lat": 50.9956739, "lon": 6.9918435}, {"type": "node", "id": 7956273836, "lat": 50.9953616, "lon": 6.9919604}, {"type": "node", "id": 7956273837, "lat": 50.9953984, "lon": 6.992212}, {"type": "node", "id": 7956273838, "lat": 50.9957039, "lon": 6.9921037}, {"type": "node", "id": 8025898585, "lat": 50.988867, "lon": 6.9993215, "tags": {"amenity": "bicycle_parking", "bicycle_parking": "stands", "capacity": "4", "covered": "no"}}, {"type": "node", "id": 8085448506, "lat": 50.9881932, "lon": 6.9986806}, {"type": "node", "id": 8085448507, "lat": 50.9881807, "lon": 6.9986583}, {"type": "node", "id": 8085448508, "lat": 50.9882042, "lon": 6.9986938}, {"type": "node", "id": 8085448513, "lat": 50.9880916, "lon": 6.9981781}, {"type": "node", "id": 8085503950, "lat": 50.9881149, "lon": 6.9986424}, {"type": "node", "id": 8085503951, "lat": 50.9880993, "lon": 6.9985934}, {"type": "node", "id": 8085503952, "lat": 50.988093, "lon": 6.9985472}, {"type": "node", "id": 8085503953, "lat": 50.9881571, "lon": 6.998743}, {"type": "node", "id": 8243378809, "lat": 50.9970551, "lon": 6.9805867}, {"type": "node", "id": 8243378810, "lat": 50.9972343, "lon": 6.9780571}, {"type": "node", "id": 8243378812, "lat": 50.9965397, "lon": 6.9780934}, {"type": "node", "id": 8243378813, "lat": 50.9963742, "lon": 6.9785993}, {"type": "node", "id": 8263993391, "lat": 50.9800355, "lon": 6.9982933}, {"type": "node", "id": 8263993392, "lat": 50.9799529, "lon": 6.9978449}, {"type": "node", "id": 8263993393, "lat": 50.9800433, "lon": 6.9982585}, {"type": "node", "id": 8264082870, "lat": 50.9799877, "lon": 6.9983555}, {"type": "node", "id": 8264082880, "lat": 50.9794838, "lon": 6.9994715, "tags": {"access": "private", "amenity": "parking_entrance", "parking": "underground"}}, {"type": "node", "id": 8290879975, "lat": 50.9882985, "lon": 6.9922829}, {"type": "node", "id": 8290879976, "lat": 50.9883159, "lon": 6.9922698}, {"type": "node", "id": 8290879978, "lat": 50.9881188, "lon": 6.991784}, {"type": "node", "id": 8290879979, "lat": 50.988344, "lon": 6.9923533}, {"type": "node", "id": 8290879980, "lat": 50.9885827, "lon": 6.9921246}, {"type": "node", "id": 8290879981, "lat": 50.988493, "lon": 6.9918929}, {"type": "node", "id": 8303087073, "lat": 50.9878017, "lon": 6.990117}, {"type": "node", "id": 8303087074, "lat": 50.9878971, "lon": 6.9902286}, {"type": "node", "id": 8303087075, "lat": 50.9878285, "lon": 6.9900828}, {"type": "node", "id": 8303087076, "lat": 50.9878667, "lon": 6.9902665}, {"type": "node", "id": 8303087077, "lat": 50.9877967, "lon": 6.9901177}, {"type": "node", "id": 8319972390, "lat": 50.9848056, "lon": 7.0070715}, {"type": "node", "id": 8319972391, "lat": 50.9848284, "lon": 7.0069559}, {"type": "node", "id": 8319972392, "lat": 50.9849083, "lon": 7.0069559}, {"type": "node", "id": 8319972393, "lat": 50.9849621, "lon": 7.0069619}, {"type": "node", "id": 8319972394, "lat": 50.9850538, "lon": 7.0071409}, {"type": "node", "id": 8319972395, "lat": 50.9850475, "lon": 7.0072545}, {"type": "node", "id": 8319972396, "lat": 50.9849608, "lon": 7.0073628}, {"type": "node", "id": 8319972397, "lat": 50.9849436, "lon": 7.0073641}, {"type": "node", "id": 8319972398, "lat": 50.9849243, "lon": 7.0073461}, {"type": "node", "id": 8319972399, "lat": 50.984849, "lon": 7.0072211}, {"type": "node", "id": 8319972400, "lat": 50.9848187, "lon": 7.0071697}, {"type": "node", "id": 8462527245, "lat": 50.9945409, "lon": 6.9900699}, {"type": "node", "id": 8462527246, "lat": 50.9945583, "lon": 6.9899783}, {"type": "node", "id": 8462527247, "lat": 50.9945487, "lon": 6.9901535}, {"type": "node", "id": 8462527248, "lat": 50.9943295, "lon": 6.9902103}, {"type": "node", "id": 8462527249, "lat": 50.9942988, "lon": 6.9899761}, {"type": "node", "id": 8462527250, "lat": 50.9945473, "lon": 6.9899012}, {"type": "node", "id": 8462527255, "lat": 50.9950389, "lon": 6.9904793}, {"type": "node", "id": 8462527256, "lat": 50.99506, "lon": 6.9906495}, {"type": "node", "id": 8462527257, "lat": 50.9949076, "lon": 6.9906931}, {"type": "node", "id": 8462527258, "lat": 50.9949176, "lon": 6.990779}, {"type": "node", "id": 8462527259, "lat": 50.9952682, "lon": 6.9906793}, {"type": "node", "id": 8462527260, "lat": 50.9952385, "lon": 6.9904219}, {"type": "node", "id": 8639798169, "lat": 50.9857966, "lon": 6.997915}, {"type": "node", "id": 8639798170, "lat": 50.9854687, "lon": 6.9973275}, {"type": "node", "id": 8639798171, "lat": 50.985493, "lon": 6.9972951}, {"type": "node", "id": 8639798172, "lat": 50.9854601, "lon": 6.997236}, {"type": "node", "id": 8639798173, "lat": 50.9855322, "lon": 6.997137}, {"type": "node", "id": 8639798174, "lat": 50.9855612, "lon": 6.9971887}, {"type": "node", "id": 8639798175, "lat": 50.9855953, "lon": 6.9971426}, {"type": "node", "id": 8639798176, "lat": 50.9857312, "lon": 6.997386}, {"type": "node", "id": 8639798177, "lat": 50.9857818, "lon": 6.9973922}, {"type": "node", "id": 8639798178, "lat": 50.9858006, "lon": 6.9973664}, {"type": "node", "id": 8639798179, "lat": 50.9858188, "lon": 6.9973987}, {"type": "node", "id": 8639798180, "lat": 50.9858319, "lon": 6.9973822}, {"type": "node", "id": 8639798181, "lat": 50.9859818, "lon": 6.9976502}, {"type": "node", "id": 8639798182, "lat": 50.9859506, "lon": 6.997691}, {"type": "node", "id": 8639798183, "lat": 50.9859804, "lon": 6.9977426}, {"type": "node", "id": 8639798184, "lat": 50.9858507, "lon": 6.9979337}, {"type": "node", "id": 8830445180, "lat": 50.9933402, "lon": 6.9924125}, {"type": "node", "id": 8830445181, "lat": 50.9933216, "lon": 6.9923922}, {"type": "node", "id": 8830445182, "lat": 50.9933122, "lon": 6.9923762}, {"type": "node", "id": 9029378976, "lat": 50.986367, "lon": 6.9934174}, {"type": "node", "id": 9029378977, "lat": 50.9862415, "lon": 6.9934558}, {"type": "node", "id": 9029378978, "lat": 50.9863548, "lon": 6.9936368}, {"type": "node", "id": 9029378979, "lat": 50.9864834, "lon": 6.9934282}, {"type": "node", "id": 9029399055, "lat": 50.9838376, "lon": 7.0026293}, {"type": "node", "id": 9029399056, "lat": 50.984018, "lon": 7.0026318}, {"type": "node", "id": 9029399057, "lat": 50.9840175, "lon": 7.0027116}, {"type": "node", "id": 9029399058, "lat": 50.9838372, "lon": 7.0027091}, {"type": "node", "id": 9029399059, "lat": 50.9836167, "lon": 7.0018906}, {"type": "node", "id": 9029399060, "lat": 50.9836334, "lon": 7.0020531}, {"type": "node", "id": 9029399061, "lat": 50.9835875, "lon": 7.002065}, {"type": "node", "id": 9029399062, "lat": 50.9835708, "lon": 7.0019025}, {"type": "node", "id": 9029462681, "lat": 50.9811715, "lon": 7.0041299}, {"type": "node", "id": 9029462682, "lat": 50.9808297, "lon": 7.00397}, {"type": "node", "id": 9029462683, "lat": 50.9813779, "lon": 7.0040885}, {"type": "node", "id": 9029462684, "lat": 50.9813843, "lon": 7.0041488}, {"type": "node", "id": 9029462685, "lat": 50.9805459, "lon": 7.0043604}, {"type": "node", "id": 9338292794, "lat": 50.9949243, "lon": 6.9916551}, {"type": "node", "id": 9338292795, "lat": 50.9949703, "lon": 6.9918779}, {"type": "node", "id": 9338292796, "lat": 50.9949853, "lon": 6.9918701}, {"type": "node", "id": 9338292797, "lat": 50.9949393, "lon": 6.9916473}, {"type": "node", "id": 9338292798, "lat": 50.9948387, "lon": 6.9909456}, {"type": "node", "id": 9338292799, "lat": 50.9949328, "lon": 6.991419}, {"type": "node", "id": 9338292800, "lat": 50.9949182, "lon": 6.9914264}, {"type": "node", "id": 9338292801, "lat": 50.9948241, "lon": 6.990953}, {"type": "node", "id": 9338292802, "lat": 50.9946058, "lon": 6.9900885}, {"type": "node", "id": 9338292803, "lat": 50.9947472, "lon": 6.9907815}, {"type": "node", "id": 9338292804, "lat": 50.9947617, "lon": 6.990774}, {"type": "node", "id": 9338292805, "lat": 50.9946204, "lon": 6.990081}, {"type": "node", "id": 9338292806, "lat": 50.9944536, "lon": 6.9890608}, {"type": "node", "id": 9338292807, "lat": 50.9946205, "lon": 6.9898829}, {"type": "node", "id": 9338292808, "lat": 50.9946063, "lon": 6.9898902}, {"type": "node", "id": 9338292809, "lat": 50.9944394, "lon": 6.989068}, {"type": "node", "id": 9548456234, "lat": 50.9840368, "lon": 7.0071509}, {"type": "node", "id": 9548456235, "lat": 50.9839283, "lon": 7.0072224}, {"type": "node", "id": 9548456236, "lat": 50.9839351, "lon": 7.0072483}, {"type": "node", "id": 9548456237, "lat": 50.9840435, "lon": 7.0071767}, {"type": "node", "id": 9548456238, "lat": 50.9838307, "lon": 7.0073842}, {"type": "node", "id": 9548456239, "lat": 50.9837197, "lon": 7.007484}, {"type": "node", "id": 9548456240, "lat": 50.9837119, "lon": 7.007462}, {"type": "node", "id": 9548456241, "lat": 50.9838229, "lon": 7.0073622}, {"type": "node", "id": 9548456242, "lat": 50.9835749, "lon": 7.0075383}, {"type": "node", "id": 9548456243, "lat": 50.9834673, "lon": 7.0076613}, {"type": "node", "id": 9548456244, "lat": 50.9834778, "lon": 7.0076844}, {"type": "node", "id": 9548456245, "lat": 50.9835854, "lon": 7.0075614}, {"type": "node", "id": 9548456246, "lat": 50.983302, "lon": 7.0078732}, {"type": "node", "id": 9548456247, "lat": 50.9832406, "lon": 7.0079538}, {"type": "node", "id": 9548456248, "lat": 50.9832514, "lon": 7.0079747}, {"type": "node", "id": 9548456249, "lat": 50.9833128, "lon": 7.007894}, {"type": "node", "id": 9548456250, "lat": 50.9831895, "lon": 7.0080216}, {"type": "node", "id": 9548456251, "lat": 50.983092, "lon": 7.0081479}, {"type": "node", "id": 9548456252, "lat": 50.9831022, "lon": 7.0081679}, {"type": "node", "id": 9548456253, "lat": 50.9831998, "lon": 7.0080417}, {"type": "node", "id": 9733468089, "lat": 50.9943129, "lon": 6.9733314, "tags": {"amenity": "waste_basket", "colour": "green", "material": "metal", "operator": "AWB K\u00f6ln", "waste": "trash"}}, {"type": "node", "id": 9733468090, "lat": 50.9932277, "lon": 6.974103, "tags": {"amenity": "waste_basket", "colour": "green", "material": "metal", "operator": "AWB K\u00f6ln", "waste": "trash"}}, {"type": "node", "id": 9938105549, "lat": 50.9961176, "lon": 6.979056}, {"type": "node", "id": 9938105550, "lat": 50.9960919, "lon": 6.979093}, {"type": "node", "id": 9938105551, "lat": 50.9961035, "lon": 6.9790728}, {"type": "node", "id": 9938105552, "lat": 50.996132, "lon": 6.9790452}, {"type": "node", "id": 9938105553, "lat": 50.996083, "lon": 6.9791217}, {"type": "node", "id": 9938105554, "lat": 50.9960489, "lon": 6.9790525}, {"type": "node", "id": 9938105555, "lat": 50.9961021, "lon": 6.978985}, {"type": "node", "id": 9938111780, "lat": 50.9963563, "lon": 6.9904833}, {"type": "node", "id": 9939794898, "lat": 50.9866108, "lon": 6.9914329}, {"type": "node", "id": 9939794899, "lat": 50.9864216, "lon": 6.9916371}, {"type": "node", "id": 9939794900, "lat": 50.9864115, "lon": 6.9916135}, {"type": "node", "id": 9939794901, "lat": 50.9866007, "lon": 6.9914093}, {"type": "node", "id": 9939794902, "lat": 50.9868467, "lon": 6.9911791}, {"type": "node", "id": 9939794903, "lat": 50.9866252, "lon": 6.9914165}, {"type": "node", "id": 9939794904, "lat": 50.9866153, "lon": 6.9913934}, {"type": "node", "id": 9939794905, "lat": 50.9868369, "lon": 6.991156}, {"type": "node", "id": 9939794906, "lat": 50.9867084, "lon": 6.9915125}, {"type": "node", "id": 9939794907, "lat": 50.9865326, "lon": 6.9916999}, {"type": "node", "id": 9939794908, "lat": 50.9864719, "lon": 6.9916894}, {"type": "node", "id": 9939794909, "lat": 50.9866537, "lon": 6.9914948}, {"type": "node", "id": 9939794910, "lat": 50.9868458, "lon": 6.991286}, {"type": "node", "id": 9939794911, "lat": 50.9866809, "lon": 6.9914639}, {"type": "node", "id": 9939794912, "lat": 50.9867376, "lon": 6.9914811}, {"type": "node", "id": 9939794913, "lat": 50.9868887, "lon": 6.9913183}, {"type": "node", "id": 9939794914, "lat": 50.9873411, "lon": 6.9905884}, {"type": "node", "id": 9939794915, "lat": 50.9873305, "lon": 6.9905648}, {"type": "node", "id": 9939794916, "lat": 50.987366, "lon": 6.9905584}, {"type": "node", "id": 9939881217, "lat": 50.9873562, "lon": 6.9905348}, {"type": "node", "id": 9939881218, "lat": 50.9870195, "lon": 6.9909621}, {"type": "node", "id": 9939881219, "lat": 50.987653, "lon": 6.9902267}, {"type": "node", "id": 9939881220, "lat": 50.9876422, "lon": 6.9902032}, {"type": "node", "id": 9939881221, "lat": 50.9870087, "lon": 6.9909386}, {"type": "node", "id": 9939881237, "lat": 50.9870253, "lon": 6.99106}, {"type": "node", "id": 9939881238, "lat": 50.9872013, "lon": 6.9908549}, {"type": "node", "id": 9939881239, "lat": 50.9872552, "lon": 6.990854}, {"type": "node", "id": 9939881240, "lat": 50.9872595, "lon": 6.9908663}, {"type": "node", "id": 9939881241, "lat": 50.9870831, "lon": 6.9910705}, {"type": "node", "id": 9939881242, "lat": 50.9874604, "lon": 6.9906366}, {"type": "node", "id": 9939881243, "lat": 50.9873654, "lon": 6.990748}, {"type": "node", "id": 9939881244, "lat": 50.9873073, "lon": 6.9907335}, {"type": "node", "id": 9939881245, "lat": 50.9874057, "lon": 6.9906203}, {"type": "node", "id": 9939881246, "lat": 50.9875294, "lon": 6.9904775}, {"type": "node", "id": 9939881247, "lat": 50.9874307, "lon": 6.9905916}, {"type": "node", "id": 9939881248, "lat": 50.9874862, "lon": 6.9906066}, {"type": "node", "id": 9939881249, "lat": 50.9875852, "lon": 6.9904925}, {"type": "node", "id": 9939882636, "lat": 50.9852688, "lon": 6.9927145}, {"type": "node", "id": 9939882637, "lat": 50.9850233, "lon": 6.9930453}, {"type": "node", "id": 9939882638, "lat": 50.9851306, "lon": 6.9932463}, {"type": "node", "id": 9939882639, "lat": 50.9853761, "lon": 6.9929155}, {"type": "node", "id": 9939882640, "lat": 50.9847705, "lon": 6.9926489}, {"type": "node", "id": 9939882641, "lat": 50.9849021, "lon": 6.9928918}, {"type": "node", "id": 9939882642, "lat": 50.9848648, "lon": 6.9929428}, {"type": "node", "id": 9939882643, "lat": 50.9847332, "lon": 6.9926999}, {"type": "node", "id": 9939882644, "lat": 50.9842956, "lon": 6.9917902}, {"type": "node", "id": 9939882645, "lat": 50.9844421, "lon": 6.9920585}, {"type": "node", "id": 9939882646, "lat": 50.984406, "lon": 6.9921081}, {"type": "node", "id": 9939882647, "lat": 50.9842596, "lon": 6.9918398}, {"type": "node", "id": 9939882648, "lat": 50.9842868, "lon": 6.9920688}, {"type": "node", "id": 9939882649, "lat": 50.9843836, "lon": 6.9922505}, {"type": "node", "id": 9939882650, "lat": 50.9843504, "lon": 6.9922953}, {"type": "node", "id": 9939882651, "lat": 50.9842535, "lon": 6.9921136}, {"type": "node", "id": 9939882652, "lat": 50.9844133, "lon": 6.992299}, {"type": "node", "id": 9939882653, "lat": 50.9845994, "lon": 6.9926376}, {"type": "node", "id": 9939882654, "lat": 50.9845662, "lon": 6.9926835}, {"type": "node", "id": 9939882655, "lat": 50.9843801, "lon": 6.9923449}, {"type": "node", "id": 9939882656, "lat": 50.9847062, "lon": 6.9929397}, {"type": "node", "id": 9939882657, "lat": 50.9848965, "lon": 6.9932874}, {"type": "node", "id": 9939882658, "lat": 50.9849311, "lon": 6.9932396}, {"type": "node", "id": 9939882659, "lat": 50.9847408, "lon": 6.9928919}, {"type": "node", "id": 9939882660, "lat": 50.9854917, "lon": 6.9939366}, {"type": "node", "id": 9939882661, "lat": 50.9855375, "lon": 6.9940219}, {"type": "node", "id": 9939882662, "lat": 50.9854991, "lon": 6.994074}, {"type": "node", "id": 9939882663, "lat": 50.9854533, "lon": 6.9939887}, {"type": "node", "id": 9939882664, "lat": 50.9853217, "lon": 6.9939728}, {"type": "node", "id": 9939882665, "lat": 50.9853124, "lon": 6.9940539}, {"type": "node", "id": 9939882666, "lat": 50.985192, "lon": 6.9938366}, {"type": "node", "id": 9939882667, "lat": 50.9851994, "lon": 6.9937477}, {"type": "node", "id": 9939882668, "lat": 50.9853616, "lon": 6.9941599}, {"type": "node", "id": 9939882669, "lat": 50.9859591, "lon": 6.9952447}, {"type": "node", "id": 9939882670, "lat": 50.9860288, "lon": 6.9952554}, {"type": "node", "id": 9939882671, "lat": 50.9853578, "lon": 6.9940367}, {"type": "node", "id": 9939882672, "lat": 50.9857685, "lon": 6.9944513}, {"type": "node", "id": 9939882673, "lat": 50.9856208, "lon": 6.9941821}, {"type": "node", "id": 9939882674, "lat": 50.985583, "lon": 6.9942345}, {"type": "node", "id": 9939882675, "lat": 50.9857307, "lon": 6.9945036}, {"type": "node", "id": 9939882676, "lat": 50.9858605, "lon": 6.9946107}, {"type": "node", "id": 9939882677, "lat": 50.9860078, "lon": 6.9948805}, {"type": "node", "id": 9939882678, "lat": 50.9859709, "lon": 6.9949313}, {"type": "node", "id": 9939882679, "lat": 50.9858236, "lon": 6.9946615}, {"type": "node", "id": 9939882680, "lat": 50.9857221, "lon": 6.9945264}, {"type": "node", "id": 9939882681, "lat": 50.985779, "lon": 6.9946341}, {"type": "node", "id": 9939882682, "lat": 50.9857675, "lon": 6.9946493}, {"type": "node", "id": 9939882683, "lat": 50.9857106, "lon": 6.9945417}, {"type": "node", "id": 9939882684, "lat": 50.9859618, "lon": 6.9949576}, {"type": "node", "id": 9939882685, "lat": 50.9860186, "lon": 6.9950641}, {"type": "node", "id": 9939882686, "lat": 50.9860055, "lon": 6.9950818}, {"type": "node", "id": 9939882687, "lat": 50.9859486, "lon": 6.9949753}, {"type": "node", "id": 9939882688, "lat": 50.9861396, "lon": 6.9951223}, {"type": "node", "id": 9939882689, "lat": 50.9861473, "lon": 6.9952619}, {"type": "node", "id": 9939882690, "lat": 50.9861043, "lon": 6.9951779}, {"type": "node", "id": 9939882691, "lat": 50.9862285, "lon": 6.9953256}, {"type": "node", "id": 9939882692, "lat": 50.9860955, "lon": 6.9950436}, {"type": "node", "id": 9939882693, "lat": 50.9860572, "lon": 6.9950951}, {"type": "node", "id": 9939882694, "lat": 50.9861935, "lon": 6.9953753}, {"type": "node", "id": 9939882695, "lat": 50.9862573, "lon": 6.9955716}, {"type": "node", "id": 9939882696, "lat": 50.9863138, "lon": 6.9957876}, {"type": "node", "id": 9939882697, "lat": 50.9863488, "lon": 6.9957372}, {"type": "node", "id": 9939882698, "lat": 50.9862956, "lon": 6.9955172}, {"type": "node", "id": 9939882699, "lat": 50.9865463, "lon": 6.9973264}, {"type": "node", "id": 9939882700, "lat": 50.9865321, "lon": 6.997177}, {"type": "node", "id": 9939882701, "lat": 50.9865912, "lon": 6.9973119}, {"type": "node", "id": 9939882702, "lat": 50.9865777, "lon": 6.997166}, {"type": "node", "id": 9939882703, "lat": 50.9865616, "lon": 6.9970323}, {"type": "node", "id": 9939882704, "lat": 50.9866003, "lon": 6.9974758}, {"type": "node", "id": 9939882705, "lat": 50.9865547, "lon": 6.997481}, {"type": "node", "id": 9939882706, "lat": 50.9865183, "lon": 6.9970439}, {"type": "node", "id": 9939882707, "lat": 50.9865234, "lon": 6.9965767}, {"type": "node", "id": 9939882708, "lat": 50.9864727, "lon": 6.9965871}, {"type": "node", "id": 9939882709, "lat": 50.986492, "lon": 6.9963833}, {"type": "node", "id": 9939882710, "lat": 50.9864392, "lon": 6.996385}, {"type": "node", "id": 9939882711, "lat": 50.9864217, "lon": 6.9960365}, {"type": "node", "id": 9939882712, "lat": 50.9865496, "lon": 6.9967602}, {"type": "node", "id": 9939882713, "lat": 50.9865015, "lon": 6.996781}, {"type": "node", "id": 9939882714, "lat": 50.9863743, "lon": 6.9960585}, {"type": "node", "id": 9939882715, "lat": 50.9863012, "lon": 6.9958188}, {"type": "node", "id": 9939882716, "lat": 50.9863369, "lon": 6.9959792}, {"type": "node", "id": 9939909417, "lat": 50.9863215, "lon": 6.9959879}, {"type": "node", "id": 9939909418, "lat": 50.9862858, "lon": 6.9958275}, {"type": "node", "id": 9939909419, "lat": 50.986398, "lon": 6.997976}, {"type": "node", "id": 9939909420, "lat": 50.9864224, "lon": 6.9979123}, {"type": "node", "id": 9939909421, "lat": 50.9864421, "lon": 6.9978521}, {"type": "node", "id": 9939909422, "lat": 50.9864567, "lon": 6.9977913}, {"type": "node", "id": 9939909423, "lat": 50.9864108, "lon": 6.9979939}, {"type": "node", "id": 9939909424, "lat": 50.9864341, "lon": 6.9979314}, {"type": "node", "id": 9939909425, "lat": 50.986457, "lon": 6.9978602}, {"type": "node", "id": 9939909426, "lat": 50.9864724, "lon": 6.9977919}, {"type": "node", "id": 9939909427, "lat": 50.9864702, "lon": 6.9977091}, {"type": "node", "id": 9939909428, "lat": 50.9863667, "lon": 6.9980466}, {"type": "node", "id": 9939909429, "lat": 50.9863801, "lon": 6.9980623}, {"type": "node", "id": 9939909430, "lat": 50.9864855, "lon": 6.9977143}, {"type": "node", "id": 9939909431, "lat": 50.986242, "lon": 6.9982748}, {"type": "node", "id": 9939909432, "lat": 50.9863123, "lon": 6.9981422}, {"type": "node", "id": 9939909433, "lat": 50.9863269, "lon": 6.9981618}, {"type": "node", "id": 9939909434, "lat": 50.9862566, "lon": 6.9982944}, {"type": "node", "id": 9939909435, "lat": 50.9864988, "lon": 6.9979534}, {"type": "node", "id": 9939909436, "lat": 50.9865411, "lon": 6.9977531}, {"type": "node", "id": 9939909437, "lat": 50.9865802, "lon": 6.9977739}, {"type": "node", "id": 9939909438, "lat": 50.986538, "lon": 6.9979743}, {"type": "node", "id": 9939909439, "lat": 50.9879568, "lon": 6.9968698}, {"type": "node", "id": 9939909440, "lat": 50.9878978, "lon": 6.9965972}, {"type": "node", "id": 9939909441, "lat": 50.9878605, "lon": 6.9966166}, {"type": "node", "id": 9939909442, "lat": 50.9879214, "lon": 6.996891}, {"type": "node", "id": 9939930362, "lat": 50.9829735, "lon": 6.9930648}, {"type": "node", "id": 9939930363, "lat": 50.9829363, "lon": 6.993155}, {"type": "node", "id": 9939930364, "lat": 50.9829016, "lon": 6.993119}, {"type": "node", "id": 9939930365, "lat": 50.9829387, "lon": 6.9930287}, {"type": "node", "id": 9939930366, "lat": 50.9829865, "lon": 6.9929194}, {"type": "node", "id": 9939930367, "lat": 50.9829485, "lon": 6.9930083}, {"type": "node", "id": 9939930368, "lat": 50.9829819, "lon": 6.9930443}, {"type": "node", "id": 9939930369, "lat": 50.9830199, "lon": 6.9929555}, {"type": "node", "id": 9939930370, "lat": 50.9830433, "lon": 6.9927805}, {"type": "node", "id": 9939930371, "lat": 50.9830818, "lon": 6.992693}, {"type": "node", "id": 9939930372, "lat": 50.983116, "lon": 6.9927309}, {"type": "node", "id": 9939930373, "lat": 50.9830775, "lon": 6.9928184}, {"type": "node", "id": 9939930374, "lat": 50.9830334, "lon": 6.9928055}, {"type": "node", "id": 9939930375, "lat": 50.9829971, "lon": 6.9928944}, {"type": "node", "id": 9939930376, "lat": 50.9830314, "lon": 6.9929297}, {"type": "node", "id": 9939930377, "lat": 50.9830677, "lon": 6.9928408}, {"type": "node", "id": 9939930378, "lat": 50.9831221, "lon": 6.9928664}, {"type": "node", "id": 9939930379, "lat": 50.9831601, "lon": 6.9927749}, {"type": "node", "id": 9939930380, "lat": 50.9831933, "lon": 6.9928096}, {"type": "node", "id": 9939930381, "lat": 50.9831552, "lon": 6.9929012}, {"type": "node", "id": 9939930382, "lat": 50.9830748, "lon": 6.9929785}, {"type": "node", "id": 9939930383, "lat": 50.9831111, "lon": 6.9928917}, {"type": "node", "id": 9939930384, "lat": 50.9831459, "lon": 6.9929283}, {"type": "node", "id": 9939930385, "lat": 50.9831096, "lon": 6.9930152}, {"type": "node", "id": 9939930387, "lat": 50.9838003, "lon": 6.9943034}, {"type": "node", "id": 9939930388, "lat": 50.9837652, "lon": 6.9942087}, {"type": "node", "id": 9939930389, "lat": 50.9837803, "lon": 6.9943151}, {"type": "node", "id": 9939930390, "lat": 50.9837484, "lon": 6.9942288}, {"type": "node", "id": 9939930391, "lat": 50.9838986, "lon": 6.9945147}, {"type": "node", "id": 9939930392, "lat": 50.9838762, "lon": 6.9945303}, {"type": "node", "id": 9939930393, "lat": 50.9838427, "lon": 6.9944039}, {"type": "node", "id": 9939930394, "lat": 50.9838239, "lon": 6.9944175}, {"type": "node", "id": 9939930395, "lat": 50.9836974, "lon": 6.9940707}, {"type": "node", "id": 9939930396, "lat": 50.9840039, "lon": 6.9947585}, {"type": "node", "id": 9939930397, "lat": 50.9840203, "lon": 6.9947364}, {"type": "node", "id": 9939930398, "lat": 50.9837166, "lon": 6.994057}, {"type": "node", "id": 9939930402, "lat": 50.9836436, "lon": 6.993836}, {"type": "node", "id": 9939930403, "lat": 50.9836619, "lon": 6.9938279}, {"type": "node", "id": 9939930404, "lat": 50.9836108, "lon": 6.993448}, {"type": "node", "id": 9939930405, "lat": 50.9836426, "lon": 6.9936976}, {"type": "node", "id": 9939930406, "lat": 50.9836215, "lon": 6.9937044}, {"type": "node", "id": 9939930407, "lat": 50.9835897, "lon": 6.9934548}, {"type": "node", "id": 9939930408, "lat": 50.9835535, "lon": 6.9929609}, {"type": "node", "id": 9939930409, "lat": 50.983609, "lon": 6.9934134}, {"type": "node", "id": 9939930410, "lat": 50.9835885, "lon": 6.9934198}, {"type": "node", "id": 9939930411, "lat": 50.983533, "lon": 6.9929673}, {"type": "node", "id": 9939930413, "lat": 50.9841644, "lon": 6.99325}, {"type": "node", "id": 9939930414, "lat": 50.9843751, "lon": 6.9929749}, {"type": "node", "id": 9939930415, "lat": 50.9843857, "lon": 6.9929954}, {"type": "node", "id": 9939930416, "lat": 50.9841751, "lon": 6.9932705}, {"type": "node", "id": 9939936617, "lat": 50.9839026, "lon": 6.9935953}, {"type": "node", "id": 9939936618, "lat": 50.9841097, "lon": 6.993322}, {"type": "node", "id": 9939936619, "lat": 50.9841216, "lon": 6.9933449}, {"type": "node", "id": 9939936620, "lat": 50.9839145, "lon": 6.9936181}, {"type": "node", "id": 9939936621, "lat": 50.9838148, "lon": 6.9938497}, {"type": "node", "id": 9939936622, "lat": 50.9837286, "lon": 6.9939631}, {"type": "node", "id": 9939936623, "lat": 50.9837425, "lon": 6.9939898}, {"type": "node", "id": 9939936624, "lat": 50.9838287, "lon": 6.9938765}, {"type": "node", "id": 9939936625, "lat": 50.9839719, "lon": 6.9937303}, {"type": "node", "id": 9939936626, "lat": 50.9840605, "lon": 6.9936156}, {"type": "node", "id": 9939936627, "lat": 50.9840366, "lon": 6.9935691}, {"type": "node", "id": 9939936628, "lat": 50.9839481, "lon": 6.9936838}, {"type": "node", "id": 9939936629, "lat": 50.9841933, "lon": 6.9934405}, {"type": "node", "id": 9939936630, "lat": 50.9840775, "lon": 6.9935904}, {"type": "node", "id": 9939936631, "lat": 50.9840542, "lon": 6.993545}, {"type": "node", "id": 9939936632, "lat": 50.98417, "lon": 6.993395}, {"type": "node", "id": 9939936633, "lat": 50.9843847, "lon": 6.9931877}, {"type": "node", "id": 9939936634, "lat": 50.9842337, "lon": 6.9933822}, {"type": "node", "id": 9939936635, "lat": 50.9842102, "lon": 6.9933362}, {"type": "node", "id": 9939936636, "lat": 50.9843611, "lon": 6.9931416}, {"type": "node", "id": 9939936637, "lat": 50.9845997, "lon": 6.9928126}, {"type": "node", "id": 9939936638, "lat": 50.9844963, "lon": 6.9929507}, {"type": "node", "id": 9939936639, "lat": 50.9845082, "lon": 6.9929731}, {"type": "node", "id": 9939936640, "lat": 50.9846115, "lon": 6.9928349}, {"type": "node", "id": 9943561061, "lat": 50.9920958, "lon": 6.9749203, "tags": {"amenity": "waste_basket", "colour": "green", "material": "metal", "operator": "AWB K\u00f6ln", "waste": "trash"}}, {"type": "node", "id": 10738106019, "lat": 50.9834305, "lon": 6.9926151}, {"type": "node", "id": 10738106020, "lat": 50.9834839, "lon": 6.9930216}, {"type": "node", "id": 10738106021, "lat": 50.9834364, "lon": 6.9930374}, {"type": "node", "id": 10738106022, "lat": 50.9833829, "lon": 6.9926309}, {"type": "node", "id": 10738106024, "lat": 50.9829877, "lon": 6.9936089}, {"type": "node", "id": 10738106025, "lat": 50.9828743, "lon": 6.9937707}, {"type": "node", "id": 10738106026, "lat": 50.9828852, "lon": 6.99379}, {"type": "node", "id": 10738106027, "lat": 50.9829987, "lon": 6.9936282}, {"type": "node", "id": 10738106028, "lat": 50.9832518, "lon": 6.9933323}, {"type": "node", "id": 10738106029, "lat": 50.9831467, "lon": 6.9934787}, {"type": "node", "id": 10738106030, "lat": 50.9831354, "lon": 6.9934583}, {"type": "node", "id": 10738106031, "lat": 50.9832405, "lon": 6.9933119}, {"type": "node", "id": 10738106032, "lat": 50.983284, "lon": 6.9931762}, {"type": "node", "id": 10738106033, "lat": 50.983341, "lon": 6.9930968}, {"type": "node", "id": 10738106034, "lat": 50.9833521, "lon": 6.9931168}, {"type": "node", "id": 10738106035, "lat": 50.9832951, "lon": 6.9931962}, {"type": "node", "id": 10738106043, "lat": 50.9836474, "lon": 6.9923385}, {"type": "node", "id": 10738106044, "lat": 50.9836918, "lon": 6.992292}, {"type": "node", "id": 10738106045, "lat": 50.9839645, "lon": 6.9921908}, {"type": "node", "id": 10738106046, "lat": 50.9840107, "lon": 6.9922744}, {"type": "node", "id": 10738106047, "lat": 50.9837067, "lon": 6.9926722}, {"type": "node", "id": 10738106048, "lat": 50.9835744, "lon": 6.9924258}, {"type": "node", "id": 10738207210, "lat": 50.9861514, "lon": 6.9955465}, {"type": "node", "id": 10738207211, "lat": 50.9861168, "lon": 6.9954469}, {"type": "node", "id": 10738207212, "lat": 50.986078, "lon": 6.9953513}, {"type": "node", "id": 10738207213, "lat": 50.986163, "lon": 6.9955242}, {"type": "node", "id": 10738207214, "lat": 50.9861315, "lon": 6.9954339}, {"type": "node", "id": 10738207215, "lat": 50.9860983, "lon": 6.9953513}, {"type": "node", "id": 10738207216, "lat": 50.9860392, "lon": 6.9952745}, {"type": "node", "id": 10738207217, "lat": 50.9861765, "lon": 6.9956376}, {"type": "node", "id": 10738207218, "lat": 50.9861939, "lon": 6.9956291}, {"type": "node", "id": 10738207219, "lat": 50.986053, "lon": 6.9952561}, {"type": "node", "id": 10738207226, "lat": 50.9861365, "lon": 6.9956532}, {"type": "node", "id": 10738207227, "lat": 50.9860009, "lon": 6.9958495}, {"type": "node", "id": 10738207228, "lat": 50.986033, "lon": 6.9959053}, {"type": "node", "id": 10738207229, "lat": 50.9861685, "lon": 6.995709}, {"type": "node", "id": 10738207230, "lat": 50.9862203, "lon": 6.995886}, {"type": "node", "id": 10738207231, "lat": 50.9861893, "lon": 6.9959302}, {"type": "node", "id": 10738207232, "lat": 50.9861542, "lon": 6.9958681}, {"type": "node", "id": 10738207233, "lat": 50.9862004, "lon": 6.9958025}, {"type": "way", "id": 24300678, "nodes": [3378210693, 3378210550, 3378210956, 3378211008, 3378210822, 3378210896, 3378210152, 3378210313, 3378210076, 3378205653, 3378205648, 3378205667, 3378210309, 3378210535, 3378210693]}, {"type": "way", "id": 28865846, "nodes": [3378457067, 3378457040, 3378456798, 3378456701, 3378456693, 3378456568, 3378456820, 3378457032, 3378457067], "tags": {"amenity": "place_of_worship", "building": "church", "denomination": "catholic", "name": "St. Johannes der Evangelist", "religion": "christian", "wheelchair": "yes", "wikidata": "Q26694132"}}, {"type": "way", "id": 28870737, "nodes": [3378053636, 3378052864, 3378052834, 3378052054, 3378053636], "tags": {"addr:city": "K\u00f6ln", "addr:country": "DE", "addr:housenumber": "3", "addr:postcode": "51061", "addr:street": "Ren\u00e9-Bohn-Stra\u00dfe", "amenity": "place_of_worship", "building": "church", "building:use": "religious", "denomination": "catholic", "name": "St. Pius X", "religion": "christian", "wikidata": "Q62588235", "wikipedia": "de:St. Pius X. (K\u00f6ln)"}}, {"type": "way", "id": 30054855, "nodes": [263255209, 3378210325, 3378210326, 3378210328, 3378210330, 3378210335, 3378210338, 3378210342, 3378210344, 3378210345, 3378210343, 3378210339, 3378210337, 3378210334, 3378210331, 3378210327, 3378210323, 3378210320, 263255208, 263255207, 263255141, 263255209]}, {"type": "way", "id": 30132217, "nodes": [332046237, 332046238, 4200385812, 332046239, 332046240, 332046241, 332046243, 332046244, 1753029136, 332046245, 1753029166, 332046246, 332046237], "tags": {"amenity": "parking", "parking": "surface", "source": "Yahoo"}}, {"type": "way", "id": 30132282, "nodes": [3431990391, 332046934, 332046938, 1465595701, 332046939, 3431990701, 3431990391], "tags": {"amenity": "funeral_hall", "building": "yes", "name": "Trauerhalle"}}, {"type": "way", "id": 30627436, "nodes": [338750508, 338750509, 5581911419, 5581911418, 338750510, 3215649840, 338750511, 338750512, 338750508], "tags": {"amenity": "parking", "name": "S-Bahn Parkplatz", "park_ride": "yes", "parking": "surface", "wheelchair": "yes", "wheelchair:description": "kein WC"}}, {"type": "way", "id": 32270253, "nodes": [3378209814, 3378210914, 3378210908, 3378210907, 3378209813, 3378209822, 3378209823, 3378209815, 3378209812, 3378209820, 3378209817, 3378210916, 3378210899, 3378210898, 3378210894, 3378210392, 3378210391, 3378210895, 3378210388, 3378210386, 3378210371, 3378210370, 3378210353, 3378210356, 3378210798, 3378210796, 3378210090, 3378210092, 3378210192, 3378210191, 3378210184, 3378210187, 3378210167, 3378210165, 3378210161, 3378210163, 3378210533, 3378210528, 3378210532, 3378210530, 3378210525, 3378210516, 3378210521, 3378210514, 3378210513, 3378210505, 3378210502, 3378210496, 3378210506, 3378210497, 3378205690, 3378205691, 3378210498, 3378210501, 3378210495, 3378210494, 3378205680, 3378205673, 3378205670, 3378205674, 3378205683, 3378205675, 3378205678, 3378210347, 3378210348, 3378210341, 3378205669, 3378205677, 3378205681, 3378205689, 3378210493, 3378205688, 3378205692, 3378210500, 3378210515, 3378210519, 3378210524, 3378210523, 3378210547, 3378210157, 3378210159, 3378210158, 3378210175, 3378210177, 3378210182, 3378210180, 3378210553, 3378210554, 3378210556, 3378210555, 3378210807, 3378210808, 3378210813, 3378210814, 3378210809, 3378210812, 3378210815, 3378210354, 3378210352, 3378210358, 3378210359, 3378210372, 3378210375, 3378210377, 3378210374, 3378210383, 3378210389, 3378210390, 3378209811, 3378209818, 3378209814], "tags": {"addr:city": "K\u00f6ln", "addr:country": "DE", "addr:housenumber": "65", "addr:postcode": "51061", "addr:street": "Stammheimer Hauptstra\u00dfe", "amenity": "place_of_worship", "building": "church", "building:use": "religious", "denomination": "catholic", "name": "St. Mari\u00e4 Geburt", "religion": "christian", "wikidata": "Q11722127"}}, {"type": "way", "id": 152100362, "nodes": [1649252184, 1649252186, 1649293602, 1649252190, 1649293604, 1649252200, 1649252197, 1649252189, 1649252188, 1649252180, 1649252175, 1649252184], "tags": {"access": "customers", "amenity": "parking", "parking": "surface", "wheelchair": "yes", "wheelchair:description": "kein WC"}}, {"type": "way", "id": 163694359, "nodes": [3378214169, 3378213454, 3378214165, 3378213464, 3378214693, 3378214169], "tags": {"amenity": "funeral_hall", "building": "yes", "name": "Trauerhalle", "source": "HiRes aerial imagery"}}, {"type": "way", "id": 163694366, "nodes": [8290879979, 8290879980, 8290879981, 1753743375, 1753743371, 6571279665, 1753743332, 1753743326, 3430870069, 3430870059, 3430870062, 8290879978, 8290879975, 8290879976, 8290879979], "tags": {"access": "customers", "amenity": "parking", "parking": "surface", "wheelchair": "yes"}}, {"type": "way", "id": 195441472, "nodes": [2058918016, 2058918021, 8243378812, 8243378813, 2058918016], "tags": {"access": "private", "amenity": "parking", "parking": "street_side", "parking:orientation": "perpendicular"}}, {"type": "way", "id": 284658396, "nodes": [2883810031, 2883810018, 2883810032, 8263993392, 8263993393, 8263993391, 8264082870, 2883810031], "tags": {"addr:city": "K\u00f6ln", "addr:country": "DE", "addr:housenumber": "24", "addr:postcode": "51063", "addr:street": "Wiesdorfer Stra\u00dfe", "amenity": "kindergarten", "name": "Kindertagesst\u00e4tte"}}, {"type": "way", "id": 296844969, "nodes": [3006615658, 3006615591, 3006615537, 3006615574, 3006615611, 3006615658], "tags": {"addr:city": "K\u00f6ln", "addr:country": "DE", "addr:housenumber": "25a", "addr:postcode": "51063", "addr:street": "Haslacher Weg", "amenity": "restaurant", "building": "yes", "building:levels": "2", "building:use": "residential;industrial", "cuisine": "regional", "name": "Haus Pauly"}}, {"type": "way", "id": 296845567, "nodes": [3006616365, 3006616301, 3006616318, 3006616290, 3006616298, 3006616385, 3006616365], "tags": {"addr:city": "K\u00f6ln", "addr:country": "DE", "addr:housenumber": "7a", "addr:postcode": "51063", "addr:street": "Z\u00fcricher Weg", "amenity": "kindergarten", "building": "yes", "building:levels": "1", "building:use": "gathering", "email": "zuericher@koelnkitas.de", "phone": "+49 221 643704"}}, {"type": "way", "id": 330802422, "nodes": [3378053557, 3378054034, 3378054033, 3378054026, 3378054021, 3378054127, 3378054130, 3378052554, 3378052557, 3378052538, 3378052545, 3378053562, 3378053557], "tags": {"addr:city": "K\u00f6ln", "addr:country": "DE", "addr:housenumber": "2", "addr:postcode": "51061", "addr:street": "Rungestra\u00dfe", "amenity": "social_facility", "building": "yes", "building:use": "gathering"}}, {"type": "way", "id": 330802446, "nodes": [317378376, 317378372, 3378054546, 3378054550, 3378054574, 3378054578, 3378054596, 3378054609, 3378054249, 3378054250, 317378378, 317378376], "tags": {"addr:city": "K\u00f6ln", "addr:country": "DE", "addr:housenumber": "8", "addr:postcode": "51061", "addr:street": "Peter-Grie\u00df-Stra\u00dfe", "amenity": "kindergarten", "name": "St\u00e4dtische Kindertageseinrichtung Peter-Grie\u00df-Stra\u00dfe"}}, {"type": "way", "id": 330819928, "nodes": [3378211038, 3378211033, 3378210820, 3378210827, 3378211031, 3378211038], "tags": {"addr:city": "K\u00f6ln", "addr:country": "DE", "addr:housenumber": "4", "addr:postcode": "51061", "addr:street": "Salvatorstra\u00dfe", "amenity": "social_facility", "building": "yes", "building:use": "gathering"}}, {"type": "way", "id": 330820151, "nodes": [3378210825, 3378211006, 3378211010, 3378211002, 3378211009, 3378210820, 3378211033, 3378210825], "tags": {"addr:city": "K\u00f6ln", "addr:country": "DE", "addr:housenumber": "2", "addr:postcode": "51061", "addr:street": "Salvatorstra\u00dfe", "amenity": "social_facility", "building": "yes", "building:use": "gathering"}}, {"type": "way", "id": 330820175, "nodes": [3378210950, 3378210904, 3378210906, 3378210932, 3378210958, 3378211004, 3378211006, 3378210825, 3378210950], "tags": {"addr:city": "K\u00f6ln", "addr:country": "DE", "addr:housenumber": "2a", "addr:postcode": "51061", "addr:street": "Salvatorstra\u00dfe", "amenity": "social_facility", "building": "yes", "building:use": "gathering"}}, {"type": "way", "id": 330840636, "nodes": [3378454905, 3378454541, 3378454908, 3378454920, 3378454905], "tags": {"addr:city": "K\u00f6ln", "addr:country": "DE", "addr:housenumber": "20a", "addr:postcode": "51061", "addr:street": "Buchholzstra\u00dfe", "amenity": "kindergarten", "building": "yes", "building:use": "gathering"}}, {"type": "way", "id": 330840704, "nodes": [3378457828, 3378456746, 3378456747, 3378457829, 3378457828], "tags": {"amenity": "shelter"}}, {"type": "way", "id": 330840937, "nodes": [3378460239, 3378460146, 3378460148, 3378460240, 3378460239], "tags": {"amenity": "shelter", "shelter_type": "public_transport"}}, {"type": "way", "id": 330841149, "nodes": [3378458138, 3378458077, 3378458295, 3378458151, 3378458310, 3378458138], "tags": {"addr:city": "K\u00f6ln", "addr:country": "DE", "addr:housenumber": "97", "addr:postcode": "51061", "addr:street": "Gisbertstra\u00dfe", "amenity": "bank", "atm": "yes", "building": "yes", "building:use": "residential;commercial", "name": "Sparkasse K\u00f6lnBonn", "operator": "Sparkasse", "wheelchair": "yes"}}, {"type": "way", "id": 335656125, "nodes": [3427548133, 3427548137, 3427548141, 3427548144, 3427548142, 3427548140, 3427548139, 3427548138, 3427548136, 3427548135, 3427548134, 3427548133], "tags": {"amenity": "school", "name": "Kath. Grundschule Diependahlstra\u00dfe"}}, {"type": "way", "id": 335811966, "nodes": [3429281609, 3429281607, 3429281606, 3429281602, 258341121, 8243378809, 3429281604, 3377915978, 3377915637, 3377916068, 3377916072, 3429281610, 3429281609], "tags": {"addr:housenumber": "66", "addr:street": "Edelhofstra\u00dfe", "amenity": "fire_station", "name": "Freiwillige Feuerwehr K\u00f6ln \u2013 L\u00f6schgruppe Flittard", "ref": "FF Flittard", "website": "https://www.feuerwehr-flittard.de/"}}, {"type": "way", "id": 335811967, "nodes": [3429281604, 258341120, 8243378810, 3429281611, 3429281612, 3429281618, 3429281619, 3429281615, 3429281609, 3429281610, 3377916072, 3377916068, 3377915637, 3377915978, 3429281604], "tags": {"addr:city": "K\u00f6ln", "addr:country": "DE", "addr:housenumber": "10", "addr:postcode": "51061", "addr:street": "Am Feldrain", "amenity": "school", "name": "LVR-Heinrich-Welsch-Schule", "wheelchair": "yes"}}, {"type": "way", "id": 335825918, "nodes": [3429418966, 3429418967, 3429418968, 3429418970, 3429418969, 3429418963, 3429418965, 3429418966], "tags": {"amenity": "school", "name": "Regenbogenschule"}}, {"type": "way", "id": 335999590, "nodes": [3430870030, 3430870031, 3430870029, 3430870028, 3430870026, 3430870025, 3430870024, 3430870027, 3430870023, 3430870030], "tags": {"addr:city": "K\u00f6ln", "addr:country": "DE", "addr:housenumber": "10", "addr:postcode": "51061", "addr:street": "Bonhoefferstra\u00dfe", "amenity": "place_of_worship", "building": "church", "building:levels": "5", "building:use": "religious", "deanery": "Evangelischer Kirchenkreis K\u00f6ln-Rechtsrheinisch", "denomination": "protestant", "diocese": "Evangelische Kirche im Rheinland", "name": "Immanuel-Kirche Stammheim", "parish": "Evangelische Br\u00fcckenschlag-Gemeinde K\u00f6ln-Flittard/Stammheim", "religion": "christian", "service_times": "Su 11:30", "start_date": "2013", "website": "https://www.brueckenschlag-gemeinde.de/", "wheelchair": "yes", "wikidata": "Q14906969", "wikipedia": "de:Immanuel-Kirche (K\u00f6ln-Flittard/Stammheim)"}}, {"type": "way", "id": 336119251, "nodes": [3431990697, 326906977, 3431990717, 486659542, 83156659, 3431990700, 3431990379, 3431990389, 3431990694, 3431990696, 3431990698, 3431990697], "tags": {"amenity": "school", "denomination": "catholic", "name": "KGS Luzerner Weg", "operator": "Stadt K\u00f6ln", "religion": "christian", "type": "Grundschule", "website": "http://www.kgs-luzerner-weg.de/wb/"}}, {"type": "way", "id": 337454547, "nodes": [3445421059, 3445421060, 3445421061, 3445421057, 3445421058, 3445421056, 3445421054, 3445421053, 3445421055, 3445421059], "tags": {"amenity": "school", "name": "Gemeinschaftsgrundschule Ricarda-Huch-Stra\u00dfe"}}, {"type": "way", "id": 436882777, "nodes": [4347385807, 4347385804, 4347385806, 5229105195, 4347385805, 4347385807], "tags": {"addr:city": "K\u00f6ln", "addr:country": "DE", "addr:housenumber": "70a", "addr:postcode": "51063", "addr:street": "Luzerner Weg", "amenity": "social_facility", "brand": "Malteser Hilfsdienst", "brand:wikidata": "Q1318397", "brand:wikipedia": "de:Malteser Hilfsdienst", "capacity": "400", "note": "6 Leichtbauhallen", "operator": "Stadt K\u00f6ln", "operator:social": "Malteser", "social_facility": "shelter", "social_facility:for": "migrant", "start_date": "2016-08"}}, {"type": "way", "id": 492559854, "nodes": [4845570018, 4845570017, 4845570016, 4845570015, 4845570018], "tags": {"amenity": "shelter", "shelter_type": "public_transport"}}, {"type": "way", "id": 503331590, "nodes": [4936627869, 4936627870, 4936627871, 4936627872, 4936627869], "tags": {"amenity": "shelter"}}, {"type": "way", "id": 583878594, "nodes": [3752486363, 5581911404, 5581911403, 5581911405, 3752486363], "tags": {"amenity": "bicycle_parking", "bike_ride": "train", "capacity": "24", "covered": "yes"}}, {"type": "way", "id": 583878595, "nodes": [677596907, 5581911407, 5581911406, 5581911408, 677596907], "tags": {"amenity": "bicycle_parking", "bike_ride": "train", "capacity": "24", "covered": "yes"}}, {"type": "way", "id": 583878597, "nodes": [5581911412, 5581911410, 5581911409, 5581911411, 5581911412], "tags": {"amenity": "bicycle_parking", "bicycle_parking": "lockers", "capacity": "3"}}, {"type": "way", "id": 617979985, "nodes": [5765113462, 5765113461, 317332848, 6200415343, 5765113463, 8830445180, 8830445181, 8830445182, 5765113462], "tags": {"addr:city": "K\u00f6ln", "addr:country": "DE", "addr:housenumber": "15", "addr:postcode": "51061", "addr:street": "Haferkamp", "amenity": "social_facility", "operator": "Stadt K\u00f6ln", "social_facility": "shelter", "social_facility:for": "migrant"}}, {"type": "way", "id": 791118315, "nodes": [7395752134, 7395752136, 7395752135, 9938111780, 7395752134], "tags": {"access": "yes", "amenity": "parking", "parking": "street_side", "parking:orientation": "diagonal"}}, {"type": "way", "id": 853018683, "nodes": [7956273838, 7956273837, 7956273836, 7956273835, 7956273834, 7956273838], "tags": {"access": "private", "amenity": "parking", "parking": "surface"}}, {"type": "way", "id": 867451442, "nodes": [8085448513, 317332958, 317332957, 8085448507, 8085448506, 8085448508, 8085503953, 8085503950, 8085503951, 8085503952, 8085448513], "tags": {"amenity": "parking", "parking": "street_side", "parking:orientation": "perpendicular"}}, {"type": "way", "id": 893356980, "nodes": [8303087077, 8303087073, 8303087075, 8303087074, 8303087076, 8303087077], "tags": {"access": "yes", "amenity": "parking", "fee": "no", "parking": "street_side", "parking:orientation": "perpendicular"}}, {"type": "way", "id": 895078747, "nodes": [486658756, 8319972400, 8319972399, 8319972398, 8319972397, 8319972396, 8319972395, 8319972394, 8319972393, 8319972392, 8319972391, 8319972390, 486658756], "tags": {"access": "yes", "amenity": "parking", "fee": "no", "parking": "surface"}}, {"type": "way", "id": 911392080, "nodes": [8462527250, 8462527249, 8462527248, 8462527247, 8462527245, 8462527246, 8462527250], "tags": {"access": "private", "amenity": "parking", "parking": "surface"}}, {"type": "way", "id": 911392081, "nodes": [8462527260, 8462527259, 8462527258, 8462527257, 8462527256, 8462527255, 8462527260], "tags": {"amenity": "parking", "parking": "surface"}}, {"type": "way", "id": 931961530, "nodes": [317332921, 8639798184, 8639798183, 8639798182, 8639798181, 8639798180, 8639798179, 8639798178, 8639798177, 8639798176, 8639798175, 8639798174, 8639798173, 8639798172, 8639798171, 8639798170, 8639798169, 317332921], "tags": {"access": "customers", "amenity": "parking", "parking": "surface", "wheelchair": "yes"}}, {"type": "way", "id": 975755255, "nodes": [333773852, 9029378979, 9029378978, 9029378977, 9029378976, 333773852], "tags": {"amenity": "parking", "parking": "surface"}}, {"type": "way", "id": 975758564, "nodes": [9029399058, 9029399055, 9029399056, 9029399057, 9029399058], "tags": {"amenity": "parking", "parking": "street_side"}}, {"type": "way", "id": 975758565, "nodes": [9029399062, 9029399059, 9029399060, 9029399061, 9029399062], "tags": {"amenity": "parking", "parking": "street_side"}}, {"type": "way", "id": 975765834, "nodes": [326928533, 9029462685, 9029462684, 9029462683, 9029462681, 9029462682, 326928533], "tags": {"access": "permissive", "amenity": "parking", "note": "Laut Hinweisschild Parken auf eigene Gefahr erlaubt", "operator": "Curt Richter GmbH", "parking": "surface", "source": "Yahoo"}}, {"type": "way", "id": 1012185949, "nodes": [9338292797, 9338292796, 9338292795, 9338292794, 9338292797], "tags": {"amenity": "parking", "parking": "street_side"}}, {"type": "way", "id": 1012185950, "nodes": [9338292801, 9338292798, 9338292799, 9338292800, 9338292801], "tags": {"amenity": "parking", "parking": "street_side"}}, {"type": "way", "id": 1012185951, "nodes": [9338292805, 9338292804, 9338292803, 9338292802, 9338292805], "tags": {"amenity": "parking", "parking": "street_side"}}, {"type": "way", "id": 1012185952, "nodes": [9338292809, 9338292806, 9338292807, 9338292808, 9338292809], "tags": {"amenity": "parking", "parking": "street_side"}}, {"type": "way", "id": 1036406456, "nodes": [9548456237, 9548456236, 9548456235, 9548456234, 9548456237], "tags": {"amenity": "parking", "parking": "street_side", "parking:orientation": "parallel"}}, {"type": "way", "id": 1036406457, "nodes": [9548456241, 9548456238, 9548456239, 9548456240, 9548456241], "tags": {"amenity": "parking", "parking": "street_side", "parking:orientation": "parallel"}}, {"type": "way", "id": 1036406458, "nodes": [9548456245, 9548456244, 9548456243, 9548456242, 9548456245], "tags": {"amenity": "parking", "parking": "street_side", "parking:orientation": "parallel"}}, {"type": "way", "id": 1036406459, "nodes": [9548456249, 9548456248, 9548456247, 9548456246, 9548456249], "tags": {"amenity": "parking", "parking": "street_side", "parking:orientation": "parallel"}}, {"type": "way", "id": 1036406460, "nodes": [9548456253, 9548456252, 9548456251, 9548456250, 9548456253], "tags": {"amenity": "parking", "parking": "street_side", "parking:orientation": "parallel"}}, {"type": "way", "id": 1084510997, "nodes": [9938105555, 9938105552, 9938105549, 9938105551, 9938105550, 9938105553, 9938105554, 9938105555], "tags": {"amenity": "parking", "parking": "street_side", "parking:orientation": "perpendicular"}}, {"type": "way", "id": 1084716514, "nodes": [9939794901, 9939794898, 9939794899, 9939794900, 9939794901], "tags": {"amenity": "parking", "parking": "street_side", "parking:orientation": "parallel"}}, {"type": "way", "id": 1084716515, "nodes": [9939794905, 9939794902, 9939794903, 9939794904, 9939794905], "tags": {"amenity": "parking", "parking": "street_side", "parking:orientation": "parallel"}}, {"type": "way", "id": 1084716516, "nodes": [9939794909, 9939794908, 9939794907, 9939794906, 9939794909], "tags": {"amenity": "parking", "parking": "street_side", "parking:orientation": "diagonal"}}, {"type": "way", "id": 1084716517, "nodes": [9939794913, 9939794912, 9939794911, 9939794910, 9939794913], "tags": {"amenity": "parking", "parking": "street_side", "parking:orientation": "diagonal"}}, {"type": "way", "id": 1084716518, "nodes": [9939881217, 9939881220, 9939881219, 9939794916, 9939881217], "tags": {"amenity": "parking", "parking": "street_side", "parking:orientation": "parallel"}}, {"type": "way", "id": 1084716519, "nodes": [9939794914, 9939881218, 9939881221, 9939794915, 9939794914], "tags": {"amenity": "parking", "parking": "street_side", "parking:orientation": "parallel"}}, {"type": "way", "id": 1084716522, "nodes": [9939881241, 9939881240, 9939881239, 9939881238, 9939881237, 9939881241], "tags": {"amenity": "parking", "parking": "street_side", "parking:orientation": "diagonal"}}, {"type": "way", "id": 1084716523, "nodes": [9939881245, 9939881244, 9939881243, 9939881242, 9939881245], "tags": {"amenity": "parking", "parking": "street_side", "parking:orientation": "diagonal"}}, {"type": "way", "id": 1084716524, "nodes": [9939881249, 9939881248, 9939881247, 9939881246, 9939881249], "tags": {"amenity": "parking", "parking": "street_side", "parking:orientation": "diagonal"}}, {"type": "way", "id": 1084719078, "nodes": [9939882639, 9939882638, 9939882637, 9939882636, 9939882639], "tags": {"amenity": "parking", "parking": "surface"}}, {"type": "way", "id": 1084719079, "nodes": [9939882643, 9939882640, 9939882641, 9939882642, 9939882643], "tags": {"amenity": "parking", "parking": "street_side", "parking:orientation": "perpendicular"}}, {"type": "way", "id": 1084719080, "nodes": [9939882647, 9939882644, 9939882645, 9939882646, 9939882647], "tags": {"amenity": "parking", "parking": "street_side", "parking:orientation": "perpendicular"}}, {"type": "way", "id": 1084719081, "nodes": [9939882651, 9939882648, 9939882649, 9939882650, 9939882651], "tags": {"amenity": "parking", "parking": "street_side", "parking:orientation": "perpendicular"}}, {"type": "way", "id": 1084719082, "nodes": [9939882655, 9939882652, 9939882653, 9939882654, 9939882655], "tags": {"amenity": "parking", "parking": "street_side", "parking:orientation": "perpendicular"}}, {"type": "way", "id": 1084719083, "nodes": [9939882659, 9939882658, 9939882657, 9939882656, 9939882659], "tags": {"amenity": "parking", "parking": "street_side", "parking:orientation": "perpendicular"}}, {"type": "way", "id": 1084719084, "nodes": [9939882663, 9939882660, 9939882661, 9939882662, 9939882663], "tags": {"amenity": "parking", "parking": "street_side", "parking:orientation": "perpendicular"}}, {"type": "way", "id": 1084719085, "nodes": [9939882667, 9939882666, 9939882665, 9939882664, 9939882667], "tags": {"amenity": "parking", "parking": "street_side", "parking:orientation": "diagonal"}}, {"type": "way", "id": 1084719086, "nodes": [9939882671, 9939882670, 9939882669, 9939882668, 9939882671], "tags": {"amenity": "parking", "parking": "street_side", "parking:orientation": "diagonal"}}, {"type": "way", "id": 1084719087, "nodes": [9939882675, 9939882674, 9939882673, 9939882672, 9939882675], "tags": {"amenity": "parking", "parking": "street_side", "parking:orientation": "perpendicular"}}, {"type": "way", "id": 1084719088, "nodes": [9939882679, 9939882676, 9939882677, 9939882678, 9939882679], "tags": {"amenity": "parking", "parking": "street_side", "parking:orientation": "perpendicular"}}, {"type": "way", "id": 1084719089, "nodes": [9939882683, 9939882680, 9939882681, 9939882682, 9939882683], "tags": {"amenity": "parking", "parking": "lane"}}, {"type": "way", "id": 1084719090, "nodes": [9939882687, 9939882684, 9939882685, 9939882686, 9939882687], "tags": {"amenity": "parking", "parking": "lane"}}, {"type": "way", "id": 1084719091, "nodes": [9939882694, 9939882689, 9939882690, 9939882693, 9939882692, 9939882688, 9939882691, 9939882694], "tags": {"amenity": "parking", "parking": "street_side", "parking:orientation": "perpendicular"}}, {"type": "way", "id": 1084719092, "nodes": [9939882698, 9939882697, 9939882696, 9939882695, 9939882698], "tags": {"amenity": "parking", "parking": "street_side", "parking:orientation": "perpendicular"}}, {"type": "way", "id": 1084719093, "nodes": [9939882706, 9939882700, 9939882699, 9939882705, 9939882704, 9939882701, 9939882702, 9939882703, 9939882706], "tags": {"amenity": "parking", "parking": "street_side", "parking:orientation": "perpendicular"}}, {"type": "way", "id": 1084719094, "nodes": [9939882714, 9939882710, 9939882708, 9939882713, 9939882712, 9939882707, 9939882709, 9939882711, 9939882714], "tags": {"amenity": "parking", "parking": "street_side", "parking:orientation": "perpendicular"}}, {"type": "way", "id": 1084719095, "nodes": [9939909418, 9939882715, 9939882716, 9939909417, 9939909418], "tags": {"amenity": "parking", "parking": "lane"}}, {"type": "way", "id": 1084719096, "nodes": [9939909430, 9939909426, 9939909425, 9939909424, 9939909423, 9939909429, 9939909428, 9939909419, 9939909420, 9939909421, 9939909422, 9939909427, 9939909430], "tags": {"amenity": "parking", "parking": "street_side", "parking:orientation": "parallel"}}, {"type": "way", "id": 1084719097, "nodes": [9939909434, 9939909431, 9939909432, 9939909433, 9939909434], "tags": {"amenity": "parking", "parking": "street_side", "parking:orientation": "parallel"}}, {"type": "way", "id": 1084719098, "nodes": [9939909438, 9939909435, 9939909436, 9939909437, 9939909438], "tags": {"amenity": "parking", "parking": "street_side", "parking:orientation": "perpendicular"}}, {"type": "way", "id": 1084719099, "nodes": [9939909442, 9939909441, 9939909440, 9939909439, 9939909442], "tags": {"amenity": "parking", "parking": "street_side", "parking:orientation": "perpendicular"}}, {"type": "way", "id": 1084721948, "nodes": [9939930365, 9939930362, 9939930363, 9939930364, 9939930365], "tags": {"amenity": "parking", "parking": "street_side", "parking:orientation": "perpendicular"}}, {"type": "way", "id": 1084721949, "nodes": [9939930369, 9939930368, 9939930367, 9939930366, 9939930369], "tags": {"amenity": "parking", "parking": "street_side", "parking:orientation": "perpendicular"}}, {"type": "way", "id": 1084721950, "nodes": [9939930373, 9939930370, 9939930371, 9939930372, 9939930373], "tags": {"amenity": "parking", "parking": "street_side", "parking:orientation": "perpendicular"}}, {"type": "way", "id": 1084721951, "nodes": [9939930377, 9939930376, 9939930375, 9939930374, 9939930377], "tags": {"amenity": "parking", "parking": "street_side", "parking:orientation": "perpendicular"}}, {"type": "way", "id": 1084721952, "nodes": [9939930381, 9939930378, 9939930379, 9939930380, 9939930381], "tags": {"amenity": "parking", "parking": "street_side", "parking:orientation": "perpendicular"}}, {"type": "way", "id": 1084721953, "nodes": [9939930385, 9939930382, 9939930383, 9939930384, 9939930385], "tags": {"amenity": "parking", "parking": "street_side", "parking:orientation": "perpendicular"}}, {"type": "way", "id": 1084721954, "nodes": [9939930398, 9939930388, 9939930387, 9939930393, 9939930391, 9939930397, 9939930396, 9939930392, 9939930394, 9939930389, 9939930390, 9939930395, 9939930398], "tags": {"amenity": "parking", "parking": "street_side", "parking:orientation": "parallel"}}, {"type": "way", "id": 1084721955, "nodes": [9939930407, 9939930404, 9939930405, 9939930403, 9939930402, 9939930406, 9939930407], "tags": {"amenity": "parking", "parking": "street_side", "parking:orientation": "parallel"}}, {"type": "way", "id": 1084721956, "nodes": [9939930411, 9939930408, 9939930409, 9939930410, 9939930411], "tags": {"amenity": "parking", "parking": "street_side", "parking:orientation": "parallel"}}, {"type": "way", "id": 1084721957, "nodes": [9939930416, 9939930413, 9939930414, 9939930415, 9939930416], "tags": {"amenity": "parking", "parking": "street_side", "parking:orientation": "parallel"}}, {"type": "way", "id": 1084721958, "nodes": [9939936620, 9939936617, 9939936618, 9939936619, 9939936620], "tags": {"amenity": "parking", "parking": "street_side", "parking:orientation": "parallel"}}, {"type": "way", "id": 1084721959, "nodes": [9939936624, 9939936623, 9939936622, 9939936621, 9939936624], "tags": {"amenity": "parking", "parking": "street_side", "parking:orientation": "parallel"}}, {"type": "way", "id": 1084721960, "nodes": [9939936628, 9939936627, 9939936626, 9939936625, 9939936628], "tags": {"amenity": "parking", "parking": "street_side", "parking:orientation": "perpendicular"}}, {"type": "way", "id": 1084721961, "nodes": [9939936632, 9939936629, 9939936630, 9939936631, 9939936632], "tags": {"amenity": "parking", "parking": "street_side", "parking:orientation": "perpendicular"}}, {"type": "way", "id": 1084721962, "nodes": [9939936636, 9939936633, 9939936634, 9939936635, 9939936636], "tags": {"amenity": "parking", "parking": "street_side", "parking:orientation": "perpendicular"}}, {"type": "way", "id": 1084721963, "nodes": [9939936640, 9939936639, 9939936638, 9939936637, 9939936640], "tags": {"amenity": "parking", "parking": "street_side", "parking:orientation": "parallel"}}, {"type": "way", "id": 1154621683, "nodes": [10738106022, 10738106019, 10738106020, 10738106021, 10738106022], "tags": {"amenity": "parking", "parking": "street_side", "parking:orientation": "perpendicular"}}, {"type": "way", "id": 1154621684, "nodes": [10738106027, 10738106026, 10738106025, 10738106024, 10738106027], "tags": {"amenity": "parking", "parking": "lane", "parking:orientation": "parallel"}}, {"type": "way", "id": 1154621685, "nodes": [10738106031, 10738106028, 10738106029, 10738106030, 10738106031], "tags": {"amenity": "parking", "parking": "lane", "parking:orientation": "parallel"}}, {"type": "way", "id": 1154621686, "nodes": [10738106035, 10738106032, 10738106033, 10738106034, 10738106035], "tags": {"amenity": "parking", "parking": "lane", "parking:orientation": "parallel"}}, {"type": "way", "id": 1154621690, "nodes": [10738106048, 10738106047, 10738106046, 10738106045, 10738106044, 10738106043, 10738106048], "tags": {"amenity": "parking", "parking": "surface"}}, {"type": "way", "id": 1154633174, "nodes": [10738207219, 10738207215, 10738207214, 10738207213, 10738207218, 10738207217, 10738207210, 10738207211, 10738207212, 10738207216, 10738207219], "tags": {"amenity": "parking", "parking": "lane", "parking:orientation": "parallel"}}, {"type": "way", "id": 1154633177, "nodes": [10738207229, 10738207228, 10738207227, 10738207226, 10738207229], "tags": {"amenity": "parking", "parking": "street_side", "parking:orientation": "perpendicular"}}, {"type": "way", "id": 1154633178, "nodes": [10738207233, 10738207230, 10738207231, 10738207232, 10738207233], "tags": {"amenity": "parking", "parking": "street_side", "parking:orientation": "perpendicular"}}, {"type": "relation", "id": 66348, "members": [{"type": "way", "ref": 24300678, "role": "outer"}, {"type": "way", "ref": 30054855, "role": "inner"}], "tags": {"addr:city": "K\u00f6ln", "addr:country": "DE", "addr:housenumber": "67", "addr:postcode": "51061", "addr:street": "Stammheimer Hauptstra\u00dfe", "amenity": "social_facility", "building": "yes", "building:levels": "2", "building:use": "gathering", "name": "Ulrich-Haberland-Haus", "note": "derzeit (2008) ungenutztes Wohngeb\u00e4ude am ehemaligen Standort des Stammheimer Schlosses", "type": "multipolygon"}}]}