{"version": 0.6, "generator": "Overpass API 0.7.60.2 e4cf9f7a", "osm3s": {"timestamp_osm_base": "2023-04-29T12:57:54Z", "copyright": "The data included in this document is from www.openstreetmap.org. The data is made available under ODbL."}, "elements": [{"type": "node", "id": 1057069136, "lat": 50.85923, "lon": 7.1057499}, {"type": "node", "id": 1057069138, "lat": 50.8593592, "lon": 7.1058059}, {"type": "node", "id": 1057069299, "lat": 50.8593567, "lon": 7.1057381}, {"type": "node", "id": 1057161972, "lat": 50.8590207, "lon": 7.1067276, "tags": {"amenity": "restaurant", "cuisine": "italian", "name": "La Fonte", "operator": "Davide de Cesare", "phone": "+49 2203 9889723", "smoking": "no", "wheelchair": "no"}}, {"type": "node", "id": 1483270686, "lat": 50.8638169, "lon": 7.1003033}, {"type": "node", "id": 1483270687, "lat": 50.8638506, "lon": 7.1005585}, {"type": "node", "id": 1483270688, "lat": 50.8638853, "lon": 7.1002806}, {"type": "node", "id": 1483270690, "lat": 50.8638985, "lon": 7.1003805}, {"type": "node", "id": 1496136420, "lat": 50.8722449, "lon": 7.0988807}, {"type": "node", "id": 1496136421, "lat": 50.8722463, "lon": 7.099061}, {"type": "node", "id": 1496136425, "lat": 50.8723423, "lon": 7.0988788}, {"type": "node", "id": 1496136435, "lat": 50.8725281, "lon": 7.0988752}, {"type": "node", "id": 1496136438, "lat": 50.8725295, "lon": 7.0990555}, {"type": "node", "id": 2057660311, "lat": 50.8592354, "lon": 7.1058926}, {"type": "node", "id": 2057660314, "lat": 50.859362, "lon": 7.1058808}, {"type": "node", "id": 2691247157, "lat": 50.863919, "lon": 7.1005358}, {"type": "node", "id": 2723703757, "lat": 50.8589979, "lon": 7.1062149, "tags": {"amenity": "restaurant", "cuisine": "seafood", "name": "La Casa del Marisco"}}, {"type": "node", "id": 5258067645, "lat": 50.8643628, "lon": 7.0982154, "tags": {"amenity": "restaurant", "name": "Mad's Kitchen"}}, {"type": "node", "id": 6575351886, "lat": 50.8590171, "lon": 7.1060286, "tags": {"addr:city": "K\u00f6ln", "addr:country": "DE", "addr:housenumber": "238", "addr:postcode": "51147", "addr:street": "Heidestra\u00dfe", "addr:suburb": "Wahnheide", "amenity": "restaurant", "contact:phone": "+49 2203 183 5971", "contact:website": "http://www.antica-roma.info/", "cuisine": "italian", "name": "Antica Roma", "opening_hours": "Tu-Fr 11:30-14:30, 17:00-22:30; Sa 17:00-23:00; Su, PH 11:30-22:30", "operator": "Filippo Arena", "outdoor_seating": "yes"}}, {"type": "node", "id": 6575351887, "lat": 50.8589642, "lon": 7.1046305, "tags": {"addr:city": "K\u00f6ln", "addr:country": "DE", "addr:housenumber": "218", "addr:postcode": "51147", "addr:street": "Heidestra\u00dfe", "addr:suburb": "Wahnheide", "amenity": "restaurant", "cuisine": "steak_house", "name": "L'Arena", "opening_hours": "17:00-23:00"}}, {"type": "node", "id": 6575351888, "lat": 50.8589566, "lon": 7.1044582, "tags": {"addr:city": "K\u00f6ln", "addr:country": "DE", "addr:housenumber": "216", "addr:postcode": "51147", "addr:street": "Heidestra\u00dfe", "addr:suburb": "Wahnheide", "amenity": "restaurant", "cuisine": "italian;pizza", "name": "Trattoria Sicilia", "opening_hours": "Mo-Fr 11:00-14:00, 17:30-22:00; Sa, Su, PH 17:30-22:00", "outdoor_seating": "yes", "phone": "+49 2203 921144", "reservation": "yes", "takeaway": "yes"}}, {"type": "way", "id": 136387259, "nodes": [1496136435, 1496136438, 1496136421, 1496136420, 1496136425, 1496136435], "tags": {"addr:city": "K\u00f6ln", "addr:country": "DE", "addr:housenumber": "122", "addr:postcode": "51147", "addr:street": "Hermann-L\u00f6ns-Stra\u00dfe", "addr:suburb": "Grengel", "amenity": "restaurant", "building": "yes", "building:colour": "white", "building:levels": "2", "building:use": "hotel", "cuisine": "german", "height": "11", "name": "Hotel Spiegel", "roof:colour": "grey", "roof:height": "5", "roof:levels": "1", "roof:material": "roof_tiles", "roof:orientation": "along", "roof:shape": "gabled", "tourism": "hotel", "wikidata": "Q66622470"}}, {"type": "way", "id": 195294374, "nodes": [2057660311, 1057069136, 1057069299, 1057069138, 2057660314, 2057660311], "tags": {"addr:city": "K\u00f6ln", "addr:country": "DE", "addr:housenumber": "239", "addr:postcode": "51147", "addr:street": "Heidestra\u00dfe", "addr:suburb": "Wahnheide", "amenity": "restaurant", "building": "yes", "building:colour": "white", "building:levels": "3", "building:use": "residential;industrial", "cuisine": "kebab", "height": "9", "name": "Akin D\u00f6ner Grill", "roof:colour": "grey", "roof:shape": "flat", "source": "HiRes aerial imagery"}}, {"type": "way", "id": 263508061, "nodes": [1483270687, 1483270686, 1483270688, 1483270690, 2691247157, 1483270687], "tags": {"addr:city": "K\u00f6ln", "addr:country": "DE", "addr:housenumber": "53", "addr:postcode": "51147", "addr:street": "Nachtigallenstra\u00dfe", "addr:suburb": "Wahnheide", "amenity": "restaurant", "building": "yes", "building:levels": "2", "building:use": "residential;commercial", "cuisine": "german", "name": "Wolffram", "source": "HiRes aerial imagery"}}]}