{"version": 0.6, "generator": "Overpass API 0.7.60.2 e4cf9f7a", "osm3s": {"timestamp_osm_base": "2023-04-29T12:57:54Z", "copyright": "The data included in this document is from www.openstreetmap.org. The data is made available under ODbL."}, "elements": [{"type": "node", "id": 405240425, "lat": 50.9347251, "lon": 6.9976822, "tags": {"addr:city": "K\u00f6ln", "addr:housenumber": "5", "addr:postcode": "51105", "addr:street": "Taunusstra\u00dfe", "amenity": "restaurant", "name": "Sahra-Pizza", "phone": "+49 221 6907477", "website": "http://www.pizza-sahra.de"}}, {"type": "node", "id": 778121142, "lat": 50.9315839, "lon": 6.9962206, "tags": {"amenity": "restaurant", "name": "Haus Taunus"}}, {"type": "node", "id": 954727799, "lat": 50.9317546, "lon": 7.000513, "tags": {"amenity": "restaurant", "cuisine": "italian", "name": "Al Solito Posto", "opening_hours": "Mo 11:30-15:00; Tu-Fr 11:30-15:00,18:30-22:00; Sa 18:30-22:00", "phone": "+49 221 16 87 70 18", "website": "https://al-solitoposto.de/"}}, {"type": "node", "id": 967960781, "lat": 50.9304794, "lon": 6.9970563, "tags": {"addr:city": "K\u00f6ln", "addr:country": "DE", "addr:housenumber": "75", "addr:postcode": "51105", "addr:street": "Esserstra\u00dfe", "amenity": "restaurant", "name": "Kr\u00e4mer", "phone": "+49 221 833570"}}, {"type": "node", "id": 975969911, "lat": 50.9291522, "lon": 7.0001035, "tags": {"addr:city": "K\u00f6ln", "addr:country": "DE", "addr:housenumber": "159", "addr:postcode": "51105", "addr:street": "Rolshover Stra\u00dfe", "amenity": "restaurant", "name": "Haus M\u00fcller", "website": "http://www.partyservice-mueller-koeln.de/"}}]}