{"version": 0.6, "generator": "Overpass API 0.7.60.2 e4cf9f7a", "osm3s": {"timestamp_osm_base": "2023-04-29T12:57:54Z", "copyright": "The data included in this document is from www.openstreetmap.org. The data is made available under ODbL."}, "elements": [{"type": "node", "id": 287571418, "lat": 50.9819297, "lon": 6.9479251, "tags": {"addr:city": "K\u00f6ln", "addr:housenumber": "596", "addr:postcode": "50737", "addr:street": "Neusser Stra\u00dfe", "amenity": "restaurant", "cuisine": "regional", "indoor_seating": "yes", "name": "Lena's St\u00fcffje", "opening_hours": "Su-Th 10:00-23:00, Fr,Sa 10:00-01:00", "outdoor_seating": "yes", "wheelchair": "no"}}, {"type": "node", "id": 287574328, "lat": 50.9854639, "lon": 6.9467335, "tags": {"amenity": "restaurant", "cuisine": "chinese", "name": "Four seasons", "opening_hours": "Mo-Fr 12:00-14:00,17:00-21:00; PH,Su 12:30-21:00; Sa off", "source": "photography", "wheelchair": "no"}}, {"type": "node", "id": 287588956, "lat": 50.9870168, "lon": 6.9455785, "tags": {"amenity": "restaurant", "cuisine": "german", "name": "Alt Weidenpesch"}}, {"type": "node", "id": 287593600, "lat": 50.9979046, "lon": 6.9371221, "tags": {"addr:city": "K\u00f6ln", "addr:country": "DE", "addr:housenumber": "2", "addr:postcode": "50735", "addr:street": "Neusser Landstra\u00dfe", "amenity": "restaurant", "name": "Nobis", "phone": "+49 221 20042340"}}, {"type": "node", "id": 333729128, "lat": 50.9871131, "lon": 6.9791794, "tags": {"addr:city": "K\u00f6ln", "addr:housenumber": "20", "addr:postcode": "51061", "addr:street": "Am Stammheimer Schlo\u00dfpark", "amenity": "restaurant", "cuisine": "german", "name": "RTHC Bayer Leverkusen", "opening_hours": "Tu-Su 11:00-23:00", "phone": "+49-221-6640331", "website": "http://www.rthc.de/", "wheelchair": "no"}}, {"type": "node", "id": 366717020, "lat": 50.9905309, "lon": 6.9595348, "tags": {"amenity": "restaurant", "cuisine": "german", "name": "Sch\u00fctzenhof", "toilets:wheelchair": "no", "wheelchair": "yes"}}, {"type": "node", "id": 622137487, "lat": 50.9696527, "lon": 6.9795221, "tags": {"amenity": "restaurant", "fixme": "Auf Existenz pr\u00fcfen", "name": "Gastst\u00e4tte Em Jadep\u00f6tzje"}}, {"type": "node", "id": 717418481, "lat": 50.9839464, "lon": 6.9522592}, {"type": "node", "id": 717418495, "lat": 50.98404, "lon": 6.9522946}, {"type": "node", "id": 717418506, "lat": 50.9840219, "lon": 6.952054}, {"type": "node", "id": 717418592, "lat": 50.9839784, "lon": 6.951836}, {"type": "node", "id": 717418620, "lat": 50.9840174, "lon": 6.9521804}, {"type": "node", "id": 717418644, "lat": 50.9838202, "lon": 6.9519133}, {"type": "node", "id": 717418681, "lat": 50.9840442, "lon": 6.9521671}, {"type": "node", "id": 717418687, "lat": 50.9839612, "lon": 6.9523337}, {"type": "node", "id": 717418695, "lat": 50.9838931, "lon": 6.9522854}, {"type": "node", "id": 717494896, "lat": 50.9845768, "lon": 6.947271, "tags": {"addr:city": "K\u00f6ln", "addr:housenumber": "654", "addr:postcode": "50737", "addr:street": "Neusser Stra\u00dfe", "amenity": "restaurant", "cuisine": "korean", "name": "Bulgogi Haus", "opening_hours": "Tu-Su 18:00-23:00; Mo off", "website": "https://bulgogi-haus.de/", "wheelchair": "no"}}, {"type": "node", "id": 1373048799, "lat": 50.9741074, "lon": 6.9605656, "tags": {"amenity": "restaurant", "name": "Paul's Restaurant", "opening_hours": "closed", "phone": "+49 221 99887766", "wheelchair": "limited", "wheelchair:description": "Toilette im Keller"}}, {"type": "node", "id": 1814555848, "lat": 50.9744102, "lon": 6.9609625, "tags": {"addr:city": "K\u00f6ln", "addr:country": "DE", "addr:housenumber": "105", "addr:postcode": "50735", "addr:street": "Friedrich-Karl-Stra\u00dfe", "addr:suburb": "Niehl", "amenity": "restaurant", "cuisine": "greek", "fax": "+49 221 5981890", "indoor_seating": "yes", "name": "Irodion", "opening_hours": "Mo off; Tu-Su, PH 12:00-14:30,17:30-23:30", "opening_hours:kitchen": "Mo off; Tu-Sa, PH 12:00-14:30,17:30-22:00; Su 12:00-14:30,17:30-21:30", "outdoor_seating": "yes", "payment:cards": "yes", "payment:cash": "yes", "phone": "+49 221 7125129", "toilets:wheelchair": "no", "website": "https://irodion.koeln/", "wheelchair": "yes", "wheelchair:description": "Toilette im Keller"}}, {"type": "node", "id": 1817721212, "lat": 50.9875609, "lon": 6.9612205, "tags": {"amenity": "restaurant", "indoor_seating": "yes", "name": "Pizzeria La Lanterna", "outdoor_seating": "yes", "phone": "+49 221 7121414"}}, {"type": "node", "id": 2538095300, "lat": 50.9745531, "lon": 6.9615912, "tags": {"addr:city": "K\u00f6ln", "addr:housenumber": "109", "addr:postcode": "50735", "addr:street": "Friedrich-Karl-Stra\u00dfe", "amenity": "restaurant", "cuisine": "pizza", "indoor_seating": "yes", "name": "Pizza Taxi Avanti", "outdoor_seating": "yes", "website": "http://www.pizzataxiavanti.de", "wheelchair": "limited"}}, {"type": "node", "id": 2981605568, "lat": 50.974109, "lon": 6.9651889, "tags": {"addr:city": "K\u00f6ln", "addr:housenumber": "35", "addr:postcode": "50735", "addr:street": "Duisburger Stra\u00dfe", "amenity": "restaurant", "contact:phone": "+49 221 79007464", "contact:website": "https://www.restaurant-antin.de/", "cuisine": "balkan;international", "indoor_seating": "yes", "name": "Antin", "opening_hours": "Tu-Sa 11:00-23:00", "outdoor_seating": "yes", "wheelchair": "limited", "wheelchair:description": "hohe Stufe am Eingang"}}, {"type": "node", "id": 3257030819, "lat": 50.9838115, "lon": 6.9518959}, {"type": "node", "id": 3257030821, "lat": 50.9838207, "lon": 6.9518694}, {"type": "node", "id": 3257030825, "lat": 50.9838228, "lon": 6.9518685}, {"type": "node", "id": 3257030837, "lat": 50.98387, "lon": 6.9518472}, {"type": "node", "id": 3257030839, "lat": 50.9838791, "lon": 6.9518983}, {"type": "node", "id": 3257030844, "lat": 50.9838986, "lon": 6.9518719}, {"type": "node", "id": 3257030845, "lat": 50.9839015, "lon": 6.9518882}, {"type": "node", "id": 3257030853, "lat": 50.983999, "lon": 6.951944}, {"type": "node", "id": 3257030854, "lat": 50.9840064, "lon": 6.9519403}, {"type": "node", "id": 3257030857, "lat": 50.9840283, "lon": 6.9520508}, {"type": "way", "id": 57827078, "nodes": [717418592, 3257030853, 3257030854, 3257030857, 717418506, 717418681, 717418620, 717418495, 717418687, 717418481, 717418695, 717418644, 3257030819, 3257030821, 3257030825, 3257030837, 3257030839, 3257030845, 3257030844, 717418592], "tags": {"addr:city": "K\u00f6ln", "addr:country": "DE", "addr:housenumber": "40", "addr:postcode": "50737", "addr:street": "Scheibenstra\u00dfe", "amenity": "restaurant", "building": "yes", "building:levels": "1", "building:use": "sport", "name": "Gasthaus Rennbahn", "outdoor_seating": "biergarten", "toilets:wheelchair": "yes", "wheelchair": "yes"}}]}