{"version": 0.6, "generator": "Overpass API 0.7.60.2 e4cf9f7a", "osm3s": {"timestamp_osm_base": "2023-04-29T12:57:54Z", "copyright": "The data included in this document is from www.openstreetmap.org. The data is made available under ODbL."}, "elements": [{"type": "node", "id": 359832, "lat": 50.9051565, "lon": 6.963755, "tags": {"amenity": "restaurant", "name": "Campus", "wheelchair": "yes"}}, {"type": "node", "id": 506803127, "lat": 50.907262, "lon": 6.9637777, "tags": {"addr:city": "K\u00f6ln", "addr:housenumber": "289", "addr:postcode": "50968", "addr:street": "Bonner Stra\u00dfe", "amenity": "restaurant", "cuisine": "thai", "name": "Ban Thai", "website": "http://www.banthai-koeln.de/", "wheelchair": "no"}}, {"type": "node", "id": 616493075, "lat": 50.9076891, "lon": 6.9661995, "tags": {"addr:city": "K\u00f6ln", "addr:housenumber": "58", "addr:postcode": "50968", "addr:street": "C\u00e4sarstra\u00dfe", "amenity": "restaurant", "cuisine": "french", "name": "L'Imprimerie", "smoking": "no", "toilets:wheelchair": "no", "wheelchair": "limited"}}, {"type": "node", "id": 1356241663, "lat": 50.9058211, "lon": 6.968574, "tags": {"amenity": "restaurant", "name": "Caf\u00e9 & Bistro Schiller'"}}, {"type": "node", "id": 2675704148, "lat": 50.9102051, "lon": 6.9688271}, {"type": "node", "id": 2675704166, "lat": 50.9102219, "lon": 6.9692946}, {"type": "node", "id": 2675704187, "lat": 50.9102523, "lon": 6.9690492}, {"type": "node", "id": 2675704199, "lat": 50.9102625, "lon": 6.9695119}, {"type": "node", "id": 2675704211, "lat": 50.9102787, "lon": 6.9694118}, {"type": "node", "id": 2675704213, "lat": 50.910286, "lon": 6.9692587}, {"type": "node", "id": 2675704221, "lat": 50.9102922, "lon": 6.9687755}, {"type": "node", "id": 2675704225, "lat": 50.9102945, "lon": 6.969497}, {"type": "node", "id": 2675704230, "lat": 50.9103005, "lon": 6.9693228}, {"type": "node", "id": 2675704236, "lat": 50.9103073, "lon": 6.9693787}, {"type": "node", "id": 2675704240, "lat": 50.9103104, "lon": 6.9688653}, {"type": "node", "id": 2675704242, "lat": 50.9103125, "lon": 6.9693803}, {"type": "node", "id": 2675704243, "lat": 50.9103152, "lon": 6.9693958}, {"type": "node", "id": 2675704259, "lat": 50.9103363, "lon": 6.9690061}, {"type": "node", "id": 2686853545, "lat": 50.9102428, "lon": 6.9713767, "tags": {"amenity": "restaurant", "name": "Gasthaus Zur Eule", "tourism": "hotel", "wheelchair": "no"}}, {"type": "node", "id": 2686860331, "lat": 50.9102965, "lon": 6.9712968, "tags": {"amenity": "restaurant", "name": "Weinstube Zur Eule", "wheelchair": "no"}}, {"type": "node", "id": 3799543539, "lat": 50.9051995, "lon": 6.9643467, "tags": {"addr:city": "K\u00f6ln", "addr:housenumber": "333", "addr:postcode": "50968", "addr:street": "Bonner Stra\u00dfe", "amenity": "restaurant", "cafe": "yes", "delivery": "yes", "name": "Nale nat\u00fcrlich lecker", "opening_hours": "Mo-Fr 12:00-14:30", "phone": "+49 221 30190399", "website": "http://nale-food.de/"}}, {"type": "node", "id": 3799543540, "lat": 50.9050838, "lon": 6.9645162, "tags": {"addr:city": "K\u00f6ln", "addr:housenumber": "335", "addr:postcode": "50968", "addr:street": "Bonner Stra\u00dfe", "amenity": "restaurant", "name": "Emine", "opening_hours": "Mo-Fr 10:00-17:00"}}, {"type": "node", "id": 4458463190, "lat": 50.910233, "lon": 6.9630947, "tags": {"addr:postcode": "50968", "amenity": "restaurant", "cuisine": "sushi;japanese", "name": "Oishi Sushi Club", "opening_hours": "Mo-Fr 11:30-22:00; Sa-Su 16:00-22:00", "phone": "+49 221 39899453", "website": "https://www.oishisushi.club/"}}, {"type": "node", "id": 5853050574, "lat": 50.9079369, "lon": 6.9700859, "tags": {"addr:city": "K\u00f6ln", "addr:housenumber": "118", "addr:postcode": "50968", "addr:street": "Goltsteinstra\u00dfe", "amenity": "restaurant", "cuisine": "italian", "name": "Ristorante Sardinia", "opening_hours": "We-Mo 12:00-22:00", "phone": "+49 221 88808881", "website": "https://www.ristorantesardinia.com", "wheelchair": "no"}}, {"type": "node", "id": 5938679691, "lat": 50.9095886, "lon": 6.9697738, "tags": {"addr:city": "K\u00f6ln", "addr:housenumber": "83", "addr:postcode": "50968", "addr:street": "Goltsteinstra\u00dfe", "amenity": "restaurant", "cuisine": "regional", "name": "Bayernthaler Wirtshaus", "opening_hours": "Mo-Sa 16:00-00:00; Su 12:00-00:00", "outdoor_seating": "yes", "website": "http://www.bayernthaler-wirtshaus.de"}}, {"type": "node", "id": 6405988321, "lat": 50.9075185, "lon": 6.9659945, "tags": {"addr:city": "K\u00f6ln", "addr:housenumber": "62", "addr:postcode": "50968", "addr:street": "C\u00e4sarstra\u00dfe", "amenity": "restaurant", "cuisine": "pizza", "name": "Little Italy Pizza", "wheelchair": "no"}}, {"type": "node", "id": 6408956500, "lat": 50.9101427, "lon": 6.9619778, "tags": {"addr:city": "K\u00f6ln", "addr:housenumber": "12", "addr:postcode": "50968", "addr:street": "Br\u00fchler Stra\u00dfe", "amenity": "restaurant", "contact:facebook": "https://www.facebook.com/pizzeria.koeln.gusto.e.melodia/", "cuisine": "pizza", "name": "Gusto e Melodia", "wheelchair": "no"}}, {"type": "node", "id": 6412586228, "lat": 50.9045288, "lon": 6.9639841, "tags": {"addr:city": "K\u00f6ln", "addr:housenumber": "328", "addr:postcode": "50968", "addr:street": "Bonner Stra\u00dfe", "amenity": "restaurant", "cuisine": "seafood;steak_house", "name": "Reef & Beef", "opening_hours": "Mo-Fr 12:00-15:00, Mo-Sa 18:00-01:00, Su 12:00-01:00", "website": "http://reefandbeef-koeln.de/"}}, {"type": "node", "id": 6412612850, "lat": 50.9089629, "lon": 6.9700564, "tags": {"addr:city": "K\u00f6ln", "addr:housenumber": "87a", "addr:postcode": "50968", "addr:street": "Goltsteinstra\u00dfe", "amenity": "restaurant", "cuisine": "austrian", "name": "Feinkost Seemann"}}, {"type": "node", "id": 6731360733, "lat": 50.910536, "lon": 6.9688462, "tags": {"addr:city": "K\u00f6ln", "addr:country": "DE", "addr:housenumber": "58", "addr:postcode": "50968", "addr:street": "Goltsteinstra\u00dfe", "amenity": "restaurant", "name": "Ristorante Da Francesca", "toilets:wheelchair": "no", "wheelchair": "limited"}}, {"type": "node", "id": 6881658812, "lat": 50.9147366, "lon": 6.9617594, "tags": {"addr:housenumber": "1", "addr:street": "Koblenzer Stra\u00dfe", "amenity": "restaurant", "check_date": "2022-10-26", "cuisine": "pizza", "name": "Pizza EATalioano", "opening_hours": "Mo-Th,Sa-Su,PH 11:00-23:00; Fr 15:00-23:00", "phone": "+49 2213 9893780", "toilets:wheelchair": "no", "website": "http://www.pizza-eataliano.de", "wheelchair": "yes"}}, {"type": "node", "id": 7541678647, "lat": 50.9147234, "lon": 6.9619571, "tags": {"addr:city": "K\u00f6ln", "addr:housenumber": "1-9", "addr:postcode": "50968", "addr:street": "Koblenzer Stra\u00dfe", "amenity": "restaurant", "cuisine": "chinese", "delivery": "yes", "internet_access": "yes", "level": "1", "name": "LADE", "opening_hours": "Mo-Fr 11:30-14:45,18:00-23:00; Sa-Su 12:00-23:00; Tu off", "operator": "Pei Zhang", "payment:bancomat": "yes", "payment:cash": "yes", "payment:maestro": "yes", "phone": "+49 221 342566", "takeaway": "yes", "website": "https://restaurant-lade.eatbu.com/", "wheelchair": "yes"}}, {"type": "way", "id": 261942789, "nodes": [2675704148, 2675704221, 2675704240, 2675704259, 2675704187, 2675704148], "tags": {"addr:city": "K\u00f6ln", "addr:country": "DE", "addr:housenumber": "64", "addr:postcode": "50968", "addr:street": "Goltsteinstra\u00dfe", "amenity": "restaurant", "building": "yes", "building:use": "residential;industrial", "cuisine": "italian", "name": "Osteria ital. Feinkost", "wheelchair": "no"}}, {"type": "way", "id": 261942944, "nodes": [2675704230, 2675704213, 2675704166, 2675704199, 2675704225, 2675704211, 2675704243, 2675704242, 2675704236, 2675704230], "tags": {"addr:city": "K\u00f6ln", "addr:country": "DE", "addr:housenumber": "67", "addr:postcode": "50968", "addr:street": "Goltsteinstra\u00dfe", "amenity": "restaurant", "building": "yes", "building:levels": "4", "building:use": "residential;industrial", "name": "Mega Gourmet", "wheelchair": "no"}}]}