{"version": 0.6, "generator": "Overpass API 0.7.60.2 e4cf9f7a", "osm3s": {"timestamp_osm_base": "2023-04-29T12:57:54Z", "copyright": "The data included in this document is from www.openstreetmap.org. The data is made available under ODbL."}, "elements": [{"type": "node", "id": 203815704, "lat": 50.9535555, "lon": 6.9204156, "tags": {"amenity": "restaurant", "cuisine": "moroccan", "diet:vegetarian": "yes", "name": "Tajine", "opening_hours": "Mo-Su 18:00-24:00", "outdoor_seating": "no"}}, {"type": "node", "id": 243924634, "lat": 50.9547349, "lon": 6.9172551, "tags": {"amenity": "restaurant", "cuisine": "korean", "name": "Anju Korean Tapas", "opening_hours": "Tu-Sa 12:00-15:00, 18:00-23:00; Su 18:00-23:00", "wheelchair": "no"}}, {"type": "node", "id": 243975721, "lat": 50.9566763, "lon": 6.9125427, "tags": {"addr:city": "K\u00f6ln", "addr:housenumber": "353", "addr:postcode": "50825", "addr:street": "Subbelrather Stra\u00dfe", "amenity": "restaurant", "cuisine": "italian", "name": "Sicula", "opening_hours": "Tu-Su 17:30-23:00; Mo off", "phone": "+49 221 5501976", "source": "survey", "website": "http://www.trattoria-sicula.de", "wheelchair": "no"}}, {"type": "node", "id": 245784282, "lat": 50.9495245, "lon": 6.9262583, "tags": {"amenity": "restaurant", "cuisine": "pizza", "name": "Couchsnacks"}}, {"type": "node", "id": 249059836, "lat": 50.9461828, "lon": 6.8977278, "tags": {"addr:city": "K\u00f6ln", "addr:country": "DE", "addr:housenumber": "221", "addr:street": "Maarweg", "amenity": "restaurant", "cuisine": "sushi", "name": "Sushi World", "opening_hours": "Mo-Fr 11:00-22:00; Sa off;Su 15:00-22:00", "source": "survey", "wheelchair": "limited"}}, {"type": "node", "id": 249059841, "lat": 50.9463176, "lon": 6.8959787, "tags": {"amenity": "restaurant", "cuisine": "pizza", "name": "Al Capone", "source": "survey"}}, {"type": "node", "id": 259176264, "lat": 50.9516976, "lon": 6.925729, "tags": {"amenity": "restaurant", "food": "yes", "name": "Hemmer", "opening_hours": "Mo-Fr 16:00-01:00, Sa 11:00-02:00, Su 11:00-01:00", "outdoor_seating": "yes", "sportsbar": "yes", "website": "http://www.hemmer-koeln.de", "wheelchair": "limited"}}, {"type": "node", "id": 272779597, "lat": 50.9560372, "lon": 6.9174429, "tags": {"amenity": "restaurant", "email": "info@restaurant-stickel.de", "name": "Stickel", "opening_hours": "Mo, Tu, We-Su 16:00-24:00; We off", "opening_hours:kitchen": "17:00-22:00", "outdoor_seating": "yes", "phone": "+49 221 5955906", "reservation": "yes", "website": "https://www.restaurant-stickel.de/"}}, {"type": "node", "id": 346155975, "lat": 50.9510035, "lon": 6.9171522, "tags": {"amenity": "restaurant", "cuisine": "ethiopian", "name": "Selam", "opening_hours": "Tu-Fr 17:00-18:00+; Sa,Su 16:00-18:00+", "source": "photography", "website": "http://www.selamrestaurant.de/", "website:menu": "http://selamrestaurant.de/speisekarte/", "wheelchair": "yes"}}, {"type": "node", "id": 444401509, "lat": 50.9555812, "lon": 6.9183368, "tags": {"amenity": "restaurant", "email": "rpalanli@t-online.de", "name": "Haus Tutt", "opening_hours": "Mo-Th 16:00 - 01:00; Fr, Sa 16:00 - 03:00; Su 12:00 - 24:00", "phone": "+49 221 16919221", "source": "photography", "website": "http://www.haus-tutt.de/", "wheelchair": "no"}}, {"type": "node", "id": 444401514, "lat": 50.9560518, "lon": 6.9186039, "tags": {"amenity": "restaurant", "diet:halal": "no", "diet:kosher": "no", "diet:vegan": "yes", "diet:vegetarian": "yes", "name": "P\u00f6ttgen", "opening_hours": "PH,Tu-Su 11:30-14:30, Tu-Fr 17:30-24:00, Sa 18:00-24:00, PH,Su 17:30-22:00", "source": "photography", "wheelchair": "no"}}, {"type": "node", "id": 444820535, "lat": 50.9550479, "lon": 6.9183041, "tags": {"addr:housenumber": "8", "addr:street": "Landmannstra\u00dfe", "amenity": "restaurant", "cuisine": "pizza", "delivery": "yes", "diet:vegetarian": "yes", "indoor_seating": "yes", "name": "Pizza Colonia", "opening_hours": "Mo-Fr 11:30-21:30; PH,Sa,Su 12:00-21:30", "outdoor_seating": "no", "website": "https://coloniapizza.de"}}, {"type": "node", "id": 452448605, "lat": 50.9522419, "lon": 6.9138598, "tags": {"addr:city": "K\u00f6ln", "addr:housenumber": "384", "addr:postcode": "50825", "addr:street": "Venloer Stra\u00dfe", "amenity": "restaurant", "contact:website": "http://koeln.meiwok.de/", "cuisine": "asian", "diet:gluten_free": "yes", "diet:vegan": "only", "fair_trade": "no", "name": "MeiWok", "opening_hours": "Mo-Fr 12:00-22:00; Sa,Su,PH 13:00-22:00", "organic": "only", "toilets:wheelchair": "no", "wheelchair": "limited"}}, {"type": "node", "id": 452495640, "lat": 50.9554746, "lon": 6.9161576, "tags": {"amenity": "restaurant", "cuisine": "italian", "name": "Da Mario", "note": "Lokalit\u00e4t wurde am 27.09.2022 geschlossen.", "opening_hours": "Mo-Su 17:00-21:00; Tu off", "website": "https://www.ristorantedamario.info/"}}, {"type": "node", "id": 458790868, "lat": 50.9472882, "lon": 6.9231925, "tags": {"amenity": "restaurant", "cuisine": "german", "name": "Haus Scholzen", "opening_hours": "We-Su 11:30-15:00, 17:00-24:00", "phone": "+49 221 515919", "toilets:wheelchair": "yes", "website": "https://haus-scholzen.de/", "wheelchair": "limited"}}, {"type": "node", "id": 479893754, "lat": 50.9494955, "lon": 6.9175334, "tags": {"amenity": "restaurant", "name": "Antep Mangal", "outdoor_seating": "yes", "wheelchair": "yes"}}, {"type": "node", "id": 659351159, "lat": 50.9520575, "lon": 6.9124458, "tags": {"addr:city": "K\u00f6ln", "addr:country": "DE", "addr:housenumber": "7", "addr:postcode": "50825", "addr:street": "Herbrandstra\u00dfe", "addr:suburb": "Ehrenfeld", "amenity": "restaurant", "contact:mobile": "+49 160 1162856", "cuisine": "tapas", "delivery": "no", "description": "mit Kegelbahn", "diet:vegan": "yes", "diet:vegetarian": "only", "email": "info@bagatelle-veggie.koeln", "name": "Bagatelle V", "opening_hours": "Mo-Su 17:00+", "outdoor_seating": "yes", "reservation": "yes", "shop": "vacant", "takeaway": "no", "website": "https://bagatelle-veggie.koeln/"}}, {"type": "node", "id": 659459585, "lat": 50.9517935, "lon": 6.9139989, "tags": {"amenity": "restaurant", "name": "Deleeciosa"}}, {"type": "node", "id": 690207481, "lat": 50.9476565, "lon": 6.9209112, "tags": {"addr:city": "K\u00f6ln", "addr:housenumber": "6", "addr:postcode": "50823", "addr:street": "Geisselstra\u00dfe", "amenity": "restaurant", "breakfast": "yes", "cafe": "yes", "cuisine": "crepe", "diet:vegan": "yes", "diet:vegetarian": "yes", "email": "info@lizbaet.de", "level": "0", "name": "LizB\u00c4T", "opening_hours": "Tu 17:00-24:00, We-Th 12:00-23:00, Fr-Sa 12:00-24:00, Su 12:00-23:00", "operator": "Crepes Gastst\u00e4tten GmbH", "outdoor_seating": "yes", "payment:cash": "yes", "phone": "+49 221 5104566", "pub": "yes", "takeaway": "yes", "toilets:wheelchair": "no", "website": "http://www.lizbaet.de/", "wheelchair": "yes", "wheelchair:description": "Toilette ebenderdig"}}, {"type": "node", "id": 729099550, "lat": 50.9471335, "lon": 6.9191535, "tags": {"amenity": "restaurant", "diet:vegan": "yes", "diet:vegetarian": "yes", "email": "gastro@neptunbad.de", "name": "Badenbaden", "opening_hours": "Mo-Su,PH 10:00-24:00", "phone": "+49 221 7100778", "website": "http://www.badenbaden-ehrenfeld.de/", "wheelchair": "no"}}, {"type": "node", "id": 729776088, "lat": 50.9479126, "lon": 6.9194886, "tags": {"amenity": "restaurant", "cuisine": "indian", "diet:vegan": "yes", "diet:vegetarian": "yes", "name": "Masala Empire", "opening_hours": "Mo-Su,PH 09:00-23:30", "phone": "+49 221 45304305", "website": "http://masala-empire.com/", "wheelchair": "yes"}}, {"type": "node", "id": 739255188, "lat": 50.9480748, "lon": 6.9204937, "tags": {"amenity": "restaurant", "cuisine": "turkish", "name": "Damla", "note": "2019-10-16: Leerstand", "opening_hours": "Mo-Th 08:00-23:00; Fr,Sa 08:00-24:00; PH,Su 08:00-23:00"}}, {"type": "node", "id": 769203833, "lat": 50.9528692, "lon": 6.9128335, "tags": {"amenity": "restaurant", "cuisine": "pizza", "name": "Piccola", "opening_hours": "Mo-Su, PH 11:00-23:00", "outdoor_seating": "yes", "phone": "+49 221 540236080", "takeaway": "yes", "toilets:wheelchair": "no", "website": "https://www.piccola-koeln.de/", "wheelchair": "yes"}}, {"type": "node", "id": 777920560, "lat": 50.9539372, "lon": 6.9202526, "tags": {"amenity": "restaurant", "cuisine": "italian", "delivery": "yes", "diet:vegetarian": "yes", "internet_access": "no", "name": "Colosseum", "opening_hours": "Mo off; Tu-Fr 12:00-15:00,17:30-23:00; Sa 15:00-23:00; Su 12:00-22:00", "outdoor_seating": "no", "phone": "+49 221 5503762", "reservation": "yes", "source": "photography", "takeaway": "yes", "website": "https://pizzeria-colosseum.jimdofree.com/", "wheelchair": "limited"}}, {"type": "node", "id": 823682613, "lat": 50.9466581, "lon": 6.9239737, "tags": {"amenity": "restaurant", "cuisine": "vietnamese", "name": "Viet Village"}}, {"type": "node", "id": 823682874, "lat": 50.9468081, "lon": 6.923529, "tags": {"amenity": "restaurant", "cuisine": "chinese", "name": "Hanoi 36", "outdoor_seating": "yes", "phone": "+49 221 22201770", "toilets": "yes", "wheelchair": "yes"}}, {"type": "node", "id": 922690408, "lat": 50.9485366, "lon": 6.9092989, "tags": {"addr:city": "K\u00f6ln", "addr:housenumber": "43", "addr:postcode": "50825", "addr:street": "Lichtstra\u00dfe", "amenity": "restaurant", "contact:email": "lichterfeld@email.de", "contact:phone": "+49 221 690 5066", "contact:website": "http://www.lichterfeld-koeln.de/lichterfeld.php", "name": "Lichterfeld", "opening_hours": "Mo-Fr 08:15-15:30"}}, {"type": "node", "id": 1195779642, "lat": 50.9508706, "lon": 6.9177662, "tags": {"amenity": "restaurant", "contact:email": "efg@balloni.net", "name": "EFG-Restaurant \u2013 Essen f\u00fcr Geniesser", "opening_hours": "Mo-Fr 10:00-19:00; Sa 10:00-17:00", "phone": "+49-221-51091310", "website": "https://www.balloni.de/efg-restaurant/", "wheelchair": "yes"}}, {"type": "node", "id": 1350442892, "lat": 50.9473396, "lon": 6.9230155, "tags": {"amenity": "restaurant", "cuisine": "french", "email": "info@maisonbaguette.de", "internet_access": "wlan", "internet_access:fee": "no", "name": "Maison Baguette", "opening_hours": "Mo-Fr 11:30-19:30; Sa 11:30-18:30; Su off", "operator": "Herr C\u00fcneyt Ataman", "phone": "+49 221 16867254", "smoking": "no", "website": "http://www.maisonbaguette.de/", "wheelchair": "yes"}}, {"type": "node", "id": 1369858409, "lat": 50.9483428, "lon": 6.9209132, "tags": {"addr:city": "K\u00f6ln", "addr:housenumber": "2", "addr:postcode": "50823", "addr:street": "Wahlenstra\u00dfe", "amenity": "restaurant", "cuisine": "portuguese", "diet:fish": "yes", "diet:vegan": "no", "diet:vegetarian": "yes", "name": "Saudade", "opening_hours": "Tu-Sa 18:00-24:00", "outdoor_seating": "yes", "phone": "+49 221 5796476", "website": "https://www.saudadewein.de/", "wheelchair": "no"}}, {"type": "node", "id": 1448231983, "lat": 50.9512128, "lon": 6.9199147, "tags": {"amenity": "restaurant", "delivery": "no", "diet:vegan": "yes", "diet:vegetarian": "yes", "name": "Goldmund Literaturcafe", "opening_hours": "Mo-Th 09:00-23:00; Fr, Sa 09:00-24:00; Su 09:00-23:00", "outdoor_seating": "yes", "payment:cash": "yes", "payment:girocard": "yes", "payment:maestro": "yes", "phone": "+49 221 5341584", "reservation": "yes", "smoking": "no", "takeaway": "no", "toilets:wheelchair": "no", "website": "https://www.goldmundkoeln.de/", "wheelchair": "yes"}}, {"type": "node", "id": 1598829074, "lat": 50.9446045, "lon": 6.923452, "tags": {"amenity": "restaurant", "name": "Saloniki Grill"}}, {"type": "node", "id": 1702755023, "lat": 50.955761, "lon": 6.9055627, "tags": {"amenity": "restaurant", "cuisine": "american;burger", "diet:vegan": "yes", "diet:vegetarian": "yes", "name": "B\u00e4renstark", "opening_hours": "We-Th 12:00-22:00; Fr-Su 09:00-18:00", "wheelchair": "no"}}, {"type": "node", "id": 1704455856, "lat": 50.9564972, "lon": 6.9032459, "tags": {"amenity": "restaurant", "cuisine": "mediterranean", "name": "Da Vinci", "wheelchair": "limited"}}, {"type": "node", "id": 1842979417, "lat": 50.94563, "lon": 6.9264645, "tags": {"addr:housenumber": "191", "addr:street": "Venloer Stra\u00dfe", "amenity": "restaurant", "cuisine": "chinese", "name": "Kim Son", "opening_hours": "Mo-Fr 12:00-23:00; Sa-Su 15:00-23:00", "source": "local knowledge"}}, {"type": "node", "id": 2116073053, "lat": 50.9473581, "lon": 6.9229303, "tags": {"amenity": "restaurant", "cuisine": "japanese", "diet:vegan": "no", "diet:vegetarian": "yes", "fax": "+49 221 16835232", "name": "Fuji", "opening_hours": "Mo-Fr 12:00-15:00,17:00-22:30; Sa 12:00-22:30; Su 15:00-22:00", "phone": "+49 221 16835301", "website": "http://www.japanisches-restaurant-koeln.de/", "wheelchair": "limited"}}, {"type": "node", "id": 2264627192, "lat": 50.9512239, "lon": 6.9068116, "tags": {"addr:housenumber": "246", "addr:postcode": "50825", "addr:street": "Vogelsanger Stra\u00dfe", "amenity": "restaurant", "cuisine": "italian", "name": "Pizza UFO", "source": "PV"}}, {"type": "node", "id": 2305700356, "lat": 50.9548897, "lon": 6.9182022, "tags": {"amenity": "restaurant", "cuisine": "georgian", "delivery": "Mo-Su 12:00-20:15", "name": "Maspinzelo", "opening_hours": "Mo-Fr 12:00-22:00; Sa,Su 13:00-23:00", "outdoor_seating": "yes", "phone": "+49 221 95624999", "website": "https://www.maspinzelo.de/"}}, {"type": "node", "id": 2334147108, "lat": 50.9537284, "lon": 6.9114945, "tags": {"addr:city": "K\u00f6ln", "addr:housenumber": "440", "addr:postcode": "50825", "addr:street": "Venloer Stra\u00dfe", "amenity": "restaurant", "cuisine": "italian", "delivery": "yes", "name": "Toscana", "opening_hours": "Mo off;Tu-Sa 11:30-23:00, Su,PH 16:00-23:00", "outdoor_seating": "yes", "takeaway": "yes", "toilets:wheelchair": "no", "website": "http://www.qype.com/place/756267-Pizzeria-Trattoria-Toscana-Koeln", "wheelchair": "yes"}}, {"type": "node", "id": 2392787680, "lat": 50.9523163, "lon": 6.901212, "tags": {"amenity": "restaurant", "contact:website": "http://www.tunarestaurant.de/", "name": "Tuna"}}, {"type": "node", "id": 2596081258, "lat": 50.9457485, "lon": 6.8982552}, {"type": "node", "id": 2596081263, "lat": 50.9457565, "lon": 6.8983888}, {"type": "node", "id": 2596081270, "lat": 50.9457569, "lon": 6.8983926}, {"type": "node", "id": 2596081275, "lat": 50.9457654, "lon": 6.8982526}, {"type": "node", "id": 2596081282, "lat": 50.9457684, "lon": 6.8982516}, {"type": "node", "id": 2596081288, "lat": 50.945773, "lon": 6.8982539}, {"type": "node", "id": 2596081291, "lat": 50.9457762, "lon": 6.8982611}, {"type": "node", "id": 2596081294, "lat": 50.9457849, "lon": 6.8983967}, {"type": "node", "id": 2596081299, "lat": 50.9457895, "lon": 6.8983627}, {"type": "node", "id": 2596081302, "lat": 50.9458516, "lon": 6.8982505}, {"type": "node", "id": 2596081305, "lat": 50.9458617, "lon": 6.8982369}, {"type": "node", "id": 2596081314, "lat": 50.9458665, "lon": 6.8983731}, {"type": "node", "id": 2596081317, "lat": 50.9458713, "lon": 6.8982873}, {"type": "node", "id": 2596081326, "lat": 50.9458786, "lon": 6.8982684}, {"type": "node", "id": 2670238897, "lat": 50.9478473, "lon": 6.921776, "tags": {"amenity": "restaurant", "name": "Marx & Engels", "note": "2014-02-10: Umbau"}}, {"type": "node", "id": 3097081072, "lat": 50.9437792, "lon": 6.9072717, "tags": {"amenity": "restaurant", "description": "Catering", "name": "Tafelfreuden Catering"}}, {"type": "node", "id": 3154011226, "lat": 50.950275, "lon": 6.9113915, "tags": {"addr:city": "K\u00f6ln", "addr:housenumber": "216", "addr:postcode": "50825", "addr:street": "Vogelsanger Stra\u00dfe", "amenity": "restaurant", "check_date:opening_hours": "2022-08-10", "cuisine": "italian", "name": "Gusto Antico", "opening_hours": "Mo-Fr 11:00-18:00", "payment:credit_cards": "no", "payment:debit_cards": "no"}}, {"type": "node", "id": 3259200166, "lat": 50.9505509, "lon": 6.9115781, "tags": {"amenity": "restaurant", "cuisine": "bosnian", "name": "Restaurant Ba\u0161\u010dar\u0161ija"}}, {"type": "node", "id": 3342877252, "lat": 50.9512785, "lon": 6.9102131}, {"type": "node", "id": 3342877255, "lat": 50.951281, "lon": 6.9102594}, {"type": "node", "id": 3342877263, "lat": 50.9512867, "lon": 6.9101799}, {"type": "node", "id": 3342877264, "lat": 50.9512906, "lon": 6.9103642}, {"type": "node", "id": 3342877272, "lat": 50.9513048, "lon": 6.9101518}, {"type": "node", "id": 3342877286, "lat": 50.9513236, "lon": 6.9101401}, {"type": "node", "id": 3342877309, "lat": 50.9513772, "lon": 6.9105154}, {"type": "node", "id": 3342877314, "lat": 50.9513944, "lon": 6.9101342}, {"type": "node", "id": 3342877346, "lat": 50.9514362, "lon": 6.9101306}, {"type": "node", "id": 3342877353, "lat": 50.9514421, "lon": 6.9104226}, {"type": "node", "id": 3778209771, "lat": 50.9467691, "lon": 6.9243942, "tags": {"alt_name": "Pizzeria Piccola", "amenity": "restaurant", "cuisine": "italian", "description": "2. bester Italiener in K\u00f6ln lt. Magazin \"Prinz\"", "name": "Piccola L'Originale", "opening_hours": "Su-Fr 11:00-23:00; Sa 17:00-23:00", "outdoor_seating": "yes", "phone": "+49 221 518242", "self_service": "yes", "takeaway:pizza": "yes", "website": "http://www.piccola-loriginale.de/"}}, {"type": "node", "id": 4254570286, "lat": 50.9541344, "lon": 6.9098241, "tags": {"amenity": "restaurant", "cuisine": "sushi", "email": "info@sushikoeln.de", "name": "Sushi K\u00f6ln", "opening_hours": "Mo-Fr11:30-15:00,17:30-22:00;Sa-Su 14:00-23:00", "outdoor_seating": "yes", "phone": "+49 221 222 0 4241", "website": "http://sushikoeln.de"}}, {"type": "node", "id": 4304758165, "lat": 50.9563553, "lon": 6.9047341, "tags": {"addr:city": "K\u00f6ln", "addr:housenumber": "538", "addr:postcode": "50825", "addr:street": "Venloer Stra\u00dfe", "amenity": "restaurant", "cuisine": "burger", "diet:vegan": "no", "diet:vegetarian": "yes", "name": "Karl Hermann's", "opening_hours": "08:00-02:00"}}, {"type": "node", "id": 4354667755, "lat": 50.9491225, "lon": 6.9196076, "tags": {"amenity": "restaurant", "contact:email": "petra@meersehenkoeln.de", "contact:phone": "+492219923149", "contact:website": "http://www.meersehenkoeln.de/", "name": "Meer sehen", "opening_hours": "Mo-Fr 17:00+; Sa 17:00+; Su off"}}, {"type": "node", "id": 4901539629, "lat": 50.9476218, "lon": 6.9216345, "tags": {"amenity": "restaurant", "cuisine": "greek", "name": "Taverne Alekos", "opening_hours": "We-Mo 12:00-15:00,17:00-23:00; Tu off", "outdoor_seating": "yes", "phone": "+49 221 516640", "toilets:wheelchair": "no", "website": "http://www.tavernealekos.de/", "wheelchair": "yes"}}, {"type": "node", "id": 5594500983, "lat": 50.9474595, "lon": 6.9048215, "tags": {"addr:city": "K\u00f6ln", "addr:housenumber": "173 K6", "addr:postcode": "50825", "addr:street": "Oskar-J\u00e4ger-Stra\u00dfe", "amenity": "restaurant", "email": "info@dein-speisesalon.de", "name": "Oskar J\u00e4ger deli ehrenfeld", "opening_hours": "Mo-Fr 12:00-15:00", "phone": "+49 221 55941211", "website": "http://www.dein-speisesalon.de/oskar-jaeger/"}}, {"type": "node", "id": 5597083331, "lat": 50.9416812, "lon": 6.9088459, "tags": {"addr:city": "K\u00f6ln", "addr:housenumber": "2", "addr:postcode": "50933", "addr:street": "Stolberger Stra\u00dfe", "amenity": "restaurant", "cuisine": "pizza", "diet:vegetarian": "yes", "name": "Lopes", "opening_hours": "Mo-Fr 11:30-15:00,18:00-22:00; Sa18:00-22:00", "phone": "+49 221 987 47 547"}}, {"type": "node", "id": 6025299395, "lat": 50.9561996, "lon": 6.9175824, "tags": {"amenity": "restaurant", "name": "Traubenzeit", "opening_hours": "Mo-Su 18:00+", "operator": "Patrick Beckmann UG (haftungsbeschr\u00e4nkt)", "outdoor_seating": "no", "payment:cash": "yes", "payment:credit_cards": "no", "payment:debit_cards": "no", "phone": "+49 221 2053446", "website": "http://restaurant-traubenzeit.de/"}}, {"type": "node", "id": 6343343019, "lat": 50.9542003, "lon": 6.9107666, "tags": {"amenity": "restaurant", "cuisine": "oriental", "diet:halal": "yes", "diet:kosher": "no", "diet:vegan": "yes", "diet:vegetarian": "yes", "indoor_seating": "yes", "name": "Vegan Revolution", "opening_hours": "Mo-Th 11:00-23:00; Fr,Sa 11:00-24:00; Su 12:00-23:00", "outdoor_seating": "yes", "payment:credit_cards": "no", "payment:debit_cards": "no", "website": "https://www.vegan-food-revolution.de/", "wheelchair": "no"}}, {"type": "node", "id": 6908393077, "lat": 50.9554023, "lon": 6.9156515, "tags": {"amenity": "restaurant", "diet:vegan": "yes", "diet:vegetarian": "yes", "email": "reservierung@wallczka.de", "indoor_seating": "yes", "name": "Wallczka", "opening_hours": "Mo-Th 09:30-24:00; Fr, Sa 09:30-01:00; Su 09:30-24:00", "outdoor_seating": "yes", "phone": "+49 221 29842156", "website": "https://www.wallczka.com/", "wheelchair": "yes"}}, {"type": "node", "id": 6990282585, "lat": 50.9486931, "lon": 6.9080105, "tags": {"amenity": "restaurant", "name": "Woanders"}}, {"type": "node", "id": 7004329610, "lat": 50.953955, "lon": 6.9106483, "tags": {"amenity": "restaurant", "cuisine": "pizza", "delivery": "Mo-Su 12:00-22:00", "name": "Pizza Mia", "phone": "+49 221 96674045", "takeaway": "yes", "website": "https://www.pizza-mia.de/"}}, {"type": "node", "id": 7155797711, "lat": 50.9504785, "lon": 6.9167766, "tags": {"amenity": "restaurant", "cuisine": "turkish", "level": "1", "name": "Mecnun"}}, {"type": "node", "id": 7659555968, "lat": 50.9528041, "lon": 6.9153742, "tags": {"addr:city": "K\u00f6ln", "addr:housenumber": "1c", "addr:postcode": "50825", "addr:street": "Marienstra\u00dfe", "amenity": "restaurant", "name": "Erlebniskochen im Marieneck", "phone": "+49 221 58919492", "website": "https://www.marieneck.com"}}, {"type": "node", "id": 10588820176, "lat": 50.946443, "lon": 6.9226924, "tags": {"addr:city": "K\u00f6ln", "addr:housenumber": "241-245", "addr:postcode": "50823", "addr:street": "Venloer Stra\u00dfe", "amenity": "restaurant", "cuisine": "pizza", "diet:vegan": "yes", "email": "info@vpgermany.com", "name": "Virtuous Pie", "opening_hours": "Mo-Sa 11:45-22:00", "opening_hours:url": "https://virtuouspie.de/locations/deutschland/koln/", "phone": "+49 221 29299999", "takeaway": "yes", "website": "https://virtuouspie.de/"}}, {"type": "way", "id": 253715945, "nodes": [2596081317, 2596081326, 2596081305, 2596081302, 2596081291, 2596081288, 2596081282, 2596081275, 2596081258, 2596081263, 2596081270, 2596081294, 2596081299, 2596081314, 2596081317], "tags": {"addr:city": "K\u00f6ln", "addr:country": "DE", "addr:housenumber": "148", "addr:postcode": "50825", "addr:street": "Maarweg", "amenity": "restaurant", "building": "retail", "building:levels": "1", "building:use": "foodservice", "cuisine": "italian", "diet:vegetarian": "yes", "name": "MaaRe", "opening_hours": "Mo-Sa 11:00-22:30", "outdoor_seating": "yes", "source": "survey;local knowledge", "website": "https://www.restaurant-maare.de/"}}, {"type": "way", "id": 327498380, "nodes": [3342877346, 3342877314, 3342877286, 3342877272, 3342877263, 3342877252, 3342877255, 3342877264, 3342877309, 3342877353, 3342877346], "tags": {"addr:city": "K\u00f6ln", "addr:country": "DE", "addr:housenumber": "21", "addr:postcode": "50825", "addr:street": "Herbrandstra\u00dfe", "amenity": "restaurant", "building": "house", "building:use": "residential", "contact:phone": "+49 221 9541626", "contact:website": "http://www.herbrands.de/", "name": "Herbrand's", "wheelchair": "limited", "wheelchair:description": "keine Rollstuhltoilette"}}]}