{"version": 0.6, "generator": "Overpass API 0.7.60.2 e4cf9f7a", "osm3s": {"timestamp_osm_base": "2023-04-29T12:57:54Z", "copyright": "The data included in this document is from www.openstreetmap.org. The data is made available under ODbL."}, "elements": [{"type": "node", "id": 266185926, "lat": 50.930874, "lon": 6.919141, "tags": {"addr:city": "K\u00f6ln", "addr:housenumber": "23", "addr:postcode": "50931", "addr:street": "Hans-Sachs-Stra\u00dfe", "amenity": "restaurant", "cuisine": "vietnamese", "name": "ViCui", "opening_hours": "Mo-Su 11:00-22:00", "outdoor_seating": "yes", "takeaway": "yes", "wheelchair": "no"}}, {"type": "node", "id": 286421551, "lat": 50.9216021, "lon": 6.9195488, "tags": {"addr:city": "K\u00f6ln", "addr:housenumber": "312", "addr:postcode": "50937", "addr:street": "Z\u00fclpicher Stra\u00dfe", "amenity": "restaurant", "cuisine": "french", "name": "Bagatelle im alten Steinb\u00fcchel", "opening_hours": "t\u00e4glich ab 17 Uhr, sonn- und feiertags ab 12 Uhr"}}, {"type": "node", "id": 309731964, "lat": 50.9301372, "lon": 6.9144003, "tags": {"amenity": "restaurant", "cuisine": "italian", "name": "Culinarius", "opening_hours": "Mo-Su 12:00-24:00", "phone": "+49 221 4061348", "website": "http://www.culinarius-koeln.de/", "wheelchair": "limited"}}, {"type": "node", "id": 309776342, "lat": 50.9304077, "lon": 6.9208265, "tags": {"addr:city": "K\u00f6ln", "addr:country": "DE", "addr:housenumber": "1", "addr:postcode": "50931", "addr:street": "Hans-Sachs-Stra\u00dfe", "amenity": "restaurant", "cuisine": "italian", "name": "Il Cavaliere", "phone": "+4922196264891", "wheelchair": "limited"}}, {"type": "node", "id": 314436894, "lat": 50.9365078, "lon": 6.9182217, "tags": {"addr:city": "K\u00f6ln", "addr:housenumber": "259", "addr:postcode": "50931", "addr:street": "Aachener Stra\u00dfe", "amenity": "restaurant", "contact:instagram": "zippiri_weinbar", "cuisine": "italian", "email": "weinbar@zippiri.de", "name": "Zippiri Weinbar", "opening_hours": "Th-Mo 18:00-23:00", "operator": "Michele Lauricella Ninotta", "phone": "+49 221 42088451", "website": "https://www.zippiri.de"}}, {"type": "node", "id": 314445640, "lat": 50.9320217, "lon": 6.9205289, "tags": {"addr:city": "K\u00f6ln", "addr:housenumber": "94", "addr:postcode": "50931", "addr:street": "D\u00fcrener Stra\u00dfe", "amenity": "restaurant", "cuisine": "italian", "name": "Faro", "opening_hours": "Mo-Su,PH 12:00-15:00,18:00-24:00"}}, {"type": "node", "id": 314445651, "lat": 50.9314568, "lon": 6.9179324, "tags": {"addr:city": "K\u00f6ln", "addr:country": "DE", "addr:housenumber": "143", "addr:postcode": "50931", "addr:street": "D\u00fcrener Stra\u00dfe", "amenity": "restaurant", "name": "Haus Landmann", "wheelchair": "no"}}, {"type": "node", "id": 315673697, "lat": 50.9287983, "lon": 6.9119257, "tags": {"addr:city": "K\u00f6ln", "addr:country": "DE", "addr:housenumber": "218", "addr:postcode": "50931", "addr:street": "D\u00fcrener Stra\u00dfe", "amenity": "restaurant", "name": "Osteria Toscana", "wheelchair": "no"}}, {"type": "node", "id": 332079680, "lat": 50.9252465, "lon": 6.907608, "tags": {"addr:city": "K\u00f6ln", "addr:housenumber": "233", "addr:postcode": "50935", "addr:street": "Bachemer Stra\u00dfe", "amenity": "restaurant", "check_date": "2022-10-16", "cuisine": "japanese", "name": "ZEN Japanese Restaurant", "phone": "+49 (221) 3990 9986", "website": "https://www.restaurant-zen.de/lindenthal"}}, {"type": "node", "id": 454925547, "lat": 50.9370633, "lon": 6.8955023, "tags": {"addr:city": "K\u00f6ln", "addr:housenumber": "561", "addr:postcode": "50933", "addr:street": "Aachener Stra\u00dfe", "amenity": "restaurant", "name": "Marienbild", "opening_hours": "Mo off; Tu-Fr 17:00+; Sa-Su 12:00+; PH 12:00+", "website": "https://www.marienbild.de/", "wheelchair": "limited"}}, {"type": "node", "id": 462269184, "lat": 50.9322709, "lon": 6.9212584, "tags": {"amenity": "restaurant", "cuisine": "pizza", "name": "Prego", "phone": "+49 221 7898917", "wheelchair": "limited"}}, {"type": "node", "id": 647463233, "lat": 50.9306531, "lon": 6.9208514, "tags": {"addr:housenumber": "2", "addr:street": "Hans-Sachs-Stra\u00dfe", "amenity": "restaurant", "cuisine": "sushi", "name": "Sushi Bar GAN-MI", "wheelchair": "yes"}}, {"type": "node", "id": 659861237, "lat": 50.9326817, "lon": 6.9206883, "tags": {"addr:housenumber": "89", "addr:postcode": "50931", "addr:street": "D\u00fcrener Stra\u00dfe", "amenity": "restaurant", "cuisine": "japanese", "email": "info@nikko-koeln.de", "name": "Nikko", "opening_hours": "Mo-Fr 12:00-14:30, 18:30-22:30; Sa-Su 18:00-22:00", "phone": "+49 221 4000094", "website": "http://www.nikko-koeln.de"}}, {"type": "node", "id": 715831104, "lat": 50.9243813, "lon": 6.8978828, "tags": {"amenity": "restaurant", "cuisine": "italian", "name": "Ristorantino Cinquecento"}}, {"type": "node", "id": 763549586, "lat": 50.9306922, "lon": 6.9207272, "tags": {"addr:city": "K\u00f6ln", "addr:country": "DE", "addr:housenumber": "4", "addr:postcode": "50931", "addr:street": "Hans-Sachs-Stra\u00dfe", "amenity": "restaurant", "cuisine": "italian", "name": "Il Belluno", "phone": "+49 221 99876900", "website": "http://www.il-belluno.de"}}, {"type": "node", "id": 774460843, "lat": 50.925653, "lon": 6.9092654, "tags": {"amenity": "restaurant", "contact:website": "http://www.zummarienbildchen.de/", "cuisine": "german", "name": "Zum Marienbildchen", "phone": "+49 221 / 434 229"}}, {"type": "node", "id": 970774596, "lat": 50.9305027, "lon": 6.9161757, "tags": {"addr:city": "K\u00f6ln", "addr:country": "DE", "addr:housenumber": "152", "addr:postcode": "50931", "addr:street": "D\u00fcrener Stra\u00dfe", "amenity": "restaurant", "name": "Carlos"}}, {"type": "node", "id": 976649099, "lat": 50.9231582, "lon": 6.9238944, "tags": {"addr:city": "K\u00f6ln", "addr:country": "DE", "addr:housenumber": "268", "addr:postcode": "50937", "addr:street": "Z\u00fclpicher Stra\u00dfe", "amenity": "restaurant", "name": "Brasserie Marie"}}, {"type": "node", "id": 1111843257, "lat": 50.9289799, "lon": 6.9114675, "tags": {"amenity": "restaurant", "name": "Haus Schwan", "phone": "+49 221 403368", "toilets:wheelchair": "no", "website": "https://haus-schwan.de/", "wheelchair": "limited"}}, {"type": "node", "id": 1111844966, "lat": 50.9281977, "lon": 6.9090922, "tags": {"addr:city": "K\u00f6ln", "addr:country": "DE", "addr:housenumber": "253", "addr:postcode": "50931", "addr:street": "D\u00fcrener Stra\u00dfe", "amenity": "restaurant", "indoor_seating": "yes", "name": "Erpel & Co", "opening_hours": "Su-Th 10:00-01:00, Fr-Sa 10:00-02:00", "outdoor_seating": "yes", "toilets:wheelchair": "no", "website": "http://www.erpelundco.de/", "wheelchair": "limited"}}, {"type": "node", "id": 1149864429, "lat": 50.9240186, "lon": 6.9123675, "tags": {"addr:city": "K\u00f6ln", "addr:country": "DE", "addr:housenumber": "179", "addr:postcode": "50931", "addr:street": "Gleueler Stra\u00dfe", "amenity": "restaurant", "cuisine": "italian;pizza", "email": "da.capo@koeln.de", "name": "Trattoria Da Capo", "opening_hours": "Tu-Fr 12:00-15:00, Tu-Fr 18:00-23:00, Sa 18:00-23:00, Su 12:00-15:00, Su 18:00-23:00", "outdoor_seating": "yes", "phone": "+49 221 437789", "website": "http://www.trattoria-dacapo.de/"}}, {"type": "node", "id": 1150696905, "lat": 50.9249361, "lon": 6.9115232, "tags": {"addr:city": "K\u00f6ln", "addr:country": "DE", "addr:housenumber": "62", "addr:postcode": "50935", "addr:street": "Lindenthalg\u00fcrtel", "amenity": "restaurant", "cuisine": "pizza", "name": "Salute"}}, {"type": "node", "id": 1171997285, "lat": 50.9326193, "lon": 6.9214507, "tags": {"amenity": "restaurant", "name": "Cotta's", "opening_hours": "Mo-Su 10:00+", "phone": "+49 221 407009", "toilets:wheelchair": "no", "wheelchair": "limited"}}, {"type": "node", "id": 1252516742, "lat": 50.9254311, "lon": 6.9105925, "tags": {"addr:city": "K\u00f6ln", "addr:country": "DE", "addr:housenumber": "73", "addr:postcode": "50935", "addr:street": "Lindenthalg\u00fcrtel", "amenity": "restaurant", "check_date": "2022-10-16", "contact:facebook": "https://www.facebook.com/TrattoriaTiziano", "cuisine": "italian", "name": "Trattoria Tiziano", "opening_hours": "Mo off; Tu-Fr,Su 12:00-14:30,18:00-22:30", "phone": "+49 221 4301221", "wheelchair": "limited"}}, {"type": "node", "id": 1252516748, "lat": 50.9311604, "lon": 6.9170305, "tags": {"amenity": "restaurant", "cuisine": "lebanese", "indoor_seating": "yes", "name": "Shukran", "opening_hours": "Mo-Su 11:00-23:00", "outdoor_seating": "yes", "wheelchair": "limited"}}, {"type": "node", "id": 1351928484, "lat": 50.9288326, "lon": 6.9110988, "tags": {"addr:housenumber": "239", "addr:street": "D\u00fcrener Stra\u00dfe", "alt_name": "Brasserie l'ap\u00e9ro", "amenity": "restaurant", "breakfast": "yes", "cuisine": "french", "email": "reservierung-lapero@web.de", "name": "l'ap\u00e9ro", "phone": "+49 174 723 28 52", "website": "https://www.lapero-koeln.com/"}}, {"type": "node", "id": 1431923204, "lat": 50.9244781, "lon": 6.9171199, "tags": {"amenity": "restaurant", "contact:email": "info@uk-catering.de", "contact:fax": "+49 221 478-87654", "contact:phone": "+49 221 478-87268", "contact:website": "http://uk-catering.de", "name": "Cafeteria UKC", "opening_hours": "Mo-Fr 07:30-19:00; Sa, Su 09:00-19:00; PH 11:00-17:00", "outdoor_seating": "yes", "payment:cash": "yes", "wheelchair": "yes"}}, {"type": "node", "id": 2542014938, "lat": 50.916685, "lon": 6.8993057}, {"type": "node", "id": 2542014956, "lat": 50.9167541, "lon": 6.8992087}, {"type": "node", "id": 2542014960, "lat": 50.9167655, "lon": 6.8992292}, {"type": "node", "id": 2542014967, "lat": 50.916806, "lon": 6.8995227}, {"type": "node", "id": 2542014969, "lat": 50.9168148, "lon": 6.8995104}, {"type": "node", "id": 2542014972, "lat": 50.9168498, "lon": 6.8993782}, {"type": "node", "id": 2542014982, "lat": 50.9168714, "lon": 6.8992097}, {"type": "node", "id": 2542014984, "lat": 50.9168728, "lon": 6.8990787}, {"type": "node", "id": 2542014987, "lat": 50.9168887, "lon": 6.8996429}, {"type": "node", "id": 2542014996, "lat": 50.9169131, "lon": 6.8991511}, {"type": "node", "id": 2542014998, "lat": 50.9169147, "lon": 6.8992872}, {"type": "node", "id": 2542015006, "lat": 50.9169497, "lon": 6.8995573}, {"type": "node", "id": 2554749257, "lat": 50.9184323, "lon": 6.8882252}, {"type": "node", "id": 2554749263, "lat": 50.9185062, "lon": 6.8883601}, {"type": "node", "id": 2554749266, "lat": 50.918511, "lon": 6.8878732}, {"type": "node", "id": 2554749270, "lat": 50.9185259, "lon": 6.8885161}, {"type": "node", "id": 2554749274, "lat": 50.9185314, "lon": 6.888053}, {"type": "node", "id": 2554749278, "lat": 50.9185417, "lon": 6.8880704}, {"type": "node", "id": 2554749281, "lat": 50.9185595, "lon": 6.8883101}, {"type": "node", "id": 2554749286, "lat": 50.9185661, "lon": 6.8878545}, {"type": "node", "id": 2554749289, "lat": 50.9185723, "lon": 6.8884106}, {"type": "node", "id": 2554749293, "lat": 50.9185842, "lon": 6.8880093}, {"type": "node", "id": 2554749297, "lat": 50.9185917, "lon": 6.8880238}, {"type": "node", "id": 2554749301, "lat": 50.9186231, "lon": 6.888219}, {"type": "node", "id": 2554749304, "lat": 50.9186446, "lon": 6.8883876}, {"type": "node", "id": 2554749308, "lat": 50.9186531, "lon": 6.8881408}, {"type": "node", "id": 2554749316, "lat": 50.918677, "lon": 6.8881865}, {"type": "node", "id": 2554749329, "lat": 50.9187116, "lon": 6.8884574}, {"type": "node", "id": 2563619846, "lat": 50.930779, "lon": 6.8772835}, {"type": "node", "id": 2563619847, "lat": 50.930788, "lon": 6.8773749}, {"type": "node", "id": 2563619849, "lat": 50.9308375, "lon": 6.8778518}, {"type": "node", "id": 2563619851, "lat": 50.9308466, "lon": 6.8779442}, {"type": "node", "id": 2563619861, "lat": 50.9310015, "lon": 6.877209}, {"type": "node", "id": 2563619862, "lat": 50.9310034, "lon": 6.8772281}, {"type": "node", "id": 2563619864, "lat": 50.9310123, "lon": 6.8773195}, {"type": "node", "id": 2563619866, "lat": 50.9310145, "lon": 6.8773418}, {"type": "node", "id": 2563619868, "lat": 50.9310323, "lon": 6.8778984}, {"type": "node", "id": 2563619869, "lat": 50.9310332, "lon": 6.8771102}, {"type": "node", "id": 2563619870, "lat": 50.9310419, "lon": 6.8771991}, {"type": "node", "id": 2563619871, "lat": 50.9310485, "lon": 6.8780636}, {"type": "node", "id": 2563619872, "lat": 50.9310491, "lon": 6.8773333}, {"type": "node", "id": 2563619873, "lat": 50.9310566, "lon": 6.8777777}, {"type": "node", "id": 2563619874, "lat": 50.9310585, "lon": 6.8777973}, {"type": "node", "id": 2563619875, "lat": 50.9310835, "lon": 6.8770978}, {"type": "node", "id": 2563619877, "lat": 50.9310859, "lon": 6.8771229}, {"type": "node", "id": 2563619879, "lat": 50.9310918, "lon": 6.877769}, {"type": "node", "id": 2563619881, "lat": 50.9311314, "lon": 6.8771117}, {"type": "node", "id": 2563619882, "lat": 50.9311655, "lon": 6.8774597}, {"type": "node", "id": 2563619883, "lat": 50.9311744, "lon": 6.8774576}, {"type": "node", "id": 2563619884, "lat": 50.9311783, "lon": 6.8774976}, {"type": "node", "id": 2563619885, "lat": 50.9311786, "lon": 6.8775929}, {"type": "node", "id": 2563619886, "lat": 50.9311835, "lon": 6.8775504}, {"type": "node", "id": 2563619887, "lat": 50.9311874, "lon": 6.8775907}, {"type": "node", "id": 2563619889, "lat": 50.9312125, "lon": 6.8774891}, {"type": "node", "id": 2563619891, "lat": 50.9312177, "lon": 6.877542}, {"type": "node", "id": 2563619892, "lat": 50.9312205, "lon": 6.8780212}, {"type": "node", "id": 2613841634, "lat": 50.9212937, "lon": 6.9072945}, {"type": "node", "id": 2613841646, "lat": 50.9213214, "lon": 6.907438}, {"type": "node", "id": 2613841679, "lat": 50.9213506, "lon": 6.9073964}, {"type": "node", "id": 2613841685, "lat": 50.9213552, "lon": 6.9072085}, {"type": "node", "id": 2613841715, "lat": 50.9213706, "lon": 6.9075301}, {"type": "node", "id": 2613841785, "lat": 50.9214588, "lon": 6.9074016}, {"type": "node", "id": 2636515777, "lat": 50.9369834, "lon": 6.899318, "tags": {"addr:postcode": "50933", "amenity": "restaurant", "cuisine": "chinese;asian", "name": "Lin's Garden", "opening_hours": "Mo-Sa 10:30-15:00, 17:30-23:00; Su 10:30-23:00", "phone": "+49 221 4747795", "source": "Openstreetbugs"}}, {"type": "node", "id": 2638094510, "lat": 50.9197197, "lon": 6.9099238, "tags": {"addr:city": "K\u00f6ln", "addr:housenumber": "380", "addr:postcode": "50935", "addr:street": "Z\u00fclpicher Stra\u00dfe", "amenity": "restaurant", "capacity": "20", "check_date": "2022-11-12", "cuisine": "pizza", "name": "Osteria Pane e Vino", "opening_hours": "Mo off; Tu-Su 12:00-14:45,18:00-21:00", "phone": "+49 221 94388111"}}, {"type": "node", "id": 2641477319, "lat": 50.9313514, "lon": 6.9185543, "tags": {"addr:city": "K\u00f6ln", "addr:housenumber": "122", "addr:postcode": "50931", "addr:street": "D\u00fcrener Stra\u00dfe", "amenity": "restaurant", "brand": "Hans im Gl\u00fcck", "brand:wikidata": "Q22569868", "brand:wikipedia": "de:Hans im Gl\u00fcck (Restaurantkette)", "cuisine": "burger", "email": "lindenthal@hansimglueck-burgergrill.de", "name": "Hans im Gl\u00fcck", "opening_hours": "Mo-Th 12:00-23:00; Fr,Sa 11:00-24:00, Su 12:00-23:00", "phone": "+49 221 94194211", "takeaway": "yes", "website": "https://hansimglueck-burgergrill.de/standorte/koeln-lindenthal", "website:menu": "https://hansimglueck-burgergrill.de/speisen-getraenke/", "wheelchair": "no"}}, {"type": "node", "id": 3667653399, "lat": 50.9274963, "lon": 6.9037148, "tags": {"amenity": "restaurant", "cuisine": "international", "name": "Vitruv", "opening_hours": "Mo-Su 06:30-10:30,12:00-22:00", "outdoor_seating": "yes", "phone": "+49 221 4676831"}}, {"type": "node", "id": 4458435599, "lat": 50.9369038, "lon": 6.9014647, "tags": {"addr:postcode": "50933", "amenity": "restaurant", "cuisine": "thai", "name": "Lannathai", "opening_hours": "Mo-Fr 12:00-15:00, 17:30-23:00; Sa 15:00-00:00", "phone": "+49 221 45341856", "website": "http://www.lannathai.de"}}, {"type": "node", "id": 4465312862, "lat": 50.9385144, "lon": 6.9089628, "tags": {"amenity": "restaurant", "cuisine": "italian", "name": "cantinetta osteria", "opening_hours": "Mo-Su, PH 12:00-22:00", "outdoor_seating": "yes", "website": "https://www.ameronhotels.com/de/hotel-regent-koeln/cantinetta-restaurant-ehrenfeld"}}, {"type": "node", "id": 5294218004, "lat": 50.9209311, "lon": 6.9180467, "tags": {"amenity": "restaurant", "cuisine": "italian", "name": "Fellini", "opening_hours": "Mo-Su 12:00-15:00, 18:00-23:00; Dec 24-25 off", "phone": "+49 221 441900", "website": "http://www.felliniristorante.de/"}}, {"type": "node", "id": 5597083331, "lat": 50.9416812, "lon": 6.9088459, "tags": {"addr:city": "K\u00f6ln", "addr:housenumber": "2", "addr:postcode": "50933", "addr:street": "Stolberger Stra\u00dfe", "amenity": "restaurant", "cuisine": "pizza", "diet:vegetarian": "yes", "name": "Lopes", "opening_hours": "Mo-Fr 11:30-15:00,18:00-22:00; Sa18:00-22:00", "phone": "+49 221 987 47 547"}}, {"type": "node", "id": 6225647560, "lat": 50.9310719, "lon": 6.8775554, "tags": {"entrance": "yes"}}, {"type": "node", "id": 6225647562, "lat": 50.9312149, "lon": 6.8775138, "tags": {"entrance": "main"}}, {"type": "node", "id": 6564494808, "lat": 50.9220637, "lon": 6.9208214, "tags": {"addr:city": "K\u00f6ln", "addr:housenumber": "296", "addr:postcode": "50937", "addr:street": "Z\u00fclpicher Stra\u00dfe", "amenity": "restaurant", "cuisine": "french", "name": "Le Bouffon", "shop": "deli"}}, {"type": "node", "id": 6565962829, "lat": 50.9213002, "lon": 6.9182683, "tags": {"addr:city": "K\u00f6ln", "addr:housenumber": "200", "addr:postcode": "50937", "addr:street": "S\u00fclzburgstra\u00dfe", "amenity": "restaurant", "brand": "Bellavista", "cuisine": "italian", "name": "Bellavista"}}, {"type": "node", "id": 6566004374, "lat": 50.9213229, "lon": 6.9186802, "tags": {"addr:city": "K\u00f6ln", "addr:housenumber": "229", "addr:postcode": "50937", "addr:street": "S\u00fclzburgstra\u00dfe", "amenity": "restaurant", "cuisine": "german", "name": "Zur S\u00fclzburg"}}, {"type": "node", "id": 7018558486, "lat": 50.9257753, "lon": 6.8962363, "tags": {"addr:postcode": "50935", "amenity": "restaurant", "cuisine": "italian_pizza", "name": "Pizzeria Salute", "opening_hours": "Mo-Fr,Su 12:00-15:00,18:00-23:00;Sa 18:00-23:00", "phone": "+49 221 28285020"}}, {"type": "node", "id": 7934508376, "lat": 50.9274839, "lon": 6.9088235, "tags": {"addr:housenumber": "105", "addr:street": "Lindenthalg\u00fcrtel", "amenity": "restaurant", "check_date": "2022-10-16", "contact:instagram": "https://www.instagram.com/querdurchsbeet", "cuisine": "international", "diet:vegan": "yes", "diet:vegetarian": "yes", "email": "info@querdurchsbeet-koeln.de", "name": "Quer durch's Beet", "opening_hours": "Mo-Fr 11:00-19:00; Sa 12:00-18:00; Su,PH off", "outdoor_seating": "yes", "phone": "+49 176 56961100", "website": "https://querdurchsbeet-koeln.de"}}, {"type": "node", "id": 9280701395, "lat": 50.9253571, "lon": 6.9195495, "tags": {"amenity": "restaurant", "name": "Minervas Lounge", "website": "http://www.minervas-lounge.de"}}, {"type": "node", "id": 9711072902, "lat": 50.9233887, "lon": 6.9117962, "tags": {"addr:city": "K\u00f6ln", "addr:housenumber": "29", "addr:postcode": "50935", "addr:street": "Lindenthalg\u00fcrtel", "amenity": "restaurant", "check_date": "2022-10-03", "cuisine": "greek;tapas", "indoor_seating": "yes", "name": "Phili's", "opening_hours": "Mo-Sa 17:00-24:00", "outdoor_seating": "yes", "payment:mastercard": "yes", "payment:visa": "yes", "phone": "+49 221 97755623", "website": "http://www.philis-restaurant.de/"}}, {"type": "node", "id": 10705441500, "lat": 50.9369844, "lon": 6.8996575, "tags": {"addr:city": "K\u00f6ln", "addr:housenumber": "509", "addr:postcode": "50933", "addr:street": "Aachener Stra\u00dfe", "amenity": "restaurant", "contact:phone": "+49 221 56076030", "cuisine": "middle_eastern,mediterranean,falafel", "diet:vegetarian": "yes", "name": "Lim Food", "opening_hours": "Mo-Sa 11:00-22:00,Su 12:00-22:00"}}, {"type": "node", "id": 10799155750, "lat": 50.9366053, "lon": 6.9137709, "tags": {"addr:housenumber": "321", "addr:street": "Aachener Stra\u00dfe", "amenity": "restaurant", "check_date": "2023-04-10", "contact:phone": "+49 221 404651", "cuisine": "balkan", "name": "Alt Melaten", "note:opening_hours": "\u00d6ffnungszeiten an Feiertagen nach Aussage des Inhabers", "opening_hours": "Tu-Su,PH 11:00-15:00,17:00-24:00; Dec 24-25 off", "operator": "Familie Dilber", "payment:cash": "yes"}}, {"type": "way", "id": 247289582, "nodes": [2542014956, 2542014960, 2542014984, 2542014996, 2542014982, 2542014998, 2542014972, 2542015006, 2542014987, 2542014969, 2542014967, 2542014938, 2542014956], "tags": {"addr:housenumber": "371", "addr:postcode": "50935", "addr:street": "Gleueler Stra\u00dfe", "amenity": "restaurant", "building": "yes", "cuisine": "german", "name": "Decksteiner M\u00fchle", "opening_hours": "Mo-Su 12:00-24:00", "outdoor_seating": "yes", "website": "https://decksteiner-muehle.de/"}}, {"type": "way", "id": 248729481, "nodes": [2554749266, 2554749286, 2554749293, 2554749297, 2554749308, 2554749316, 2554749329, 2554749270, 2554749263, 2554749257, 2554749278, 2554749274, 2554749266]}, {"type": "way", "id": 248729483, "nodes": [2554749301, 2554749281, 2554749289, 2554749304, 2554749301]}, {"type": "way", "id": 249810529, "nodes": [2563619881, 2563619882, 2563619883, 2563619884, 2563619889, 6225647562, 2563619891, 2563619886, 2563619887, 2563619885, 2563619892, 2563619871, 2563619868, 2563619851, 2563619849, 2563619874, 2563619873, 2563619879, 6225647560, 2563619872, 2563619866, 2563619864, 2563619847, 2563619846, 2563619862, 2563619861, 2563619870, 2563619869, 2563619875, 2563619877, 2563619881], "tags": {"addr:city": "K\u00f6ln", "addr:country": "DE", "addr:housenumber": "3", "addr:postcode": "50933", "addr:street": "Guts-Muths-Weg", "addr:suburb": "M\u00fcngersdorf", "amenity": "restaurant", "building": "yes", "name": "Club Astoria", "opening_hours": "Tu-Sa 12:00-24:00; Su 10:30-24:00", "outdoor_seating": "yes", "payment:cash": "yes", "website": "https://www.club-astoria.eu/", "wheelchair": "yes"}}, {"type": "way", "id": 255712103, "nodes": [2613841685, 2613841634, 2613841679, 2613841646, 2613841715, 2613841785, 2613841685], "tags": {"addr:city": "K\u00f6ln", "addr:country": "DE", "addr:housenumber": "210", "addr:postcode": "50935", "addr:street": "Gleueler Stra\u00dfe", "amenity": "restaurant", "building": "yes", "building:use": "residential;industrial", "name": "Zum Buss"}}, {"type": "relation", "id": 3348366, "members": [{"type": "way", "ref": 248729481, "role": "outer"}, {"type": "way", "ref": 248729483, "role": "inner"}], "tags": {"addr:city": "K\u00f6ln", "addr:country": "DE", "addr:housenumber": "420", "addr:postcode": "50935", "addr:street": "Bachemer Landstra\u00dfe", "amenity": "restaurant", "building": "yes", "building:use": "foodservice", "contact:website": "https://www.hausamseekoeln.de", "name": "Haus am See", "outdoor_seating": "yes", "type": "multipolygon", "wheelchair": "yes"}}]}