{"version": 0.6, "generator": "Overpass API 0.7.60.2 e4cf9f7a", "osm3s": {"timestamp_osm_base": "2023-04-29T12:57:54Z", "copyright": "The data included in this document is from www.openstreetmap.org. The data is made available under ODbL."}, "elements": [{"type": "node", "id": 300885438, "lat": 50.8662103, "lon": 7.0477924, "tags": {"addr:city": "K\u00f6ln", "addr:country": "DE", "addr:housenumber": "20", "addr:postcode": "51143", "addr:street": "Wahner Stra\u00dfe", "amenity": "restaurant", "cuisine": "italian", "name": "La Vecchia", "opening_hours": "Tu-Fr 11:30-14:30,17:30-22:30; Sa 17:30-22:30; Su 11:30-22:00; PH 11:30-23:00", "takeaway": "yes"}}, {"type": "node", "id": 1447355470, "lat": 50.863321, "lon": 7.0372862, "tags": {"amenity": "restaurant", "contact:phone": "+49 2203 640 03", "cuisine": "greek", "name": "Zum St. Martin", "wheelchair": "no"}}, {"type": "node", "id": 2598896989, "lat": 50.8703948, "lon": 7.0453717}, {"type": "node", "id": 2598897102, "lat": 50.8704385, "lon": 7.0452627}, {"type": "node", "id": 2598897137, "lat": 50.8704556, "lon": 7.0454334}, {"type": "node", "id": 2598897200, "lat": 50.8704884, "lon": 7.0451379}, {"type": "node", "id": 2598897218, "lat": 50.8704996, "lon": 7.0453231}, {"type": "node", "id": 2598897327, "lat": 50.8705708, "lon": 7.0453931}, {"type": "node", "id": 2598897435, "lat": 50.87062, "lon": 7.0452702}, {"type": "node", "id": 2598903227, "lat": 50.8730754, "lon": 7.0487818, "tags": {"amenity": "restaurant", "cuisine": "german", "name": "Restaurant am Yachthafen", "operator": "Club f\u00fcr Wassersport Porz", "website": "http://www.amyachthafen-zuendorf.de/"}}, {"type": "node", "id": 2598903235, "lat": 50.8686946, "lon": 7.0428179, "tags": {"addr:city": "K\u00f6ln", "addr:housenumber": "12", "addr:postcode": "51143", "addr:street": "Burgweg", "amenity": "restaurant", "contact:facebook": "https://www.facebook.com/Trattoriasorriso/", "contact:phone": "+49 2203 5698303", "cuisine": "italian;italian_pizza", "name": "Trattoria Sorriso im Bitzhof", "outdoor_seating": "yes", "start_date": "2019-08-01", "wheelchair": "no"}}, {"type": "node", "id": 2696434331, "lat": 50.8692644, "lon": 7.0430579, "tags": {"amenity": "restaurant", "contact:email": "guellich-tom@t-online.de", "contact:facebook": "https://www.facebook.com/GastronomieBacchus/", "contact:phone": "+49 2203 8067257", "cuisine": "german", "name": "Bacchus", "opening_hours": "Mo,Th-Sa 16:00-22:00; Su 12:00-21:00; Tu,We off"}}, {"type": "node", "id": 2696434358, "lat": 50.8687327, "lon": 7.0420494, "tags": {"amenity": "restaurant", "cuisine": "pizza", "name": "Veranda", "wheelchair": "no"}}, {"type": "node", "id": 2696456139, "lat": 50.8697959, "lon": 7.043718, "tags": {"amenity": "restaurant", "cuisine": "steak", "email": "info@groov-terrasse.de", "name": "Groov-Terasse", "opening_hours": "Mo,Th 12:00+; Tu-We off; Fr-Su 12:00+", "outdoor_seating": "yes", "toilets:wheelchair": "no", "website": "https://groov-terrasse.de/", "wheelchair": "no"}}, {"type": "node", "id": 2696456147, "lat": 50.8694138, "lon": 7.0432627, "tags": {"amenity": "restaurant", "email": "landhaus_zuendorf@gmx.de", "name": "Landhaus Z\u00fcndorf", "opening_hours": "Tu-Su 12:00-24:00; Mo off", "website": "https://landhaus-zuendorf.de/", "wheelchair": "limited"}}, {"type": "node", "id": 9755582674, "lat": 50.8695909, "lon": 7.0460719, "tags": {"addr:city": "K\u00f6ln", "addr:housenumber": "176-180", "addr:postcode": "51143", "addr:street": "Hauptstra\u00dfe", "addr:suburb": "Z\u00fcndorf", "amenity": "restaurant", "cuisine": "german", "email": "hauszuendorf@web.de", "name": "Haus Z\u00fcndorf", "phone": "+49 2203 6059604", "website": "https://haus-zuendorf-koeln.eatbu.com/"}}, {"type": "node", "id": 9755582678, "lat": 50.8673168, "lon": 7.0464144, "tags": {"addr:city": "K\u00f6ln", "addr:housenumber": "56", "addr:postcode": "51143", "addr:street": "Schmittgasse", "amenity": "restaurant", "cuisine": "pizza", "delivery": "yes", "name": "Pizza Oriano", "phone": "+4922038097454"}}, {"type": "way", "id": 254059886, "nodes": [2598897435, 2598897200, 2598897102, 2598896989, 2598897137, 2598897218, 2598897327, 2598897435], "tags": {"addr:city": "K\u00f6ln", "addr:country": "DE", "addr:housenumber": "181", "addr:postcode": "51143", "addr:street": "Hauptstra\u00dfe", "amenity": "restaurant", "building": "yes", "building:levels": "2", "building:use": "foodservice", "historic": "yes", "name": "Turmhof"}}]}