{"version": 0.6, "generator": "Overpass API 0.7.60.2 e4cf9f7a", "osm3s": {"timestamp_osm_base": "2023-04-29T12:57:54Z", "copyright": "The data included in this document is from www.openstreetmap.org. The data is made available under ODbL."}, "elements": [{"type": "node", "id": 495700413, "lat": 50.930395, "lon": 7.0469184, "tags": {"amenity": "restaurant", "delivery": "yes", "name": "Restaurant - Pizzeria By Teras", "opening_hours": "Mo-Su 08:00-24:00", "outdoor_seating": "terrace"}}, {"type": "node", "id": 2915452502, "lat": 50.9293002, "lon": 7.041674, "tags": {"addr:city": "K\u00f6ln", "addr:country": "DE", "addr:housenumber": "2", "addr:postcode": "51107", "addr:street": "R\u00f6srather Stra\u00dfe", "amenity": "restaurant", "cuisine": "kebab", "name": "Ostheimer Grill Pizzeria", "opening_hours:signed": "no"}}, {"type": "node", "id": 3984851745, "lat": 50.9289448, "lon": 7.0410845, "tags": {"addr:city": "K\u00f6ln", "addr:housenumber": "714", "addr:postcode": "51107", "addr:street": "Frankfurter Stra\u00dfe", "amenity": "restaurant", "delivery": "no", "name": "Schwarzwaldstube", "phone": "+49 221 16932085", "smoking": "outside", "takeaway": "no", "website": "http://schwarzwaldstube-koeln.de"}}, {"type": "node", "id": 10692916705, "lat": 50.9316, "lon": 7.0396622, "tags": {"amenity": "restaurant", "contact:instagram": "the_garden_koeln", "name": "The Garden", "opening_hours": "Mo-Su 09:00-23:00"}}]}