{"version": 0.6, "generator": "Overpass API 0.7.60 f4c14d41", "osm3s": {"timestamp_osm_base": "2023-04-29T14:48:24Z", "copyright": "The data included in this document is from www.openstreetmap.org. The data is made available under ODbL."}, "elements": [{"type": "node", "id": 311163504, "lat": 50.9359569, "lon": 7.0209933}, {"type": "node", "id": 311163506, "lat": 50.9357909, "lon": 7.0210634}, {"type": "node", "id": 311163509, "lat": 50.9360001, "lon": 7.0212795}, {"type": "node", "id": 311163512, "lat": 50.9358341, "lon": 7.0213495}, {"type": "node", "id": 311163520, "lat": 50.9358082, "lon": 7.0211783}, {"type": "node", "id": 311168810, "lat": 50.9365243, "lon": 7.0211514, "tags": {"amenity": "recycling", "location": "overground", "recycling:glass": "yes", "recycling:shoes": "yes", "recycling_type": "container", "source": "photography"}}, {"type": "node", "id": 311168812, "lat": 50.9360117, "lon": 7.0212386, "tags": {"amenity": "recycling", "recycling:clothes": "yes", "source": "photography"}}, {"type": "node", "id": 311184813, "lat": 50.9362297, "lon": 7.0198532}, {"type": "node", "id": 311184822, "lat": 50.9362285, "lon": 7.0202485}, {"type": "node", "id": 311184824, "lat": 50.9361427, "lon": 7.0199088}, {"type": "node", "id": 311791714, "lat": 50.9362828, "lon": 7.0176156}, {"type": "node", "id": 311791715, "lat": 50.936342, "lon": 7.0176335}, {"type": "node", "id": 311791722, "lat": 50.9361995, "lon": 7.0176127}, {"type": "node", "id": 311791724, "lat": 50.9361844, "lon": 7.017891}, {"type": "node", "id": 311791725, "lat": 50.9362577, "lon": 7.017903}, {"type": "node", "id": 311791747, "lat": 50.9363074, "lon": 7.0179151}, {"type": "node", "id": 312171538, "lat": 50.9358782, "lon": 7.019217, "tags": {"amenity": "recycling", "recycling:clothes": "yes", "source": "photography"}}, {"type": "node", "id": 316255119, "lat": 50.9384905, "lon": 7.0200256, "tags": {"amenity": "fast_food", "name": "Pizza Taxi Turbo", "source": "photography", "wheelchair": "yes"}}, {"type": "node", "id": 320944929, "lat": 50.9388149, "lon": 7.0184382}, {"type": "node", "id": 320944930, "lat": 50.9388561, "lon": 7.0186653}, {"type": "node", "id": 320944931, "lat": 50.9385695, "lon": 7.0187939}, {"type": "node", "id": 320944932, "lat": 50.9385435, "lon": 7.0185606}, {"type": "node", "id": 320947628, "lat": 50.9384309, "lon": 7.0190359, "tags": {"amenity": "cafe", "name": "Esmeralda", "source": "photography"}}, {"type": "node", "id": 320976045, "lat": 50.9396238, "lon": 7.0165278}, {"type": "node", "id": 320976048, "lat": 50.9393764, "lon": 7.0165238}, {"type": "node", "id": 320976052, "lat": 50.9396233, "lon": 7.0167268}, {"type": "node", "id": 320976054, "lat": 50.9393841, "lon": 7.0167898}, {"type": "node", "id": 320978959, "lat": 50.9395871, "lon": 7.0216043}, {"type": "node", "id": 320978961, "lat": 50.9395805, "lon": 7.0212494}, {"type": "node", "id": 320980001, "lat": 50.9397269, "lon": 7.0215506}, {"type": "node", "id": 320980004, "lat": 50.9397262, "lon": 7.0213045}, {"type": "node", "id": 380424959, "lat": 50.9387197, "lon": 7.0199528, "tags": {"amenity": "recycling", "location": "overground", "recycling:glass": "no", "recycling:glass_bottles": "yes", "recycling:shoes": "yes", "recycling_type": "container"}}, {"type": "node", "id": 380442023, "lat": 50.9400673, "lon": 7.0174555, "tags": {"amenity": "recycling", "location": "overground", "recycling:glass": "no", "recycling:glass_bottles": "yes", "recycling_type": "container", "source": "photography"}}, {"type": "node", "id": 381953906, "lat": 50.9401019, "lon": 7.0195011, "tags": {"amenity": "restaurant", "indoor_seating": "yes", "name": "Taj Mahal Masala", "opening_hours": "PH,Tu-Su 11:00-22:30; Mo off", "outdoor_seating": "no", "source": "photography"}}, {"type": "node", "id": 381953969, "lat": 50.9401528, "lon": 7.021197, "tags": {"amenity": "pub", "name": "Em ale Liempott", "source": "photography"}}, {"type": "node", "id": 381953984, "lat": 50.9396973, "lon": 7.0212409}, {"type": "node", "id": 381953995, "lat": 50.939727, "lon": 7.0216078}, {"type": "node", "id": 381966305, "lat": 50.9395074, "lon": 7.0219761}, {"type": "node", "id": 381966308, "lat": 50.939343, "lon": 7.0226161}, {"type": "node", "id": 381981477, "lat": 50.9393844, "lon": 7.0219674, "tags": {"amenity": "recycling", "location": "overground", "recycling:glass": "no", "recycling:glass_bottles": "yes", "recycling_type": "container", "source": "photography"}}, {"type": "node", "id": 386579998, "lat": 50.9392331, "lon": 7.0233148}, {"type": "node", "id": 386579999, "lat": 50.9390645, "lon": 7.0233052}, {"type": "node", "id": 386580000, "lat": 50.9390551, "lon": 7.0237212}, {"type": "node", "id": 386580001, "lat": 50.9392238, "lon": 7.0237307}, {"type": "node", "id": 386580003, "lat": 50.9394021, "lon": 7.0226159}, {"type": "node", "id": 386581499, "lat": 50.9381811, "lon": 7.022412}, {"type": "node", "id": 386581500, "lat": 50.9380224, "lon": 7.0222595}, {"type": "node", "id": 386581501, "lat": 50.938116, "lon": 7.0225824}, {"type": "node", "id": 386581502, "lat": 50.9379573, "lon": 7.0224299}, {"type": "node", "id": 386581503, "lat": 50.9381017, "lon": 7.0223357, "tags": {"entrance": "yes"}}, {"type": "node", "id": 535954893, "lat": 50.9439315, "lon": 7.0259206, "tags": {"amenity": "waste_basket", "waste": "trash"}}, {"type": "node", "id": 554161953, "lat": 50.9403359, "lon": 7.0182966}, {"type": "node", "id": 554161955, "lat": 50.9404189, "lon": 7.0182862}, {"type": "node", "id": 554161957, "lat": 50.9405556, "lon": 7.018411}, {"type": "node", "id": 554161965, "lat": 50.940594, "lon": 7.0182644}, {"type": "node", "id": 554161968, "lat": 50.9405998, "lon": 7.0184054}, {"type": "node", "id": 554166274, "lat": 50.9402657, "lon": 7.017811, "tags": {"amenity": "parcel_locker", "brand": "DHL Packstation", "brand:wikidata": "Q1766703", "brand:wikipedia": "de:Packstation", "operator": "DHL", "operator:wikidata": "Q489815", "operator:wikipedia": "de:DHL", "parcel_mail_in": "yes", "parcel_pickup": "yes", "postal_code": "51103", "ref": "129", "source": "survey", "website": "https://www.packstation.de/"}}, {"type": "node", "id": 554166275, "lat": 50.9402507, "lon": 7.0179261, "tags": {"amenity": "parcel_locker", "check_date": "2023-04-11", "operator": "DHL", "parcel_mail_in": "yes", "postal_code": "51103", "source": "survey"}}, {"type": "node", "id": 554166280, "lat": 50.9402347, "lon": 7.0180078, "tags": {"amenity": "post_box", "check_date": "2021-01-07", "collection_times": "Mo-Fr 14:30,17:30, Sa 12:30, Su 09:00", "operator": "Deutsche Post", "operator:wikidata": "Q157645", "operator:wikipedia": "de:Deutsche Post AG"}}, {"type": "node", "id": 559925669, "lat": 50.9413146, "lon": 7.0182949, "tags": {"amenity": "bench", "backrest": "no", "check_date": "2022-10-10", "colour": "green", "material": "metal", "seats": "4", "source": "photography"}}, {"type": "node", "id": 559931793, "lat": 50.9414692, "lon": 7.0187922, "tags": {"amenity": "bench", "backrest": "no", "material": "wood", "seats": "8", "source": "photography"}}, {"type": "node", "id": 559934280, "lat": 50.9414886, "lon": 7.0224524, "tags": {"amenity": "telephone", "check_date": "2022-05-26", "operator": "Deutsche Telekom AG", "source": "photography"}}, {"type": "node", "id": 559934301, "lat": 50.9414, "lon": 7.0223903, "tags": {"amenity": "recycling", "location": "overground", "recycling:glass": "no", "recycling:glass_bottles": "yes", "recycling_type": "container", "source": "photography"}}, {"type": "node", "id": 637570851, "lat": 50.9402193, "lon": 7.0219799, "tags": {"amenity": "pharmacy", "contact:email": "info@vital-apotheke-koeln.de", "contact:fax": "+49 221 49293929", "contact:phone": "+49 221 4929390", "contact:website": "http://www.vital-apotheke-hoehenberg.de/", "dispensing": "yes", "name": "Vital-Apotheke", "opening_hours": "Mo-Th 08:30-13:30,14:30-18:30; Fr 08:30-18:30; Sa 09:00-13:30", "operator": "Iris Zeien", "wheelchair": "yes"}}, {"type": "node", "id": 637570854, "lat": 50.9404069, "lon": 7.0242103, "tags": {"amenity": "atm", "brand": "Deutsche Bank", "brand:wikidata": "Q66048", "brand:wikipedia": "en:Deutsche Bank", "check_date": "2021-01-07", "operator": "Deutsche Bank", "operator:wikidata": "Q66048", "operator:wikipedia": "en:Deutsche Bank", "wheelchair": "yes"}}, {"type": "node", "id": 637570857, "lat": 50.940402, "lon": 7.0243479, "tags": {"addr:city": "K\u00f6ln", "addr:housenumber": "91", "addr:postcode": "51103", "addr:street": "Olpener Stra\u00dfe", "amenity": "driving_school", "name": "Fahrschule Walter Manz", "opening_hours": "Mo 17:00-19:00; We 17:00-19:00", "phone": "+49 221 872842"}}, {"type": "node", "id": 637570861, "lat": 50.9401986, "lon": 7.0215309, "tags": {"amenity": "atm", "cash_in": "no", "check_date": "2022-05-26", "operator": "Sparkasse K\u00f6lnBonn"}}, {"type": "node", "id": 638246225, "lat": 50.9402061, "lon": 7.0239882, "tags": {"amenity": "post_box", "collection_times": "Mo-Fr 17:15, Sa 12:30", "operator": "Deutsche Post", "operator:wikidata": "Q157645", "operator:wikipedia": "de:Deutsche Post AG", "source": "survey"}}, {"type": "node", "id": 648837479, "lat": 50.9413786, "lon": 7.0256567}, {"type": "node", "id": 666946070, "lat": 50.9424766, "lon": 7.019939}, {"type": "node", "id": 666946128, "lat": 50.9416107, "lon": 7.0212855}, {"type": "node", "id": 730936241, "lat": 50.9409917, "lon": 7.0222229, "tags": {"amenity": "cafe", "name": "Mix", "source": "photography"}}, {"type": "node", "id": 730936270, "lat": 50.9404291, "lon": 7.0214444, "tags": {"addr:city": "K\u00f6ln", "addr:housenumber": "53", "addr:postcode": "51103", "addr:street": "Olpener Stra\u00dfe", "amenity": "fast_food", "check_date:opening_hours": "2021-11-07", "cuisine": "kebab;pizza;noodle", "diet:meat": "yes", "diet:vegan": "yes", "diet:vegetarian": "yes", "email": "manite@gmx.de", "name": "Istanbul Grill", "opening_hours": "Mo-Th 11:00-23:00; Fr-Sa 11:00-24:00; Su 12:00-23:00", "phone": "+49 221 839 23 34", "source": "https://istanbulgrill.metro.rest", "website": "https://istanbulgrill.metro.rest", "wheelchair": "limited"}}, {"type": "node", "id": 730936276, "lat": 50.9403933, "lon": 7.0196817, "tags": {"amenity": "gambling", "name": "Casino"}}, {"type": "node", "id": 847541771, "lat": 50.9401019, "lon": 7.0305217, "tags": {"addr:city": "K\u00f6ln", "addr:country": "DE", "addr:housenumber": "264", "addr:postcode": "51103", "addr:street": "Olpener Stra\u00dfe", "amenity": "pub", "name": "Gastst\u00e4tte Gronau"}}, {"type": "node", "id": 847541809, "lat": 50.9401049, "lon": 7.0304002, "tags": {"addr:city": "K\u00f6ln", "addr:country": "DE", "addr:housenumber": "262", "addr:postcode": "51103", "addr:street": "Olpener Stra\u00dfe", "amenity": "cafe", "cuisine": "cake", "name": "Konditorei Kl\u00fcppelberg", "opening_hours": "We-Sa 08:30-17:00; Su 10:00-17:30", "website": "http://www.konditorei-klueppelberg.de/", "wheelchair": "limited", "yelp": "http://www.yelp.de/biz/konditorei-kl%C3%BCppelberg-k%C3%B6ln-2"}}, {"type": "node", "id": 967686806, "lat": 50.9359549, "lon": 7.0200765, "tags": {"amenity": "bench", "backrest": "yes", "colour": "green", "material": "metal", "seats": "3"}}, {"type": "node", "id": 967686814, "lat": 50.9360718, "lon": 7.020339, "tags": {"amenity": "bench", "backrest": "yes", "colour": "green", "material": "metal", "seats": "3"}}, {"type": "node", "id": 967686816, "lat": 50.9356992, "lon": 7.0194706, "tags": {"amenity": "bench", "backrest": "yes", "colour": "green", "material": "metal", "seats": "3"}}, {"type": "node", "id": 990227286, "lat": 50.9435431, "lon": 7.0271559}, {"type": "node", "id": 990227306, "lat": 50.9436983, "lon": 7.0269364}, {"type": "node", "id": 990227343, "lat": 50.944135, "lon": 7.0278117}, {"type": "node", "id": 990227344, "lat": 50.944116, "lon": 7.0275176}, {"type": "node", "id": 990227414, "lat": 50.9435696, "lon": 7.027813}, {"type": "node", "id": 990227450, "lat": 50.9441502, "lon": 7.0271547}, {"type": "node", "id": 990227603, "lat": 50.9441477, "lon": 7.0271143}, {"type": "node", "id": 990227607, "lat": 50.9435858, "lon": 7.0271045}, {"type": "node", "id": 990227640, "lat": 50.94318, "lon": 7.0276456}, {"type": "node", "id": 990227722, "lat": 50.9440647, "lon": 7.026453}, {"type": "node", "id": 990239588, "lat": 50.9453132, "lon": 7.0238359, "tags": {"amenity": "post_box", "check_date:collection_times": "2021-04-26", "collection_times": "Mo-Fr 16:45, Sa 11:30", "operator": "Post AG"}}, {"type": "node", "id": 992820075, "lat": 50.9441778, "lon": 7.0275006}, {"type": "node", "id": 1213237976, "lat": 50.9366753, "lon": 7.0238981, "tags": {"amenity": "recycling", "location": "overground", "recycling:glass": "yes", "recycling_type": "container"}}, {"type": "node", "id": 1213238007, "lat": 50.9370105, "lon": 7.0239784, "tags": {"amenity": "telephone", "operator": "Deutsche Telekom", "operator:wikidata": "Q9396", "payment:coins": "yes", "payment:telephone_cards": "yes"}}, {"type": "node", "id": 1213238090, "lat": 50.9397957, "lon": 7.0256243, "tags": {"amenity": "recycling", "recycling:glass": "yes"}}, {"type": "node", "id": 1215913503, "lat": 50.9378022, "lon": 7.0208563, "tags": {"amenity": "bicycle_parking", "capacity": "6"}}, {"type": "node", "id": 1233525940, "lat": 50.9370705, "lon": 7.0260396, "tags": {"amenity": "bench", "backrest": "yes", "colour": "green", "material": "metal"}}, {"type": "node", "id": 1233525998, "lat": 50.9364641, "lon": 7.0252564, "tags": {"amenity": "bench", "backrest": "yes", "colour": "green", "material": "metal", "seats": "3"}}, {"type": "node", "id": 1233526099, "lat": 50.9371174, "lon": 7.0260043, "tags": {"amenity": "bench", "backrest": "yes", "colour": "green", "material": "metal"}}, {"type": "node", "id": 1233526126, "lat": 50.9364052, "lon": 7.025181, "tags": {"amenity": "bench", "backrest": "yes", "colour": "green", "material": "metal", "seats": "3"}}, {"type": "node", "id": 1233526188, "lat": 50.9364499, "lon": 7.0251776, "tags": {"amenity": "bench", "backrest": "yes", "colour": "green", "material": "metal", "seats": "3"}}, {"type": "node", "id": 1233526230, "lat": 50.937162, "lon": 7.0259707, "tags": {"amenity": "bench", "backrest": "yes", "colour": "green", "material": "metal"}}, {"type": "node", "id": 1233526250, "lat": 50.9364279, "lon": 7.0251686, "tags": {"amenity": "waste_basket"}}, {"type": "node", "id": 1233526274, "lat": 50.937027, "lon": 7.0260723, "tags": {"amenity": "bench", "backrest": "yes", "colour": "green", "material": "metal"}}, {"type": "node", "id": 1233526319, "lat": 50.9364634, "lon": 7.0252125, "tags": {"amenity": "waste_basket"}}, {"type": "node", "id": 1303883025, "lat": 50.9414336, "lon": 7.0233434, "tags": {"access": "private", "amenity": "parking_entrance", "maxheight": "2", "parking": "underground"}}, {"type": "node", "id": 1305716447, "lat": 50.9488033, "lon": 7.0186157}, {"type": "node", "id": 1305716467, "lat": 50.9489946, "lon": 7.0183543}, {"type": "node", "id": 1305716566, "lat": 50.9488637, "lon": 7.018244}, {"type": "node", "id": 1305716691, "lat": 50.9487475, "lon": 7.0183726}, {"type": "node", "id": 1305716718, "lat": 50.9494194, "lon": 7.0183163}, {"type": "node", "id": 1348164400, "lat": 50.9393867, "lon": 7.0219274, "tags": {"amenity": "recycling", "location": "overground", "operator": "AWB K\u00f6ln", "recycling:clothes": "yes", "recycling_type": "container"}}, {"type": "node", "id": 1397429313, "lat": 50.947819, "lon": 7.036778, "tags": {"amenity": "shelter"}}, {"type": "node", "id": 1457828989, "lat": 50.9393742, "lon": 7.02193}, {"type": "node", "id": 1646033710, "lat": 50.9431849, "lon": 7.0275838}, {"type": "node", "id": 1646033718, "lat": 50.9431884, "lon": 7.0277231}, {"type": "node", "id": 1646033722, "lat": 50.9432404, "lon": 7.027732}, {"type": "node", "id": 1668937430, "lat": 50.9404644, "lon": 7.023202, "tags": {"amenity": "place_of_worship", "denomination": "sunni", "name": "Mevlana-Moschee", "organisation": "DITIB", "religion": "muslim"}}, {"type": "node", "id": 1681928821, "lat": 50.9405507, "lon": 7.0197261, "tags": {"addr:city": "K\u00f6ln", "addr:housenumber": "33-35", "addr:postcode": "51103", "addr:street": "Olpener Stra\u00dfe", "amenity": "place_of_worship", "denomination": "shia", "name": "Islamisches Kulturzentrum K\u00f6ln - Schiitische Gemeinde", "operator": "Markaze Islami Farhangi K\u00f6ln e.V.", "operator2": "Gemeinschaft der Mitte e.V.", "religion": "muslim"}}, {"type": "node", "id": 1686246657, "lat": 50.9396768, "lon": 7.019197}, {"type": "node", "id": 1686246660, "lat": 50.9398559, "lon": 7.0191136}, {"type": "node", "id": 1765266273, "lat": 50.9424478, "lon": 7.0200884, "tags": {"amenity": "fast_food"}}, {"type": "node", "id": 2329975932, "lat": 50.9394681, "lon": 7.0319835}, {"type": "node", "id": 2329975934, "lat": 50.9394172, "lon": 7.0318907}, {"type": "node", "id": 2329975935, "lat": 50.9394241, "lon": 7.0316149}, {"type": "node", "id": 2329975937, "lat": 50.9395613, "lon": 7.031611}, {"type": "node", "id": 2329975941, "lat": 50.9396066, "lon": 7.0317885}, {"type": "node", "id": 2379133032, "lat": 50.9422894, "lon": 7.0192301}, {"type": "node", "id": 2379133034, "lat": 50.9423356, "lon": 7.0200281}, {"type": "node", "id": 2379133035, "lat": 50.9424149, "lon": 7.0199004}, {"type": "node", "id": 2379133036, "lat": 50.9424232, "lon": 7.0192479}, {"type": "node", "id": 2697806614, "lat": 50.9401453, "lon": 7.0239384, "tags": {"amenity": "social_centre", "name": "Interkulturelles Zentrum - HAMIAM, help a minorrity in a minority e.V.", "opening_hours": "Mo 10:00-16:00", "source": "survey", "website": "http://hamiam.de"}}, {"type": "node", "id": 2697806621, "lat": 50.9401454, "lon": 7.0210785, "tags": {"amenity": "gambling", "name": "tipico"}}, {"type": "node", "id": 2697806627, "lat": 50.9401512, "lon": 7.0212907, "tags": {"alt_name": "SPZ K\u00f6ln-Kalk", "amenity": "social_facility", "contact:email": "info@spz-koeln-kalk.de", "contact:phone": "+49 221 991820", "contact:website": "http://www.spz-koeln-kalk.de", "health_facility:type": "counselling_centre", "name": "Sozialpsychiatrisches Zentrum K\u00f6ln-Kalk", "opening_hours": "Mo 11:00-16:00; Tu 13:30-17:30; Th 13:30-19:30; Fr 12:30-16:30", "social_facility": "ambulatory_care"}}, {"type": "node", "id": 2697806629, "lat": 50.9401505, "lon": 7.0235099, "tags": {"amenity": "social_centre", "name": "Sozialdienst f\u00fcr Italiener - Patronato SiaS", "name:it": "Servizio Italiano Assistenza Sociale", "source": "survey"}}, {"type": "node", "id": 2697806631, "lat": 50.9401312, "lon": 7.0236939, "tags": {"amenity": "gambling", "name": "Spielsalon", "opening_hours": "Mo-Su 06:00-00:30", "source": "survey"}}, {"type": "node", "id": 2697806632, "lat": 50.940156, "lon": 7.0230479, "tags": {"amenity": "pub", "name": "Viva Colonia", "source": "survey"}}, {"type": "node", "id": 2697985421, "lat": 50.9394449, "lon": 7.0225272}, {"type": "node", "id": 2697985428, "lat": 50.939489, "lon": 7.02193}, {"type": "node", "id": 2697985430, "lat": 50.9394758, "lon": 7.0222507}, {"type": "node", "id": 2697985437, "lat": 50.939522, "lon": 7.0220124}, {"type": "node", "id": 2709726604, "lat": 50.9392515, "lon": 7.0230968}, {"type": "node", "id": 2709726606, "lat": 50.9392518, "lon": 7.0233927}, {"type": "node", "id": 2709726662, "lat": 50.9395504, "lon": 7.0233918}, {"type": "node", "id": 2709726665, "lat": 50.9395527, "lon": 7.0232438}, {"type": "node", "id": 2709726667, "lat": 50.939555, "lon": 7.0230959}, {"type": "node", "id": 2712349775, "lat": 50.9410226, "lon": 7.0187658}, {"type": "node", "id": 2712349783, "lat": 50.9410317, "lon": 7.0190029}, {"type": "node", "id": 2712349806, "lat": 50.941343, "lon": 7.0187325}, {"type": "node", "id": 2712349810, "lat": 50.9413744, "lon": 7.0189611}, {"type": "node", "id": 2715314711, "lat": 50.9380185, "lon": 7.0194713, "tags": {"access": "private", "amenity": "parking_entrance", "parking": "underground"}}, {"type": "node", "id": 3008673991, "lat": 50.9357035, "lon": 7.018913}, {"type": "node", "id": 3008674012, "lat": 50.9357676, "lon": 7.0189298, "tags": {"entrance": "yes"}}, {"type": "node", "id": 3008674600, "lat": 50.9357059, "lon": 7.0189143}, {"type": "node", "id": 3008674618, "lat": 50.935719, "lon": 7.0187558}, {"type": "node", "id": 3008674620, "lat": 50.9357209, "lon": 7.0187563}, {"type": "node", "id": 3008674621, "lat": 50.9357212, "lon": 7.0187558}, {"type": "node", "id": 3008675036, "lat": 50.935818, "lon": 7.0189424}, {"type": "node", "id": 3008675046, "lat": 50.9358337, "lon": 7.0187838}, {"type": "node", "id": 3008675263, "lat": 50.9360638, "lon": 7.0199593}, {"type": "node", "id": 3008675290, "lat": 50.936278, "lon": 7.0200406}, {"type": "node", "id": 3008675336, "lat": 50.9360302, "lon": 7.0198268}, {"type": "node", "id": 3008675449, "lat": 50.9361488, "lon": 7.0199353}, {"type": "node", "id": 3008675474, "lat": 50.9362208, "lon": 7.0198186}, {"type": "node", "id": 3008675484, "lat": 50.9362345, "lon": 7.0196959}, {"type": "node", "id": 3008675489, "lat": 50.9362365, "lon": 7.0198796}, {"type": "node", "id": 3008675497, "lat": 50.9362455, "lon": 7.0198431}, {"type": "node", "id": 3008675499, "lat": 50.9362523, "lon": 7.0198695}, {"type": "node", "id": 3008675503, "lat": 50.9362594, "lon": 7.0197934}, {"type": "node", "id": 3008675505, "lat": 50.9362767, "lon": 7.0200415}, {"type": "node", "id": 3008675510, "lat": 50.9363148, "lon": 7.0201934}, {"type": "node", "id": 3039419814, "lat": 50.9380411, "lon": 7.0185605}, {"type": "node", "id": 3039419816, "lat": 50.9380657, "lon": 7.0184069}, {"type": "node", "id": 3039419818, "lat": 50.9380899, "lon": 7.0186161}, {"type": "node", "id": 3039419819, "lat": 50.9380953, "lon": 7.0185823}, {"type": "node", "id": 3039419829, "lat": 50.9381723, "lon": 7.0186079}, {"type": "node", "id": 3039419840, "lat": 50.9381939, "lon": 7.0186576}, {"type": "node", "id": 3039419841, "lat": 50.9381967, "lon": 7.018455}, {"type": "node", "id": 3039419843, "lat": 50.9382001, "lon": 7.0186191}, {"type": "node", "id": 3039419916, "lat": 50.9402923, "lon": 7.018302}, {"type": "node", "id": 3039419917, "lat": 50.940298, "lon": 7.0184436}, {"type": "node", "id": 3039420043, "lat": 50.9385045, "lon": 7.0201072}, {"type": "node", "id": 3039420044, "lat": 50.9385066, "lon": 7.020188}, {"type": "node", "id": 3039420047, "lat": 50.9385149, "lon": 7.020164}, {"type": "node", "id": 3039420052, "lat": 50.9385566, "lon": 7.0199781}, {"type": "node", "id": 3039420053, "lat": 50.9385607, "lon": 7.0199755}, {"type": "node", "id": 3039420055, "lat": 50.9385715, "lon": 7.0202447}, {"type": "node", "id": 3039420057, "lat": 50.9385756, "lon": 7.0200611}, {"type": "node", "id": 3039420063, "lat": 50.9386265, "lon": 7.020095}, {"type": "node", "id": 3039420554, "lat": 50.9393611, "lon": 7.0165741}, {"type": "node", "id": 3039420555, "lat": 50.9393616, "lon": 7.0166997}, {"type": "node", "id": 3039420561, "lat": 50.9393765, "lon": 7.016574}, {"type": "node", "id": 3039420562, "lat": 50.939377, "lon": 7.0166995}, {"type": "node", "id": 3039420564, "lat": 50.9393838, "lon": 7.0166996}, {"type": "node", "id": 3039420656, "lat": 50.9395631, "lon": 7.0171406, "tags": {"amenity": "restaurant", "contact:email": "info@philerohotel-koeln.de", "contact:fax": "+49 221 8024100", "contact:phone": "+49 221 802400", "contact:website": "https://www.philerohotel-koeln.de/", "cuisine": "international", "name": "Restaurant La Verde", "opening_hours": "Mo-Sa 06:30-22:30; Su 06:30-11:00", "operator": "PhiLeRo Hotel K\u00f6ln", "smoking": "no", "wheelchair": "yes"}}, {"type": "node", "id": 3039420665, "lat": 50.93961, "lon": 7.0167921}, {"type": "node", "id": 3039420704, "lat": 50.9397983, "lon": 7.0191191}, {"type": "node", "id": 3039420707, "lat": 50.9398223, "lon": 7.0192851}, {"type": "node", "id": 3039420713, "lat": 50.9398828, "lon": 7.0165852}, {"type": "node", "id": 3039420714, "lat": 50.9398831, "lon": 7.0166149}, {"type": "node", "id": 3039420723, "lat": 50.939939, "lon": 7.0165226}, {"type": "node", "id": 3039420724, "lat": 50.9399399, "lon": 7.0166134}, {"type": "node", "id": 3039421536, "lat": 50.9400128, "lon": 7.0165584}, {"type": "node", "id": 3039421538, "lat": 50.9400155, "lon": 7.0165951}, {"type": "node", "id": 3039421935, "lat": 50.9403904, "lon": 7.018432}, {"type": "node", "id": 3039421936, "lat": 50.9403942, "lon": 7.0185223}, {"type": "node", "id": 3039421947, "lat": 50.9404425, "lon": 7.0184253}, {"type": "node", "id": 3039421948, "lat": 50.9404464, "lon": 7.0185167}, {"type": "node", "id": 3039421951, "lat": 50.940449, "lon": 7.0189153}, {"type": "node", "id": 3039421952, "lat": 50.9404517, "lon": 7.0189733}, {"type": "node", "id": 3039421953, "lat": 50.9404553, "lon": 7.019084}, {"type": "node", "id": 3039421954, "lat": 50.9404554, "lon": 7.0190776}, {"type": "node", "id": 3039421955, "lat": 50.9404556, "lon": 7.0190739}, {"type": "node", "id": 3039421968, "lat": 50.9404918, "lon": 7.0189095}, {"type": "node", "id": 3039421971, "lat": 50.9405003, "lon": 7.0190729}, {"type": "node", "id": 3039421972, "lat": 50.9405005, "lon": 7.0190785}, {"type": "node", "id": 3039423332, "lat": 50.9441343, "lon": 7.0200896}, {"type": "node", "id": 3048105174, "lat": 50.9396547, "lon": 7.0192111}, {"type": "node", "id": 3048105175, "lat": 50.9397089, "lon": 7.0192722}, {"type": "node", "id": 3048105176, "lat": 50.9397271, "lon": 7.0193454}, {"type": "node", "id": 3048105177, "lat": 50.939929, "lon": 7.0191943}, {"type": "node", "id": 3048105178, "lat": 50.9399322, "lon": 7.019274}, {"type": "node", "id": 3048105179, "lat": 50.9399562, "lon": 7.0191041}, {"type": "node", "id": 3051898367, "lat": 50.9364674, "lon": 7.027838}, {"type": "node", "id": 3051898373, "lat": 50.9364981, "lon": 7.0233799}, {"type": "node", "id": 3051898381, "lat": 50.9365367, "lon": 7.0271412}, {"type": "node", "id": 3051898385, "lat": 50.9365528, "lon": 7.0234401}, {"type": "node", "id": 3051898386, "lat": 50.9365598, "lon": 7.0234242}, {"type": "node", "id": 3051898390, "lat": 50.9365825, "lon": 7.0234447}, {"type": "node", "id": 3051898392, "lat": 50.9365889, "lon": 7.0231732}, {"type": "node", "id": 3051898394, "lat": 50.9366197, "lon": 7.0262228}, {"type": "node", "id": 3051898400, "lat": 50.9366365, "lon": 7.0232281}, {"type": "node", "id": 3051898401, "lat": 50.9366458, "lon": 7.0232078}, {"type": "node", "id": 3051898404, "lat": 50.9366627, "lon": 7.0281667}, {"type": "node", "id": 3051898406, "lat": 50.9366735, "lon": 7.0232395}, {"type": "node", "id": 3051898407, "lat": 50.9366801, "lon": 7.0257551}, {"type": "node", "id": 3051898413, "lat": 50.9367037, "lon": 7.0229749}, {"type": "node", "id": 3051898677, "lat": 50.9357234, "lon": 7.0268094}, {"type": "node", "id": 3051898695, "lat": 50.9357408, "lon": 7.0267255}, {"type": "node", "id": 3051898864, "lat": 50.9359181, "lon": 7.0254497}, {"type": "node", "id": 3051899033, "lat": 50.9367502, "lon": 7.0228659}, {"type": "node", "id": 3051899036, "lat": 50.93676, "lon": 7.0235394}, {"type": "node", "id": 3051899042, "lat": 50.9367713, "lon": 7.0228883}, {"type": "node", "id": 3051899045, "lat": 50.9367749, "lon": 7.0233195}, {"type": "node", "id": 3051899049, "lat": 50.9367919, "lon": 7.0283447}, {"type": "node", "id": 3051899053, "lat": 50.9368175, "lon": 7.0227798}, {"type": "node", "id": 3051899055, "lat": 50.9368264, "lon": 7.0231952}, {"type": "node", "id": 3051899056, "lat": 50.9368281, "lon": 7.023375}, {"type": "node", "id": 3051899063, "lat": 50.9368504, "lon": 7.0231315}, {"type": "node", "id": 3051899070, "lat": 50.936863, "lon": 7.0236463}, {"type": "node", "id": 3051899080, "lat": 50.9368796, "lon": 7.0232507}, {"type": "node", "id": 3051899113, "lat": 50.9369315, "lon": 7.0234867}, {"type": "node", "id": 3051899123, "lat": 50.9369428, "lon": 7.0229137}, {"type": "node", "id": 3051899127, "lat": 50.9369495, "lon": 7.0234448}, {"type": "node", "id": 3051899131, "lat": 50.9369582, "lon": 7.0235153}, {"type": "node", "id": 3051899239, "lat": 50.9369762, "lon": 7.0234732}, {"type": "node", "id": 3051899243, "lat": 50.9369835, "lon": 7.0233653}, {"type": "node", "id": 3051899286, "lat": 50.9376323, "lon": 7.0236342}, {"type": "node", "id": 3051899302, "lat": 50.937655, "lon": 7.0239689}, {"type": "node", "id": 3051899303, "lat": 50.9376564, "lon": 7.0237167}, {"type": "node", "id": 3051899310, "lat": 50.9376761, "lon": 7.0236807}, {"type": "node", "id": 3051899311, "lat": 50.9376776, "lon": 7.024338}, {"type": "node", "id": 3051899322, "lat": 50.9377292, "lon": 7.0237947}, {"type": "node", "id": 3051899329, "lat": 50.93785, "lon": 7.0271396}, {"type": "node", "id": 3051899385, "lat": 50.9372325, "lon": 7.0234112}, {"type": "node", "id": 3051899395, "lat": 50.9372579, "lon": 7.023209}, {"type": "node", "id": 3051899402, "lat": 50.9372659, "lon": 7.0297511}, {"type": "node", "id": 3051899404, "lat": 50.9372705, "lon": 7.0233187}, {"type": "node", "id": 3051899478, "lat": 50.9371323, "lon": 7.0232833}, {"type": "node", "id": 3051899495, "lat": 50.9371554, "lon": 7.0232271}, {"type": "node", "id": 3051899500, "lat": 50.9371738, "lon": 7.0233508}, {"type": "node", "id": 3051899502, "lat": 50.9371794, "lon": 7.0232518}, {"type": "node", "id": 3051899503, "lat": 50.9371809, "lon": 7.0233333}, {"type": "node", "id": 3051899513, "lat": 50.9372083, "lon": 7.0240201}, {"type": "node", "id": 3051899518, "lat": 50.9372152, "lon": 7.023165}, {"type": "node", "id": 3051899519, "lat": 50.9372168, "lon": 7.0240608}, {"type": "node", "id": 3051899528, "lat": 50.9372316, "lon": 7.0232787}, {"type": "node", "id": 3051899703, "lat": 50.9375346, "lon": 7.0238407}, {"type": "node", "id": 3051900033, "lat": 50.9379223, "lon": 7.0223531}, {"type": "node", "id": 3051900034, "lat": 50.9379725, "lon": 7.022224}, {"type": "node", "id": 3051900038, "lat": 50.9379936, "lon": 7.0221905}, {"type": "node", "id": 3051900039, "lat": 50.9380197, "lon": 7.0221826}, {"type": "node", "id": 3051900040, "lat": 50.9380579, "lon": 7.0222129}, {"type": "node", "id": 3051900041, "lat": 50.9382206, "lon": 7.022938}, {"type": "node", "id": 3051900042, "lat": 50.9382657, "lon": 7.0223961}, {"type": "node", "id": 3051900043, "lat": 50.9383622, "lon": 7.0224663}, {"type": "node", "id": 3051900044, "lat": 50.9384284, "lon": 7.02304}, {"type": "node", "id": 3051900045, "lat": 50.9384457, "lon": 7.0296029}, {"type": "node", "id": 3051900046, "lat": 50.9384515, "lon": 7.0225236}, {"type": "node", "id": 3051900047, "lat": 50.9385289, "lon": 7.0225667}, {"type": "node", "id": 3051900048, "lat": 50.9386834, "lon": 7.0275449}, {"type": "node", "id": 3051900049, "lat": 50.938775, "lon": 7.0295609}, {"type": "node", "id": 3065951473, "lat": 50.9416144, "lon": 7.0213474}, {"type": "node", "id": 3065951474, "lat": 50.9416281, "lon": 7.0215711}, {"type": "node", "id": 3065951475, "lat": 50.9416319, "lon": 7.0216332}, {"type": "node", "id": 3065951478, "lat": 50.9416569, "lon": 7.0212786}, {"type": "node", "id": 3065951482, "lat": 50.9416786, "lon": 7.0216259}, {"type": "node", "id": 3065951486, "lat": 50.9417262, "lon": 7.0215622}, {"type": "node", "id": 3065951487, "lat": 50.9417296, "lon": 7.021618}, {"type": "node", "id": 3065951491, "lat": 50.9417641, "lon": 7.0215357}, {"type": "node", "id": 3065951492, "lat": 50.9417655, "lon": 7.0215566}, {"type": "node", "id": 3065951493, "lat": 50.9417796, "lon": 7.0215029}, {"type": "node", "id": 3065951494, "lat": 50.9417814, "lon": 7.0215328}, {"type": "node", "id": 3065951495, "lat": 50.9418051, "lon": 7.0212563}, {"type": "node", "id": 3065951496, "lat": 50.9418199, "lon": 7.0214967}, {"type": "node", "id": 3065952111, "lat": 50.9437386, "lon": 7.0203969}, {"type": "node", "id": 3065952152, "lat": 50.9441462, "lon": 7.0203437}, {"type": "node", "id": 3070554951, "lat": 50.9443807, "lon": 7.0232515}, {"type": "node", "id": 3070554954, "lat": 50.9444126, "lon": 7.0230211}, {"type": "node", "id": 3070554983, "lat": 50.9447472, "lon": 7.0233759}, {"type": "node", "id": 3070554984, "lat": 50.9447474, "lon": 7.0233794}, {"type": "node", "id": 3070554985, "lat": 50.9447545, "lon": 7.0233784}, {"type": "node", "id": 3070554987, "lat": 50.9447612, "lon": 7.0233807}, {"type": "node", "id": 3070554988, "lat": 50.9447658, "lon": 7.0234386}, {"type": "node", "id": 3070554989, "lat": 50.9448019, "lon": 7.0231576, "tags": {"access": "private", "amenity": "parking_entrance", "parking": "underground"}}, {"type": "node", "id": 3070554990, "lat": 50.9448347, "lon": 7.023171}, {"type": "node", "id": 3070554991, "lat": 50.9448381, "lon": 7.0231844}, {"type": "node", "id": 3070554993, "lat": 50.9449317, "lon": 7.0231648}, {"type": "node", "id": 3070554994, "lat": 50.9449503, "lon": 7.0234019}, {"type": "node", "id": 3070784916, "lat": 50.9414439, "lon": 7.0233843}, {"type": "node", "id": 3070784920, "lat": 50.9414457, "lon": 7.0234567}, {"type": "node", "id": 3070784922, "lat": 50.9414476, "lon": 7.0235289}, {"type": "node", "id": 3070784924, "lat": 50.9414485, "lon": 7.0235657}, {"type": "node", "id": 3070789189, "lat": 50.9412027, "lon": 7.0277015}, {"type": "node", "id": 3070789190, "lat": 50.9412073, "lon": 7.0274222}, {"type": "node", "id": 3070789191, "lat": 50.9412074, "lon": 7.0277113}, {"type": "node", "id": 3070789192, "lat": 50.9412103, "lon": 7.0274101}, {"type": "node", "id": 3070789194, "lat": 50.9412123, "lon": 7.0274259}, {"type": "node", "id": 3070789195, "lat": 50.9412132, "lon": 7.0277196}, {"type": "node", "id": 3070789196, "lat": 50.9412153, "lon": 7.027414}, {"type": "node", "id": 3070789198, "lat": 50.9412198, "lon": 7.027726}, {"type": "node", "id": 3070789200, "lat": 50.9412213, "lon": 7.0273668}, {"type": "node", "id": 3070789202, "lat": 50.9412242, "lon": 7.0273558}, {"type": "node", "id": 3070789203, "lat": 50.9412263, "lon": 7.0273702}, {"type": "node", "id": 3070789204, "lat": 50.9412271, "lon": 7.0277304}, {"type": "node", "id": 3070789206, "lat": 50.9412292, "lon": 7.0273592}, {"type": "node", "id": 3070789209, "lat": 50.941234, "lon": 7.0273024}, {"type": "node", "id": 3070789210, "lat": 50.9412347, "lon": 7.0277325}, {"type": "node", "id": 3070789214, "lat": 50.9412422, "lon": 7.0273077}, {"type": "node", "id": 3070789215, "lat": 50.9412425, "lon": 7.0277324}, {"type": "node", "id": 3070789216, "lat": 50.9412501, "lon": 7.02773}, {"type": "node", "id": 3070789217, "lat": 50.9412544, "lon": 7.027225}, {"type": "node", "id": 3070789219, "lat": 50.9412573, "lon": 7.0277253}, {"type": "node", "id": 3070789220, "lat": 50.9412639, "lon": 7.0277187}, {"type": "node", "id": 3070789222, "lat": 50.9412664, "lon": 7.0272321}, {"type": "node", "id": 3070789226, "lat": 50.9412743, "lon": 7.027222}, {"type": "node", "id": 3070789229, "lat": 50.9412854, "lon": 7.0272262}, {"type": "node", "id": 3070789230, "lat": 50.9412889, "lon": 7.0272456}, {"type": "node", "id": 3070790742, "lat": 50.9410834, "lon": 7.0276825}, {"type": "node", "id": 3070790745, "lat": 50.9411014, "lon": 7.0276211}, {"type": "node", "id": 3070790752, "lat": 50.9411376, "lon": 7.0274805}, {"type": "node", "id": 3070790763, "lat": 50.941176, "lon": 7.027742}, {"type": "node", "id": 3070790765, "lat": 50.9411899, "lon": 7.0275144}, {"type": "node", "id": 3070790768, "lat": 50.9411941, "lon": 7.027474}, {"type": "node", "id": 3070790771, "lat": 50.9411966, "lon": 7.0274639}, {"type": "node", "id": 3070790772, "lat": 50.9411971, "lon": 7.0276786}, {"type": "node", "id": 3070790774, "lat": 50.9411993, "lon": 7.0274773}, {"type": "node", "id": 3070790775, "lat": 50.9411993, "lon": 7.0276904}, {"type": "node", "id": 3070790776, "lat": 50.9412018, "lon": 7.0274673}, {"type": "node", "id": 3070790777, "lat": 50.9413628, "lon": 7.026036}, {"type": "node", "id": 3070790778, "lat": 50.9413633, "lon": 7.0275066}, {"type": "node", "id": 3070790781, "lat": 50.9413667, "lon": 7.0274933}, {"type": "node", "id": 3070790783, "lat": 50.9413697, "lon": 7.0272975}, {"type": "node", "id": 3070790785, "lat": 50.9413732, "lon": 7.0275115}, {"type": "node", "id": 3070790786, "lat": 50.9413733, "lon": 7.0272924}, {"type": "node", "id": 3070790789, "lat": 50.9413763, "lon": 7.0274992}, {"type": "node", "id": 3070790791, "lat": 50.9413765, "lon": 7.0274544}, {"type": "node", "id": 3070790792, "lat": 50.9413774, "lon": 7.0273159}, {"type": "node", "id": 3070790795, "lat": 50.9413796, "lon": 7.0272979}, {"type": "node", "id": 3070790796, "lat": 50.9413802, "lon": 7.0274404}, {"type": "node", "id": 3070790801, "lat": 50.9413859, "lon": 7.0276307}, {"type": "node", "id": 3070790802, "lat": 50.9413861, "lon": 7.02746}, {"type": "node", "id": 3070790805, "lat": 50.9413896, "lon": 7.0274459}, {"type": "node", "id": 3070790806, "lat": 50.9413905, "lon": 7.0273994}, {"type": "node", "id": 3070790812, "lat": 50.9413956, "lon": 7.0274202}, {"type": "node", "id": 3070790820, "lat": 50.9413995, "lon": 7.0273984}, {"type": "node", "id": 3070790826, "lat": 50.9414036, "lon": 7.0274153}, {"type": "node", "id": 3070790827, "lat": 50.9414038, "lon": 7.0256459}, {"type": "node", "id": 3070790936, "lat": 50.9413019, "lon": 7.0272535}, {"type": "node", "id": 3070790937, "lat": 50.9413021, "lon": 7.0272574}, {"type": "node", "id": 3070790963, "lat": 50.941339, "lon": 7.0276023}, {"type": "node", "id": 3070790970, "lat": 50.9413487, "lon": 7.027564}, {"type": "node", "id": 3070790972, "lat": 50.94135, "lon": 7.0277704}, {"type": "node", "id": 3070790973, "lat": 50.9413517, "lon": 7.0275524}, {"type": "node", "id": 3070790982, "lat": 50.9413586, "lon": 7.0275699}, {"type": "node", "id": 3070790987, "lat": 50.9413616, "lon": 7.027558}, {"type": "node", "id": 3070791134, "lat": 50.9414101, "lon": 7.0273485}, {"type": "node", "id": 3070791135, "lat": 50.9414106, "lon": 7.0273833}, {"type": "node", "id": 3070791136, "lat": 50.9414129, "lon": 7.0273359}, {"type": "node", "id": 3070791139, "lat": 50.9414137, "lon": 7.0273726}, {"type": "node", "id": 3070791141, "lat": 50.9414138, "lon": 7.0273582}, {"type": "node", "id": 3070791145, "lat": 50.9414186, "lon": 7.0273884}, {"type": "node", "id": 3070791149, "lat": 50.9414214, "lon": 7.0273776}, {"type": "node", "id": 3070791162, "lat": 50.941433, "lon": 7.0233153}, {"type": "node", "id": 3070791163, "lat": 50.9414331, "lon": 7.0233675}, {"type": "node", "id": 3070791167, "lat": 50.9414342, "lon": 7.023366}, {"type": "node", "id": 3070791169, "lat": 50.941435, "lon": 7.0235666}, {"type": "node", "id": 3070791174, "lat": 50.9414391, "lon": 7.0237169}, {"type": "node", "id": 3070791433, "lat": 50.9414593, "lon": 7.0234557}, {"type": "node", "id": 3070791435, "lat": 50.9414612, "lon": 7.0235279}, {"type": "node", "id": 3070791454, "lat": 50.941502, "lon": 7.0255959}, {"type": "node", "id": 3070791458, "lat": 50.9415101, "lon": 7.0257402}, {"type": "node", "id": 3070791474, "lat": 50.9415409, "lon": 7.0233085}, {"type": "node", "id": 3070791485, "lat": 50.9415512, "lon": 7.0237095}, {"type": "node", "id": 3070791498, "lat": 50.9415687, "lon": 7.0254323}, {"type": "node", "id": 3070791511, "lat": 50.9415772, "lon": 7.0255852}, {"type": "node", "id": 3070791524, "lat": 50.9416066, "lon": 7.0257267}, {"type": "node", "id": 3070791526, "lat": 50.9416117, "lon": 7.0258181}, {"type": "node", "id": 3070791644, "lat": 50.9416488, "lon": 7.0248917}, {"type": "node", "id": 3070791658, "lat": 50.9416861, "lon": 7.0260431}, {"type": "node", "id": 3070791666, "lat": 50.941702, "lon": 7.0257946}, {"type": "node", "id": 3070791667, "lat": 50.9417025, "lon": 7.0258053}, {"type": "node", "id": 3070791673, "lat": 50.9417367, "lon": 7.0260419}, {"type": "node", "id": 3070791675, "lat": 50.9417412, "lon": 7.0259426}, {"type": "node", "id": 3070791676, "lat": 50.9417429, "lon": 7.0255639}, {"type": "node", "id": 3070791677, "lat": 50.9417454, "lon": 7.0254072}, {"type": "node", "id": 3070791678, "lat": 50.9417543, "lon": 7.0255622}, {"type": "node", "id": 3070791680, "lat": 50.9417557, "lon": 7.0257872}, {"type": "node", "id": 3070791681, "lat": 50.9417591, "lon": 7.0248504}, {"type": "node", "id": 3070791687, "lat": 50.9418052, "lon": 7.0252735}, {"type": "node", "id": 3070791692, "lat": 50.9418306, "lon": 7.025919}, {"type": "node", "id": 3070793357, "lat": 50.9433833, "lon": 7.0263445}, {"type": "node", "id": 3070793369, "lat": 50.9434359, "lon": 7.0255479}, {"type": "node", "id": 3070793370, "lat": 50.9434367, "lon": 7.0255425}, {"type": "node", "id": 3070793371, "lat": 50.9434377, "lon": 7.0255497}, {"type": "node", "id": 3070793377, "lat": 50.9434497, "lon": 7.0258581}, {"type": "node", "id": 3070793385, "lat": 50.9435158, "lon": 7.0255711}, {"type": "node", "id": 3070793386, "lat": 50.9435201, "lon": 7.0263916}, {"type": "node", "id": 3070793388, "lat": 50.9435865, "lon": 7.0259051}, {"type": "node", "id": 3072334329, "lat": 50.9404467, "lon": 7.022197, "tags": {"amenity": "pharmacy", "contact:email": "info@hoehenberg-apotheke.de", "contact:fax": "+49 221 8704458", "contact:phone": "+49 221 871613", "contact:website": "http://www.apotheke-hoehenberg.de/", "dispensing": "yes", "name": "H\u00f6henberg-Apotheke", "opening_hours": "Mo,Tu,Th,Fr 09:00-13:30,14:30-18:00; We,Sa 09:00-13:00", "operator": "Bernd-Christoph Meyer", "wheelchair": "limited"}}, {"type": "node", "id": 3072334643, "lat": 50.9407682, "lon": 7.0237293}, {"type": "node", "id": 3072334648, "lat": 50.9407713, "lon": 7.0240027}, {"type": "node", "id": 3072334650, "lat": 50.9407718, "lon": 7.0236935}, {"type": "node", "id": 3072334653, "lat": 50.9407727, "lon": 7.0237288}, {"type": "node", "id": 3072334656, "lat": 50.9407734, "lon": 7.0240775}, {"type": "node", "id": 3072334661, "lat": 50.9407754, "lon": 7.0240021}, {"type": "node", "id": 3072334687, "lat": 50.9407951, "lon": 7.0229498}, {"type": "node", "id": 3072334688, "lat": 50.940798, "lon": 7.0236694}, {"type": "node", "id": 3072334689, "lat": 50.9407985, "lon": 7.0236918}, {"type": "node", "id": 3072334694, "lat": 50.9408113, "lon": 7.0236685}, {"type": "node", "id": 3072334699, "lat": 50.9408174, "lon": 7.0240747}, {"type": "node", "id": 3072334700, "lat": 50.9408198, "lon": 7.0241554}, {"type": "node", "id": 3072334841, "lat": 50.9409821, "lon": 7.0230885}, {"type": "node", "id": 3072334843, "lat": 50.940983, "lon": 7.0231145}, {"type": "node", "id": 3072334844, "lat": 50.9409837, "lon": 7.0231406}, {"type": "node", "id": 3072334854, "lat": 50.9409949, "lon": 7.0230651}, {"type": "node", "id": 3072334855, "lat": 50.9409955, "lon": 7.0230875}, {"type": "node", "id": 3072334857, "lat": 50.9409969, "lon": 7.0231397}, {"type": "node", "id": 3072334860, "lat": 50.941001, "lon": 7.0232904}, {"type": "node", "id": 3072334861, "lat": 50.9410016, "lon": 7.0233138}, {"type": "node", "id": 3072334862, "lat": 50.9410044, "lon": 7.0239081}, {"type": "node", "id": 3072334864, "lat": 50.9410058, "lon": 7.0239602}, {"type": "node", "id": 3072334865, "lat": 50.9410059, "lon": 7.0234689}, {"type": "node", "id": 3072334867, "lat": 50.9410075, "lon": 7.0235233}, {"type": "node", "id": 3072334868, "lat": 50.9410089, "lon": 7.0235781}, {"type": "node", "id": 3072334870, "lat": 50.9410131, "lon": 7.023733}, {"type": "node", "id": 3072334872, "lat": 50.9410139, "lon": 7.0237566}, {"type": "node", "id": 3072334874, "lat": 50.9410153, "lon": 7.0233129}, {"type": "node", "id": 3072334877, "lat": 50.9410179, "lon": 7.0239073}, {"type": "node", "id": 3072334878, "lat": 50.9410192, "lon": 7.0234678}, {"type": "node", "id": 3072334879, "lat": 50.9410193, "lon": 7.0239592}, {"type": "node", "id": 3072334880, "lat": 50.9410199, "lon": 7.0239818}, {"type": "node", "id": 3072334882, "lat": 50.9410224, "lon": 7.0235771}, {"type": "node", "id": 3072334884, "lat": 50.9410266, "lon": 7.0237321}, {"type": "node", "id": 3072334901, "lat": 50.9410409, "lon": 7.0230248}, {"type": "node", "id": 3072334903, "lat": 50.9410419, "lon": 7.0230617}, {"type": "node", "id": 3072335044, "lat": 50.9410538, "lon": 7.0230011}, {"type": "node", "id": 3072335046, "lat": 50.9410543, "lon": 7.0230238}, {"type": "node", "id": 3072335049, "lat": 50.9410582, "lon": 7.0239792}, {"type": "node", "id": 3072335053, "lat": 50.9410611, "lon": 7.0240919}, {"type": "node", "id": 3072335069, "lat": 50.9410738, "lon": 7.0229317}, {"type": "node", "id": 3072335070, "lat": 50.9410741, "lon": 7.024091}, {"type": "node", "id": 3072335071, "lat": 50.9410754, "lon": 7.0241346}, {"type": "node", "id": 3072335072, "lat": 50.9410756, "lon": 7.0229999}, {"type": "node", "id": 3072335076, "lat": 50.9410806, "lon": 7.0241341}, {"type": "node", "id": 3072335077, "lat": 50.9410806, "lon": 7.0241382}, {"type": "node", "id": 3072335253, "lat": 50.9411538, "lon": 7.0208017}, {"type": "node", "id": 3072335270, "lat": 50.9411681, "lon": 7.0205898}, {"type": "node", "id": 3072335274, "lat": 50.9411738, "lon": 7.0203603}, {"type": "node", "id": 3072335276, "lat": 50.9411756, "lon": 7.0203311}, {"type": "node", "id": 3072335283, "lat": 50.9411837, "lon": 7.0203621}, {"type": "node", "id": 3072335301, "lat": 50.9412031, "lon": 7.020337}, {"type": "node", "id": 3072335302, "lat": 50.9412045, "lon": 7.0208262}, {"type": "node", "id": 3072335308, "lat": 50.941216, "lon": 7.0202961}, {"type": "node", "id": 3072335317, "lat": 50.94123, "lon": 7.020694}, {"type": "node", "id": 3072335420, "lat": 50.9412946, "lon": 7.0207246}, {"type": "node", "id": 3072335461, "lat": 50.9413558, "lon": 7.020407}, {"type": "node", "id": 3072335472, "lat": 50.9413685, "lon": 7.0284199}, {"type": "node", "id": 3072335475, "lat": 50.9413709, "lon": 7.0284143}, {"type": "node", "id": 3072335479, "lat": 50.9413773, "lon": 7.0284004}, {"type": "node", "id": 3072335482, "lat": 50.9413805, "lon": 7.0284336}, {"type": "node", "id": 3072335554, "lat": 50.9414197, "lon": 7.028308}, {"type": "node", "id": 3072335571, "lat": 50.9414475, "lon": 7.0285095}, {"type": "node", "id": 3072335580, "lat": 50.9414722, "lon": 7.0283701}, {"type": "node", "id": 3072335596, "lat": 50.9415236, "lon": 7.0285955}, {"type": "node", "id": 3072335601, "lat": 50.9415711, "lon": 7.0284874}, {"type": "node", "id": 3074253309, "lat": 50.937833, "lon": 7.0225615}, {"type": "node", "id": 3074255496, "lat": 50.939175, "lon": 7.0230847}, {"type": "node", "id": 3074255497, "lat": 50.9391814, "lon": 7.0227528}, {"type": "node", "id": 3074255525, "lat": 50.9392418, "lon": 7.0238246}, {"type": "node", "id": 3074255981, "lat": 50.9379838, "lon": 7.0223605}, {"type": "node", "id": 3074255988, "lat": 50.9379966, "lon": 7.0223268}, {"type": "node", "id": 3074255990, "lat": 50.9380062, "lon": 7.022382}, {"type": "node", "id": 3074255996, "lat": 50.938019, "lon": 7.0223483}, {"type": "node", "id": 3074256238, "lat": 50.9381221, "lon": 7.0224851}, {"type": "node", "id": 3074256240, "lat": 50.9381339, "lon": 7.0224544}, {"type": "node", "id": 3074256246, "lat": 50.9381448, "lon": 7.0225069}, {"type": "node", "id": 3074256249, "lat": 50.9381558, "lon": 7.0245723}, {"type": "node", "id": 3074256250, "lat": 50.9381566, "lon": 7.0224762}, {"type": "node", "id": 3074256277, "lat": 50.9382306, "lon": 7.0241751}, {"type": "node", "id": 3074256291, "lat": 50.9390314, "lon": 7.0228655}, {"type": "node", "id": 3074256292, "lat": 50.9390355, "lon": 7.0227414}, {"type": "node", "id": 3074256316, "lat": 50.9391289, "lon": 7.0231123}, {"type": "node", "id": 3074256317, "lat": 50.9391294, "lon": 7.0230828}, {"type": "node", "id": 3074256321, "lat": 50.9391374, "lon": 7.0227463}, {"type": "node", "id": 3074256322, "lat": 50.93908, "lon": 7.0227419}, {"type": "node", "id": 3074256330, "lat": 50.9390096, "lon": 7.0245445}, {"type": "node", "id": 3074256379, "lat": 50.9384385, "lon": 7.0229926}, {"type": "node", "id": 3074256570, "lat": 50.938639, "lon": 7.0231078}, {"type": "node", "id": 3074256591, "lat": 50.9386905, "lon": 7.0231604}, {"type": "node", "id": 3074256608, "lat": 50.9387513, "lon": 7.0231577}, {"type": "node", "id": 3074256610, "lat": 50.9390312, "lon": 7.0228954}, {"type": "node", "id": 3074256611, "lat": 50.9390307, "lon": 7.0230775}, {"type": "node", "id": 3074256778, "lat": 50.9390751, "lon": 7.0231094}, {"type": "node", "id": 3074256779, "lat": 50.9390726, "lon": 7.0230806}, {"type": "node", "id": 3074256784, "lat": 50.9389605, "lon": 7.0271932}, {"type": "node", "id": 3074256936, "lat": 50.9390202, "lon": 7.0271905}, {"type": "node", "id": 3074256961, "lat": 50.9390528, "lon": 7.027189}, {"type": "node", "id": 3074256971, "lat": 50.9390629, "lon": 7.0271885}, {"type": "node", "id": 3074257234, "lat": 50.9392574, "lon": 7.0232146}, {"type": "node", "id": 3074312886, "lat": 50.9402178, "lon": 7.0218343, "tags": {"addr:city": "K\u00f6ln", "addr:country": "DE", "addr:housenumber": "116", "addr:postcode": "51103", "addr:street": "Olpener Stra\u00dfe", "amenity": "social_facility"}}, {"type": "node", "id": 3074312888, "lat": 50.9378575, "lon": 7.0238791}, {"type": "node", "id": 3074312889, "lat": 50.9378702, "lon": 7.02383}, {"type": "node", "id": 3074312902, "lat": 50.9389669, "lon": 7.027478}, {"type": "node", "id": 3074312905, "lat": 50.9390695, "lon": 7.027472}, {"type": "node", "id": 3074312908, "lat": 50.9393459, "lon": 7.0246849}, {"type": "node", "id": 3074312909, "lat": 50.9393569, "lon": 7.0249263}, {"type": "node", "id": 3074312913, "lat": 50.9394574, "lon": 7.0246722, "tags": {"access": "private", "amenity": "parking_entrance", "parking": "underground"}}, {"type": "node", "id": 3074312922, "lat": 50.9396771, "lon": 7.0246471}, {"type": "node", "id": 3074312923, "lat": 50.9396878, "lon": 7.0248886}, {"type": "node", "id": 3074315078, "lat": 50.9410575, "lon": 7.0277762}, {"type": "node", "id": 3074315079, "lat": 50.9411517, "lon": 7.0278368}, {"type": "node", "id": 3074315114, "lat": 50.9434263, "lon": 7.0256275}, {"type": "node", "id": 3074315116, "lat": 50.9435036, "lon": 7.0256556}, {"type": "node", "id": 3076825610, "lat": 50.9394099, "lon": 7.0318733}, {"type": "node", "id": 3076825611, "lat": 50.9394433, "lon": 7.0315983}, {"type": "node", "id": 3076825614, "lat": 50.9394667, "lon": 7.0318452}, {"type": "node", "id": 3076825625, "lat": 50.9395214, "lon": 7.0316682}, {"type": "node", "id": 3076828633, "lat": 50.9395811, "lon": 7.0316028}, {"type": "node", "id": 3090559436, "lat": 50.9484765, "lon": 7.0317276, "tags": {"amenity": "waste_basket", "check_date": "2020-12-27"}}, {"type": "node", "id": 3090559437, "lat": 50.9485018, "lon": 7.0317204, "tags": {"amenity": "bench", "backrest": "yes", "check_date": "2020-12-27"}}, {"type": "node", "id": 3356327284, "lat": 50.9479883, "lon": 7.0254489}, {"type": "node", "id": 3356327289, "lat": 50.9480353, "lon": 7.0255366}, {"type": "node", "id": 3356328357, "lat": 50.9478249, "lon": 7.0256561}, {"type": "node", "id": 3356328358, "lat": 50.9478588, "lon": 7.0259517}, {"type": "node", "id": 3356328359, "lat": 50.9478629, "lon": 7.0259425}, {"type": "node", "id": 3356328360, "lat": 50.9478645, "lon": 7.0259627}, {"type": "node", "id": 3356328361, "lat": 50.947893, "lon": 7.0257295}, {"type": "node", "id": 3356328364, "lat": 50.9479278, "lon": 7.0258445}, {"type": "node", "id": 3356328365, "lat": 50.9479305, "lon": 7.0258527}, {"type": "node", "id": 3356328366, "lat": 50.9479437, "lon": 7.0258229}, {"type": "node", "id": 3356330614, "lat": 50.9477504, "lon": 7.0256739}, {"type": "node", "id": 3356330615, "lat": 50.9477506, "lon": 7.0257414}, {"type": "node", "id": 3356330616, "lat": 50.9477552, "lon": 7.0257505}, {"type": "node", "id": 3356330617, "lat": 50.9477606, "lon": 7.0257436}, {"type": "node", "id": 3356330618, "lat": 50.9477715, "lon": 7.025713}, {"type": "node", "id": 3356330619, "lat": 50.9477814, "lon": 7.02563}, {"type": "node", "id": 3356330620, "lat": 50.9478037, "lon": 7.0256692}, {"type": "node", "id": 3356330621, "lat": 50.9478191, "lon": 7.0256638}, {"type": "node", "id": 3356330622, "lat": 50.94782, "lon": 7.0256472}, {"type": "node", "id": 3356330623, "lat": 50.9478237, "lon": 7.0256721}, {"type": "node", "id": 3406137657, "lat": 50.9453994, "lon": 7.0212693}, {"type": "node", "id": 3406137658, "lat": 50.9454081, "lon": 7.0213739}, {"type": "node", "id": 3406137659, "lat": 50.9454086, "lon": 7.0213797}, {"type": "node", "id": 3406139631, "lat": 50.9447128, "lon": 7.0216854}, {"type": "node", "id": 3406139635, "lat": 50.9447251, "lon": 7.0218371}, {"type": "node", "id": 3406139649, "lat": 50.9457395, "lon": 7.0219974}, {"type": "node", "id": 3406139650, "lat": 50.9457443, "lon": 7.0220546}, {"type": "node", "id": 3406140966, "lat": 50.9454113, "lon": 7.0213732}, {"type": "node", "id": 3406140967, "lat": 50.9454118, "lon": 7.0213789}, {"type": "node", "id": 3406140968, "lat": 50.9454221, "lon": 7.0215427}, {"type": "node", "id": 3406140969, "lat": 50.9454313, "lon": 7.0215411}, {"type": "node", "id": 3406140972, "lat": 50.945443, "lon": 7.0216935}, {"type": "node", "id": 3406140974, "lat": 50.9454557, "lon": 7.0216905}, {"type": "node", "id": 3406140981, "lat": 50.9457131, "lon": 7.0220029}, {"type": "node", "id": 3406140982, "lat": 50.9457179, "lon": 7.0220599}, {"type": "node", "id": 3605859682, "lat": 50.9482351, "lon": 7.0188416}, {"type": "node", "id": 3605859687, "lat": 50.9482411, "lon": 7.0188969}, {"type": "node", "id": 3605859696, "lat": 50.9482677, "lon": 7.0187266}, {"type": "node", "id": 3605859699, "lat": 50.9482788, "lon": 7.0188208}, {"type": "node", "id": 3605859701, "lat": 50.9482928, "lon": 7.0189552}, {"type": "node", "id": 3605859706, "lat": 50.9483105, "lon": 7.0191194}, {"type": "node", "id": 3605859712, "lat": 50.9483392, "lon": 7.0188703}, {"type": "node", "id": 3605859714, "lat": 50.9483468, "lon": 7.0189406}, {"type": "node", "id": 3605859717, "lat": 50.9483638, "lon": 7.0186995}, {"type": "node", "id": 3605859718, "lat": 50.9483663, "lon": 7.0191043}, {"type": "node", "id": 3605859724, "lat": 50.9483843, "lon": 7.0190994}, {"type": "node", "id": 3605859728, "lat": 50.9484402, "lon": 7.0190843}, {"type": "node", "id": 4900122934, "lat": 50.9417009, "lon": 7.0223975}, {"type": "node", "id": 4900122935, "lat": 50.9416854, "lon": 7.0223996}, {"type": "node", "id": 4900122936, "lat": 50.9416743, "lon": 7.0221995}, {"type": "node", "id": 4900122937, "lat": 50.9416897, "lon": 7.0221973}, {"type": "node", "id": 4900126396, "lat": 50.9416421, "lon": 7.0224301, "tags": {"amenity": "vending_machine", "layer": "-1", "level": "-1", "vending": "public_transport_tickets"}}, {"type": "node", "id": 4952752437, "lat": 50.9415287, "lon": 7.0292457}, {"type": "node", "id": 4952752438, "lat": 50.9415326, "lon": 7.0292537}, {"type": "node", "id": 4952752439, "lat": 50.9415569, "lon": 7.0292215}, {"type": "node", "id": 4952752447, "lat": 50.9415403, "lon": 7.0292404, "tags": {"amenity": "bench", "backrest": "yes", "covered": "yes"}}, {"type": "node", "id": 4952752448, "lat": 50.9416505, "lon": 7.0295931, "tags": {"amenity": "bench", "backrest": "yes", "covered": "yes"}}, {"type": "node", "id": 4952752449, "lat": 50.9415534, "lon": 7.0292145}, {"type": "node", "id": 4952752450, "lat": 50.941561, "lon": 7.0292297}, {"type": "node", "id": 4952752451, "lat": 50.9415363, "lon": 7.0292609}, {"type": "node", "id": 4952752452, "lat": 50.9416677, "lon": 7.0295463}, {"type": "node", "id": 4952752453, "lat": 50.9416781, "lon": 7.0295676}, {"type": "node", "id": 4952752454, "lat": 50.9416281, "lon": 7.0296289}, {"type": "node", "id": 4952752455, "lat": 50.9416177, "lon": 7.0296076}, {"type": "node", "id": 5159768642, "lat": 50.9417925, "lon": 7.0230989}, {"type": "node", "id": 5159768643, "lat": 50.9420243, "lon": 7.0232091}, {"type": "node", "id": 5159768648, "lat": 50.9419961, "lon": 7.0233585}, {"type": "node", "id": 5159768651, "lat": 50.9419666, "lon": 7.0235146}, {"type": "node", "id": 5159768654, "lat": 50.9419325, "lon": 7.0235583}, {"type": "node", "id": 5159768655, "lat": 50.9419568, "lon": 7.0235654}, {"type": "node", "id": 5159768656, "lat": 50.9418031, "lon": 7.0235739}, {"type": "node", "id": 5159786280, "lat": 50.9420628, "lon": 7.0242205}, {"type": "node", "id": 5159786281, "lat": 50.9419376, "lon": 7.0241836}, {"type": "node", "id": 5159786282, "lat": 50.9419066, "lon": 7.0244708}, {"type": "node", "id": 5159786283, "lat": 50.9420249, "lon": 7.0245038}, {"type": "node", "id": 5159786285, "lat": 50.9437282, "lon": 7.0201589}, {"type": "node", "id": 5159786286, "lat": 50.9435049, "lon": 7.0214698, "tags": {"amenity": "pub", "name": "Weimarer St\u00fcbchen"}}, {"type": "node", "id": 5160888639, "lat": 50.9443273, "lon": 7.0185753, "tags": {"amenity": "post_box", "collection_times": "Mo-Fr 17:00, Sa 11:45", "operator": "Deutsche Post", "operator:wikidata": "Q157645", "operator:wikipedia": "de:Deutsche Post AG"}}, {"type": "node", "id": 5401592185, "lat": 50.9464435, "lon": 7.0327532, "tags": {"amenity": "bench", "backrest": "yes", "colour": "green", "material": "metal", "seats": "4"}}, {"type": "node", "id": 5401592188, "lat": 50.9463908, "lon": 7.0327851, "tags": {"amenity": "waste_basket", "waste": "trash"}}, {"type": "node", "id": 5475043406, "lat": 50.9396224, "lon": 7.0171349, "tags": {"amenity": "bar", "contact:website": "https://www.philerohotel-koeln.de/bar_la_roja_koeln.aspx", "name": "La Roja", "opening_hours": "Mo 16:00-24:00; Tu-Sa 00:00-01:00,16:00-24:00; Su 00:00-01:00", "operator": "PhiLeRo Hotel K\u00f6ln", "smoking": "no"}}, {"type": "node", "id": 5475043407, "lat": 50.9394115, "lon": 7.0170138, "tags": {"access": "customers", "amenity": "parking_entrance", "lit": "yes", "maxheight": "1.90", "operator": "PhiLeRo Hotel K\u00f6ln", "parking": "underground", "surface": "asphalt"}}, {"type": "node", "id": 5511203323, "lat": 50.9502542, "lon": 7.033007, "tags": {"amenity": "bench", "backrest": "yes", "colour": "green", "material": "metal", "seats": "3", "source": "survey"}}, {"type": "node", "id": 5511203324, "lat": 50.9502723, "lon": 7.0329745, "tags": {"amenity": "waste_basket", "waste": "trash"}}, {"type": "node", "id": 6110231583, "lat": 50.937644, "lon": 7.0189587, "tags": {"addr:city": "K\u00f6ln", "addr:housenumber": "2", "addr:postcode": "51103", "addr:street": "Miltenberger Stra\u00dfe", "amenity": "place_of_worship", "name": "Al-Nur Moschee", "religion": "muslim"}}, {"type": "node", "id": 6370793385, "lat": 50.9401364, "lon": 7.0255044, "tags": {"addr:postcode": "51103", "amenity": "pub", "name": "H\u00f6henberger Eck", "opening_hours": "Mo-Su 17:00-00:00"}}, {"type": "node", "id": 6393192542, "lat": 50.9417391, "lon": 7.0223914, "tags": {"amenity": "taxi", "capacity": "2"}}, {"type": "node", "id": 6490130517, "lat": 50.9404528, "lon": 7.0218912, "tags": {"amenity": "school", "contact:phone": "+49 221 660910", "name": "ProLog", "website": "https://www.prolog-shop.de/ueber-uns/"}}, {"type": "node", "id": 7724305853, "lat": 50.9385361, "lon": 7.0243205}, {"type": "node", "id": 7724305854, "lat": 50.9385606, "lon": 7.0243321}, {"type": "node", "id": 7724305855, "lat": 50.938585, "lon": 7.0243437}, {"type": "node", "id": 7724305856, "lat": 50.9386095, "lon": 7.0243553}, {"type": "node", "id": 7724305861, "lat": 50.9384101, "lon": 7.0242608}, {"type": "node", "id": 7724305862, "lat": 50.9384355, "lon": 7.0242728}, {"type": "node", "id": 7724305863, "lat": 50.9384609, "lon": 7.0242848}, {"type": "node", "id": 7724305864, "lat": 50.9384863, "lon": 7.0242969}, {"type": "node", "id": 7941387955, "lat": 50.9402019, "lon": 7.0304905}, {"type": "node", "id": 7941387956, "lat": 50.9401778, "lon": 7.0296214}, {"type": "node", "id": 7941387957, "lat": 50.9402164, "lon": 7.0295613}, {"type": "node", "id": 7941387958, "lat": 50.9402392, "lon": 7.0304508}, {"type": "node", "id": 8103159692, "lat": 50.9478643, "lon": 7.036829, "tags": {"amenity": "bench", "backrest": "yes", "colour": "green", "material": "metal", "seats": "3", "source": "survey"}}, {"type": "node", "id": 8103159693, "lat": 50.94787, "lon": 7.0367731, "tags": {"amenity": "waste_basket", "waste": "trash"}}, {"type": "node", "id": 8103159694, "lat": 50.9509184, "lon": 7.0330363, "tags": {"amenity": "waste_basket", "waste": "trash"}}, {"type": "node", "id": 8103159695, "lat": 50.9505882, "lon": 7.0345662, "tags": {"amenity": "waste_basket", "waste": "trash"}}, {"type": "node", "id": 8103159696, "lat": 50.9500901, "lon": 7.0355444, "tags": {"amenity": "waste_basket", "waste": "trash"}}, {"type": "node", "id": 8103159697, "lat": 50.949047, "lon": 7.0366577, "tags": {"amenity": "waste_basket", "waste": "trash"}}, {"type": "node", "id": 8103159698, "lat": 50.9485245, "lon": 7.0367258, "tags": {"amenity": "waste_basket", "waste": "trash"}}, {"type": "node", "id": 8103159699, "lat": 50.9509105, "lon": 7.0330791, "tags": {"amenity": "bench", "backrest": "yes", "colour": "green", "material": "metal", "seats": "3", "source": "survey"}}, {"type": "node", "id": 8103159700, "lat": 50.9505984, "lon": 7.0345266, "tags": {"amenity": "bench", "backrest": "yes", "colour": "green", "material": "metal", "seats": "3", "source": "survey"}}, {"type": "node", "id": 8103159701, "lat": 50.9500617, "lon": 7.0355692, "tags": {"amenity": "bench", "backrest": "yes", "colour": "green", "material": "metal", "seats": "3", "source": "survey"}}, {"type": "node", "id": 8103159702, "lat": 50.9491095, "lon": 7.0366439, "tags": {"amenity": "bench", "backrest": "yes", "colour": "green", "material": "metal", "seats": "3", "source": "survey"}}, {"type": "node", "id": 8103159703, "lat": 50.9485648, "lon": 7.0367225, "tags": {"amenity": "bench", "backrest": "yes", "colour": "green", "material": "metal", "seats": "3", "source": "survey"}}, {"type": "node", "id": 8103159704, "lat": 50.9484052, "lon": 7.0359618, "tags": {"amenity": "bench", "backrest": "yes", "colour": "green", "material": "metal", "seats": "3", "source": "survey"}}, {"type": "node", "id": 8263656887, "lat": 50.9437639, "lon": 7.0256175, "tags": {"amenity": "waste_basket", "waste": "trash"}}, {"type": "node", "id": 8263689238, "lat": 50.9438612, "lon": 7.0373118, "tags": {"amenity": "bench", "backrest": "yes", "material": "metal"}}, {"type": "node", "id": 8263767268, "lat": 50.9434318, "lon": 7.0373501, "tags": {"amenity": "bench", "backrest": "yes", "material": "metal"}}, {"type": "node", "id": 8263767269, "lat": 50.9428325, "lon": 7.0374589, "tags": {"amenity": "bench", "backrest": "yes"}}, {"type": "node", "id": 8274531294, "lat": 50.9452762, "lon": 7.0212284}, {"type": "node", "id": 8274531295, "lat": 50.9450982, "lon": 7.0213393}, {"type": "node", "id": 8274531296, "lat": 50.9451853, "lon": 7.0212906}, {"type": "node", "id": 8274531297, "lat": 50.9449295, "lon": 7.0214043}, {"type": "node", "id": 8274531298, "lat": 50.9448374, "lon": 7.0214242}, {"type": "node", "id": 8274531299, "lat": 50.9447494, "lon": 7.0214358}, {"type": "node", "id": 8274531300, "lat": 50.9450005, "lon": 7.0213806}, {"type": "node", "id": 8274531301, "lat": 50.9453642, "lon": 7.0211625}, {"type": "node", "id": 8274531302, "lat": 50.9453683, "lon": 7.0211593}, {"type": "node", "id": 8274531303, "lat": 50.9453721, "lon": 7.0211588}, {"type": "node", "id": 8274531304, "lat": 50.945378, "lon": 7.0211602}, {"type": "node", "id": 8274531305, "lat": 50.9453844, "lon": 7.0211658}, {"type": "node", "id": 8274531306, "lat": 50.9453894, "lon": 7.0211741}, {"type": "node", "id": 8274531307, "lat": 50.945392, "lon": 7.0211843}, {"type": "node", "id": 8274531308, "lat": 50.9454624, "lon": 7.0217742}, {"type": "node", "id": 8274531309, "lat": 50.9456543, "lon": 7.0217314}, {"type": "node", "id": 8274531310, "lat": 50.945682, "lon": 7.0217277}, {"type": "node", "id": 8274531311, "lat": 50.9456929, "lon": 7.0217296}, {"type": "node", "id": 8274531312, "lat": 50.9457069, "lon": 7.0217347}, {"type": "node", "id": 8274531313, "lat": 50.9457198, "lon": 7.0217417}, {"type": "node", "id": 8274531314, "lat": 50.9457326, "lon": 7.0217546}, {"type": "node", "id": 8274531315, "lat": 50.9457423, "lon": 7.0217667}, {"type": "node", "id": 8274531316, "lat": 50.9458101, "lon": 7.021886}, {"type": "node", "id": 8274531917, "lat": 50.9458326, "lon": 7.0219375}, {"type": "node", "id": 8274531918, "lat": 50.9458382, "lon": 7.0219584}, {"type": "node", "id": 8274531919, "lat": 50.9458455, "lon": 7.0220391}, {"type": "node", "id": 8274531920, "lat": 50.9455256, "lon": 7.0224758}, {"type": "node", "id": 8274531921, "lat": 50.9454145, "lon": 7.0225022}, {"type": "node", "id": 8274531922, "lat": 50.9454291, "lon": 7.0227199}, {"type": "node", "id": 8274531923, "lat": 50.9449169, "lon": 7.0228266}, {"type": "node", "id": 8274531924, "lat": 50.9449125, "lon": 7.0228192}, {"type": "node", "id": 8274531925, "lat": 50.9449107, "lon": 7.0228104}, {"type": "node", "id": 8274531926, "lat": 50.9448979, "lon": 7.022602}, {"type": "node", "id": 8274531927, "lat": 50.9447961, "lon": 7.0226201}, {"type": "node", "id": 8274531928, "lat": 50.9447333, "lon": 7.0218355}, {"type": "node", "id": 8274531929, "lat": 50.9446935, "lon": 7.0214512}, {"type": "node", "id": 8274719832, "lat": 50.9419001, "lon": 7.0235622}, {"type": "node", "id": 8274719833, "lat": 50.9418068, "lon": 7.0233348}, {"type": "node", "id": 8275216961, "lat": 50.9474802, "lon": 7.0216128}, {"type": "node", "id": 8275216962, "lat": 50.9474202, "lon": 7.021591}, {"type": "node", "id": 8275216963, "lat": 50.9472021, "lon": 7.0218941}, {"type": "node", "id": 8275216964, "lat": 50.9472688, "lon": 7.0219042}, {"type": "node", "id": 8275216965, "lat": 50.9460929, "lon": 7.0234206}, {"type": "node", "id": 8275216966, "lat": 50.9461491, "lon": 7.0234377}, {"type": "node", "id": 8275216967, "lat": 50.9455667, "lon": 7.024231}, {"type": "node", "id": 8275216968, "lat": 50.9455072, "lon": 7.0242186}, {"type": "node", "id": 8433215463, "lat": 50.9390786, "lon": 7.0228885}, {"type": "node", "id": 8433215464, "lat": 50.9390794, "lon": 7.0228775}, {"type": "node", "id": 8433215465, "lat": 50.9391365, "lon": 7.0228916}, {"type": "node", "id": 8433215466, "lat": 50.9391413, "lon": 7.0228993}, {"type": "node", "id": 8433215467, "lat": 50.9391367, "lon": 7.0228822}, {"type": "node", "id": 8433215468, "lat": 50.9391407, "lon": 7.0228758}, {"type": "node", "id": 8433215469, "lat": 50.9391793, "lon": 7.0229043}, {"type": "node", "id": 8433215470, "lat": 50.939181, "lon": 7.0228765}, {"type": "node", "id": 8433215471, "lat": 50.9390754, "lon": 7.0228956}, {"type": "node", "id": 8433215472, "lat": 50.9390773, "lon": 7.0228681}, {"type": "node", "id": 8551710232, "lat": 50.944365, "lon": 7.019051}, {"type": "node", "id": 8551710233, "lat": 50.9444103, "lon": 7.0195894}, {"type": "node", "id": 8551710234, "lat": 50.944453, "lon": 7.0195804}, {"type": "node", "id": 8551710235, "lat": 50.9444077, "lon": 7.019042}, {"type": "node", "id": 8567662482, "lat": 50.9438281, "lon": 7.0308401, "tags": {"addr:city": "K\u00f6ln", "addr:postcode": "51103", "amenity": "restaurant", "contact:facebook": "https://www.facebook.com/Ristorante-Zur-Merheimer-Heide-748421108536730/", "cuisine": "italian;pizza;pasta", "name": "Ristorante Zur Merheimer Heide", "opening_hours": "Tu-We 16:00-22:30; Th-Su 16:00-23:00", "phone": "+49 1577 2662273"}}, {"type": "node", "id": 8567662483, "lat": 50.9423309, "lon": 7.0279979, "tags": {"addr:city": "K\u00f6ln", "addr:housenumber": "400", "addr:postcode": "51103", "addr:street": "Frankfurter Stra\u00dfe", "amenity": "social_facility", "email": "info@servicewohnen-hoehenberg.de", "fax": "+49 221 2781695", "name": "Service-Wohnen H\u00f6henberg", "phone": "+49 221 2781694", "social_facility": "group_home", "social_facility:for": "senior", "website": "https://servicewohnen-hoehenberg.de", "wheelchair": "yes"}}, {"type": "node", "id": 8680545677, "lat": 50.9494042, "lon": 7.0184181}, {"type": "node", "id": 8758217736, "lat": 50.9357458, "lon": 7.0268404, "tags": {"barrier": "gate"}}, {"type": "node", "id": 8951516017, "lat": 50.9404006, "lon": 7.0248422, "tags": {"addr:postcode": "51103", "amenity": "doctors", "healthcare": "doctor", "healthcare:speciality": "general", "name": "Dr. med. Axel Kottmann Hausarztpraxis H\u00f6henberg", "opening_hours": "Mo, Th 14:00-16:00; Tu 09:00-11:30; We, Fr 11:30-13:00", "phone": "+49 221 29757529"}}, {"type": "node", "id": 9146401589, "lat": 50.9416877, "lon": 7.0217585}, {"type": "node", "id": 9146401590, "lat": 50.9417315, "lon": 7.022466}, {"type": "node", "id": 9146401591, "lat": 50.941777, "lon": 7.022459}, {"type": "node", "id": 9146401592, "lat": 50.9417332, "lon": 7.0217514}, {"type": "node", "id": 9267794213, "lat": 50.9459413, "lon": 7.022106}, {"type": "node", "id": 9267794214, "lat": 50.9460966, "lon": 7.0223986}, {"type": "node", "id": 9267794215, "lat": 50.9460788, "lon": 7.0224224}, {"type": "node", "id": 9267794216, "lat": 50.9459235, "lon": 7.0221297}, {"type": "node", "id": 9267803619, "lat": 50.9462052, "lon": 7.0223373}, {"type": "node", "id": 9267803620, "lat": 50.9460299, "lon": 7.0220045}, {"type": "node", "id": 9267803621, "lat": 50.9459961, "lon": 7.0220494}, {"type": "node", "id": 9267803622, "lat": 50.9461714, "lon": 7.0223822}, {"type": "node", "id": 9267803623, "lat": 50.946582, "lon": 7.0224455}, {"type": "node", "id": 9267803624, "lat": 50.9464652, "lon": 7.0226056}, {"type": "node", "id": 9267803625, "lat": 50.9464504, "lon": 7.0225783}, {"type": "node", "id": 9267803626, "lat": 50.9465671, "lon": 7.0224183}, {"type": "node", "id": 9267803627, "lat": 50.9467503, "lon": 7.0222117}, {"type": "node", "id": 9267803628, "lat": 50.9466063, "lon": 7.0224098}, {"type": "node", "id": 9267803629, "lat": 50.9465926, "lon": 7.0223849}, {"type": "node", "id": 9267803630, "lat": 50.9467367, "lon": 7.0221867}, {"type": "node", "id": 9267803631, "lat": 50.9469721, "lon": 7.0219115}, {"type": "node", "id": 9267803632, "lat": 50.9467905, "lon": 7.022155}, {"type": "node", "id": 9267803633, "lat": 50.9467769, "lon": 7.0221295}, {"type": "node", "id": 9267803634, "lat": 50.9469585, "lon": 7.0218859}, {"type": "node", "id": 9267803635, "lat": 50.9471676, "lon": 7.0216418}, {"type": "node", "id": 9267803636, "lat": 50.9469869, "lon": 7.021888}, {"type": "node", "id": 9267803637, "lat": 50.9469737, "lon": 7.0218635}, {"type": "node", "id": 9267803638, "lat": 50.9471544, "lon": 7.0216174}, {"type": "node", "id": 9267803639, "lat": 50.9473731, "lon": 7.0213567}, {"type": "node", "id": 9267803640, "lat": 50.9471839, "lon": 7.0216195}, {"type": "node", "id": 9267803641, "lat": 50.94717, "lon": 7.0215944}, {"type": "node", "id": 9267803642, "lat": 50.9473592, "lon": 7.0213316}, {"type": "node", "id": 9267803643, "lat": 50.9475695, "lon": 7.0210891}, {"type": "node", "id": 9267803644, "lat": 50.9473838, "lon": 7.0213413}, {"type": "node", "id": 9267803645, "lat": 50.9473698, "lon": 7.0213153}, {"type": "node", "id": 9267803646, "lat": 50.9475555, "lon": 7.0210632}, {"type": "node", "id": 9267803647, "lat": 50.9477686, "lon": 7.0208166}, {"type": "node", "id": 9267803648, "lat": 50.9475815, "lon": 7.0210705}, {"type": "node", "id": 9267803649, "lat": 50.9475679, "lon": 7.0210452}, {"type": "node", "id": 9267803650, "lat": 50.947755, "lon": 7.0207914}, {"type": "node", "id": 9267803651, "lat": 50.9479661, "lon": 7.0205464}, {"type": "node", "id": 9267803652, "lat": 50.9477815, "lon": 7.020798}, {"type": "node", "id": 9267803653, "lat": 50.947767, "lon": 7.0207712}, {"type": "node", "id": 9267803654, "lat": 50.9479516, "lon": 7.0205196}, {"type": "node", "id": 9267803655, "lat": 50.9481719, "lon": 7.0202623}, {"type": "node", "id": 9267803656, "lat": 50.9479799, "lon": 7.0205245}, {"type": "node", "id": 9267803657, "lat": 50.9479654, "lon": 7.0204978}, {"type": "node", "id": 9267803658, "lat": 50.9481574, "lon": 7.0202355}, {"type": "node", "id": 9268760372, "lat": 50.9436158, "lon": 7.0224274}, {"type": "node", "id": 9268760373, "lat": 50.9443782, "lon": 7.022597}, {"type": "node", "id": 9268760374, "lat": 50.9443473, "lon": 7.0226489}, {"type": "node", "id": 9268760375, "lat": 50.9435862, "lon": 7.0224789}, {"type": "node", "id": 9268802804, "lat": 50.9441537, "lon": 7.0256806}, {"type": "node", "id": 9268802805, "lat": 50.9439958, "lon": 7.0258964}, {"type": "node", "id": 9268802806, "lat": 50.9440076, "lon": 7.0259182}, {"type": "node", "id": 9268802807, "lat": 50.9441655, "lon": 7.0257025}, {"type": "node", "id": 9268802808, "lat": 50.9442187, "lon": 7.025593}, {"type": "node", "id": 9268802809, "lat": 50.944184, "lon": 7.0256395}, {"type": "node", "id": 9268802810, "lat": 50.9441956, "lon": 7.0256614}, {"type": "node", "id": 9268802811, "lat": 50.9442304, "lon": 7.025615}, {"type": "node", "id": 9268802812, "lat": 50.9443662, "lon": 7.0253959}, {"type": "node", "id": 9268802813, "lat": 50.9442839, "lon": 7.0255042}, {"type": "node", "id": 9268802814, "lat": 50.9442936, "lon": 7.0255227}, {"type": "node", "id": 9268802815, "lat": 50.9443759, "lon": 7.0254145}, {"type": "node", "id": 9268802816, "lat": 50.9445529, "lon": 7.0251464}, {"type": "node", "id": 9268822017, "lat": 50.9444051, "lon": 7.0253418}, {"type": "node", "id": 9268822018, "lat": 50.944418, "lon": 7.0253666}, {"type": "node", "id": 9268822019, "lat": 50.9445659, "lon": 7.0251712}, {"type": "node", "id": 9268822020, "lat": 50.9446332, "lon": 7.0250736}, {"type": "node", "id": 9268822021, "lat": 50.9445975, "lon": 7.0251201}, {"type": "node", "id": 9268822022, "lat": 50.944586, "lon": 7.0250978}, {"type": "node", "id": 9268822023, "lat": 50.9446217, "lon": 7.0250513}, {"type": "node", "id": 9268822024, "lat": 50.9447028, "lon": 7.0249801}, {"type": "node", "id": 9268822025, "lat": 50.9446685, "lon": 7.0250273}, {"type": "node", "id": 9268822026, "lat": 50.9446546, "lon": 7.0250019}, {"type": "node", "id": 9268822027, "lat": 50.944689, "lon": 7.0249547}, {"type": "node", "id": 9268822028, "lat": 50.9447929, "lon": 7.0248584}, {"type": "node", "id": 9268822029, "lat": 50.9447353, "lon": 7.0249376}, {"type": "node", "id": 9268822030, "lat": 50.9447228, "lon": 7.0249148}, {"type": "node", "id": 9268822031, "lat": 50.9447805, "lon": 7.0248356}, {"type": "node", "id": 9324974272, "lat": 50.9372495, "lon": 7.0297652}, {"type": "node", "id": 9324974273, "lat": 50.9373856, "lon": 7.0301682}, {"type": "node", "id": 9324974274, "lat": 50.9373639, "lon": 7.030246}, {"type": "node", "id": 9324974275, "lat": 50.937226, "lon": 7.0298337}, {"type": "node", "id": 9394915155, "lat": 50.9425984, "lon": 7.0271533, "tags": {"addr:city": "K\u00f6ln", "addr:country": "DE", "addr:housenumber": "390", "addr:postcode": "51103", "addr:street": "Frankfurter Stra\u00dfe", "amenity": "fuel", "brand": "Aral", "brand:wikidata": "Q565734", "brand:wikipedia": "de:Aral", "name": "Aral"}}, {"type": "node", "id": 9459031568, "lat": 50.9428094, "lon": 7.019925}, {"type": "node", "id": 9459031569, "lat": 50.9426961, "lon": 7.0199387}, {"type": "node", "id": 9459031570, "lat": 50.9426928, "lon": 7.0198707}, {"type": "node", "id": 9459031571, "lat": 50.9428062, "lon": 7.019857}, {"type": "node", "id": 9459031572, "lat": 50.9429364, "lon": 7.0199125}, {"type": "node", "id": 9459031573, "lat": 50.9428473, "lon": 7.0199221}, {"type": "node", "id": 9459031574, "lat": 50.9428442, "lon": 7.0198501}, {"type": "node", "id": 9459031575, "lat": 50.9429333, "lon": 7.0198405}, {"type": "node", "id": 9459031576, "lat": 50.943065, "lon": 7.0198952}, {"type": "node", "id": 9459031577, "lat": 50.9429755, "lon": 7.0199069}, {"type": "node", "id": 9459031578, "lat": 50.9429718, "lon": 7.0198364}, {"type": "node", "id": 9459031579, "lat": 50.9430614, "lon": 7.0198247}, {"type": "node", "id": 9459031580, "lat": 50.9431901, "lon": 7.0198805}, {"type": "node", "id": 9459031581, "lat": 50.9431002, "lon": 7.0198915}, {"type": "node", "id": 9459031582, "lat": 50.9430968, "lon": 7.0198227}, {"type": "node", "id": 9459031583, "lat": 50.9431868, "lon": 7.0198117}, {"type": "node", "id": 9459031584, "lat": 50.9433225, "lon": 7.019865}, {"type": "node", "id": 9459031585, "lat": 50.9432269, "lon": 7.0198767}, {"type": "node", "id": 9459031586, "lat": 50.9432236, "lon": 7.0198089}, {"type": "node", "id": 9459031587, "lat": 50.9433192, "lon": 7.0197973}, {"type": "node", "id": 9459031588, "lat": 50.9434764, "lon": 7.0198472}, {"type": "node", "id": 9459031589, "lat": 50.943364, "lon": 7.0198609}, {"type": "node", "id": 9459031590, "lat": 50.9433607, "lon": 7.0197931}, {"type": "node", "id": 9459031591, "lat": 50.9434732, "lon": 7.0197794}, {"type": "node", "id": 9459031592, "lat": 50.9436302, "lon": 7.0198315}, {"type": "node", "id": 9459031593, "lat": 50.943516, "lon": 7.0198459}, {"type": "node", "id": 9459031594, "lat": 50.9435125, "lon": 7.019776}, {"type": "node", "id": 9459031595, "lat": 50.9436267, "lon": 7.0197616}, {"type": "node", "id": 9459031596, "lat": 50.9437189, "lon": 7.0198222}, {"type": "node", "id": 9459031597, "lat": 50.9436705, "lon": 7.019827}, {"type": "node", "id": 9459031598, "lat": 50.9436678, "lon": 7.0197595}, {"type": "node", "id": 9459031599, "lat": 50.9437163, "lon": 7.0197547}, {"type": "node", "id": 9459031601, "lat": 50.9417495, "lon": 7.0184604}, {"type": "node", "id": 9459031602, "lat": 50.9415542, "lon": 7.018485}, {"type": "node", "id": 9459031603, "lat": 50.9415529, "lon": 7.0184604}, {"type": "node", "id": 9459031604, "lat": 50.9417483, "lon": 7.0184358}, {"type": "node", "id": 9459031605, "lat": 50.9418356, "lon": 7.0185656}, {"type": "node", "id": 9459031606, "lat": 50.9418373, "lon": 7.0185368}, {"type": "node", "id": 9459031607, "lat": 50.9417633, "lon": 7.0185676}, {"type": "node", "id": 9459031608, "lat": 50.9417616, "lon": 7.0185421}, {"type": "node", "id": 9459031609, "lat": 50.9416199, "lon": 7.0185878}, {"type": "node", "id": 9459031610, "lat": 50.9418961, "lon": 7.0185683}, {"type": "node", "id": 9459031611, "lat": 50.9418973, "lon": 7.0185421}, {"type": "node", "id": 9459031612, "lat": 50.9416182, "lon": 7.0185616}, {"type": "node", "id": 9459031613, "lat": 50.941959, "lon": 7.0185851}, {"type": "node", "id": 9459031614, "lat": 50.9424026, "lon": 7.0186777}, {"type": "node", "id": 9459031615, "lat": 50.9424053, "lon": 7.0186455}, {"type": "node", "id": 9459031616, "lat": 50.9419616, "lon": 7.0185529}, {"type": "node", "id": 9459060717, "lat": 50.9424608, "lon": 7.0191867}, {"type": "node", "id": 9459060718, "lat": 50.942528, "lon": 7.0198874}, {"type": "node", "id": 9459060719, "lat": 50.9425706, "lon": 7.0198771}, {"type": "node", "id": 9459060720, "lat": 50.9425034, "lon": 7.0191764}, {"type": "node", "id": 9550346756, "lat": 50.9358534, "lon": 7.0190805}, {"type": "node", "id": 9550346757, "lat": 50.9360049, "lon": 7.01912}, {"type": "node", "id": 9550346758, "lat": 50.9360021, "lon": 7.0191465}, {"type": "node", "id": 9550346759, "lat": 50.9358506, "lon": 7.0191071}, {"type": "node", "id": 9550346760, "lat": 50.9358141, "lon": 7.0190688}, {"type": "node", "id": 9550346761, "lat": 50.9355865, "lon": 7.0190232}, {"type": "node", "id": 9550346762, "lat": 50.9355842, "lon": 7.0190516}, {"type": "node", "id": 9550346763, "lat": 50.9358118, "lon": 7.0190972}, {"type": "node", "id": 9550346764, "lat": 50.9369962, "lon": 7.019597}, {"type": "node", "id": 9550346765, "lat": 50.9368257, "lon": 7.0195453}, {"type": "node", "id": 9550346766, "lat": 50.9368337, "lon": 7.0194793}, {"type": "node", "id": 9550346767, "lat": 50.9370042, "lon": 7.0195311}, {"type": "node", "id": 9550346768, "lat": 50.9361482, "lon": 7.0193552}, {"type": "node", "id": 9550346769, "lat": 50.9359283, "lon": 7.0192985}, {"type": "node", "id": 9550346770, "lat": 50.9359357, "lon": 7.0192266}, {"type": "node", "id": 9550346771, "lat": 50.9361555, "lon": 7.0192833}, {"type": "node", "id": 9550346772, "lat": 50.9365852, "lon": 7.019466}, {"type": "node", "id": 9550346773, "lat": 50.9363845, "lon": 7.0194062}, {"type": "node", "id": 9550346774, "lat": 50.9363921, "lon": 7.0193419}, {"type": "node", "id": 9550346775, "lat": 50.9365929, "lon": 7.0194017}, {"type": "node", "id": 9552493784, "lat": 50.9475817, "lon": 7.0278531}, {"type": "node", "id": 9552928684, "lat": 50.9475778, "lon": 7.0277559}, {"type": "node", "id": 9552928685, "lat": 50.9485481, "lon": 7.0277646}, {"type": "node", "id": 9552928686, "lat": 50.9485107, "lon": 7.0276691}, {"type": "node", "id": 9576008835, "lat": 50.9403247, "lon": 7.029909}, {"type": "node", "id": 9576008836, "lat": 50.9403288, "lon": 7.0300812}, {"type": "node", "id": 9576008837, "lat": 50.9403121, "lon": 7.0300822}, {"type": "node", "id": 9576008838, "lat": 50.940308, "lon": 7.0299101}, {"type": "node", "id": 9576008839, "lat": 50.9403162, "lon": 7.0295271}, {"type": "node", "id": 9576008840, "lat": 50.9403231, "lon": 7.0298634}, {"type": "node", "id": 9576008841, "lat": 50.9403062, "lon": 7.0298643}, {"type": "node", "id": 9576008842, "lat": 50.9402993, "lon": 7.029528}, {"type": "node", "id": 9576008843, "lat": 50.9403047, "lon": 7.0290557}, {"type": "node", "id": 9576008844, "lat": 50.940307, "lon": 7.0292194}, {"type": "node", "id": 9576008845, "lat": 50.9402892, "lon": 7.0292201}, {"type": "node", "id": 9576008846, "lat": 50.9402869, "lon": 7.0290563}, {"type": "node", "id": 9576008847, "lat": 50.9402958, "lon": 7.0286198}, {"type": "node", "id": 9576008848, "lat": 50.9402997, "lon": 7.0288646}, {"type": "node", "id": 9576008849, "lat": 50.9402821, "lon": 7.0288653}, {"type": "node", "id": 9576008850, "lat": 50.9402782, "lon": 7.0286205}, {"type": "node", "id": 9576030453, "lat": 50.9368049, "lon": 7.0202335}, {"type": "node", "id": 9576030454, "lat": 50.9368416, "lon": 7.0201776}, {"type": "node", "id": 9576030455, "lat": 50.9369406, "lon": 7.0205731}, {"type": "node", "id": 9576030456, "lat": 50.9369068, "lon": 7.0206221}, {"type": "node", "id": 9714088790, "lat": 50.939767, "lon": 7.0357137, "tags": {"amenity": "waste_basket"}}, {"type": "node", "id": 9773481946, "lat": 50.9414109, "lon": 7.0223199, "tags": {"amenity": "recycling", "location": "overground", "operator": "AWB K\u00f6ln", "recycling:clothes": "yes", "recycling_type": "container"}}, {"type": "node", "id": 9773788739, "lat": 50.9415651, "lon": 7.0227784, "tags": {"amenity": "bench", "backrest": "no", "material": "wood"}}, {"type": "node", "id": 9773788740, "lat": 50.9416075, "lon": 7.0231604, "tags": {"amenity": "bench", "backrest": "yes"}}, {"type": "node", "id": 9773788741, "lat": 50.9416086, "lon": 7.0232128, "tags": {"amenity": "bench", "backrest": "yes"}}, {"type": "node", "id": 9773788742, "lat": 50.9416113, "lon": 7.0232647, "tags": {"amenity": "bench", "backrest": "yes"}}, {"type": "node", "id": 9773788743, "lat": 50.9416148, "lon": 7.023314, "tags": {"amenity": "bench", "backrest": "yes"}}, {"type": "node", "id": 9775747410, "lat": 50.9404663, "lon": 7.0221436, "tags": {"access": "yes", "amenity": "bicycle_parking", "bicycle_parking": "stands", "capacity": "6", "covered": "no", "fee": "no"}}, {"type": "node", "id": 9775747411, "lat": 50.9405787, "lon": 7.0222146, "tags": {"amenity": "waste_basket", "colour": "silver", "material": "metal", "waste": "trash"}}, {"type": "node", "id": 9775747412, "lat": 50.9404048, "lon": 7.0222019, "tags": {"amenity": "waste_basket", "colour": "silver", "material": "metal", "waste": "trash"}}, {"type": "node", "id": 9775747413, "lat": 50.9404068, "lon": 7.0219338, "tags": {"amenity": "waste_basket", "colour": "silver", "material": "metal", "waste": "trash"}}, {"type": "node", "id": 9775747414, "lat": 50.9402386, "lon": 7.0222647, "tags": {"amenity": "waste_basket", "colour": "silver", "material": "metal", "waste": "trash"}}, {"type": "node", "id": 9775747415, "lat": 50.9402412, "lon": 7.0222494, "tags": {"amenity": "vending_machine", "bin": "yes", "fee": "no", "vending": "excrement_bags"}}, {"type": "node", "id": 9775747416, "lat": 50.9402334, "lon": 7.021775, "tags": {"amenity": "waste_basket", "colour": "silver", "material": "metal", "waste": "trash"}}, {"type": "node", "id": 9775776217, "lat": 50.9395262, "lon": 7.0218885, "tags": {"amenity": "waste_basket", "colour": "green", "material": "metal", "waste": "trash"}}, {"type": "node", "id": 9775776218, "lat": 50.9403557, "lon": 7.020869, "tags": {"amenity": "waste_basket", "colour": "silver", "material": "metal", "waste": "trash"}}, {"type": "node", "id": 9775776219, "lat": 50.9403583, "lon": 7.0211322, "tags": {"amenity": "waste_basket", "colour": "silver", "material": "metal", "waste": "trash"}}, {"type": "node", "id": 9775776220, "lat": 50.9416669, "lon": 7.0227419}, {"type": "node", "id": 9775776221, "lat": 50.9416696, "lon": 7.0227989}, {"type": "node", "id": 9775776222, "lat": 50.9415414, "lon": 7.022807}, {"type": "node", "id": 9775776223, "lat": 50.9415378, "lon": 7.022755}, {"type": "node", "id": 9775776224, "lat": 50.9416074, "lon": 7.0231895, "tags": {"amenity": "waste_basket", "colour": "green", "material": "metal", "waste": "trash"}}, {"type": "node", "id": 9775776225, "lat": 50.9416096, "lon": 7.0232391, "tags": {"amenity": "waste_basket", "colour": "green", "material": "metal", "waste": "trash"}}, {"type": "node", "id": 9775776226, "lat": 50.9416132, "lon": 7.0232878, "tags": {"amenity": "waste_basket", "colour": "green", "material": "metal", "waste": "trash"}}, {"type": "node", "id": 9775776230, "lat": 50.9416333, "lon": 7.0228984, "tags": {"amenity": "bench", "backrest": "yes", "material": "wood"}}, {"type": "node", "id": 9775776231, "lat": 50.9416525, "lon": 7.0228984, "tags": {"amenity": "bench", "backrest": "yes", "material": "wood"}}, {"type": "node", "id": 9775776232, "lat": 50.9417429, "lon": 7.0228156, "tags": {"amenity": "waste_basket", "colour": "silver", "material": "metal", "waste": "trash"}}, {"type": "node", "id": 9775776233, "lat": 50.9417248, "lon": 7.0228161, "tags": {"amenity": "vending_machine", "fee": "no", "vending": "excrement_bags"}}, {"type": "node", "id": 9775776234, "lat": 50.9417142, "lon": 7.0233417, "tags": {"amenity": "waste_basket", "colour": "green", "material": "metal", "waste": "trash"}}, {"type": "node", "id": 9775776236, "lat": 50.9403711, "lon": 7.0217018, "tags": {"amenity": "bench", "backrest": "yes", "colour": "green", "material": "metal"}}, {"type": "node", "id": 9775776237, "lat": 50.9418468, "lon": 7.0250649, "tags": {"amenity": "bench", "backrest": "yes"}}, {"type": "node", "id": 9775776238, "lat": 50.9418444, "lon": 7.0250462, "tags": {"amenity": "waste_basket", "material": "metal", "waste": "trash"}}, {"type": "node", "id": 9775776239, "lat": 50.9418935, "lon": 7.025708, "tags": {"amenity": "waste_basket", "colour": "green", "material": "metal", "waste": "trash"}}, {"type": "node", "id": 9775776241, "lat": 50.9418596, "lon": 7.0264057, "tags": {"amenity": "bench", "backrest": "yes", "colour": "green", "material": "metal"}}, {"type": "node", "id": 9775776242, "lat": 50.9419023, "lon": 7.0270736, "tags": {"amenity": "bench", "backrest": "yes", "material": "wood"}}, {"type": "node", "id": 9775776243, "lat": 50.9418811, "lon": 7.0264019, "tags": {"amenity": "waste_basket", "waste": "trash"}}, {"type": "node", "id": 9775776244, "lat": 50.9418408, "lon": 7.0272544, "tags": {"amenity": "waste_basket", "waste": "trash"}}, {"type": "node", "id": 9775776245, "lat": 50.9417486, "lon": 7.0272574, "tags": {"amenity": "recycling", "recycling:glass_bottles": "yes", "recycling_type": "container"}}, {"type": "node", "id": 9775776246, "lat": 50.9417569, "lon": 7.0272249, "tags": {"amenity": "recycling", "recycling:clothes": "yes", "recycling_type": "container"}}, {"type": "node", "id": 9775776247, "lat": 50.941371, "lon": 7.0272692, "tags": {"amenity": "bench", "backrest": "yes", "colour": "green", "material": "metal"}}, {"type": "node", "id": 9775776248, "lat": 50.9413136, "lon": 7.0272374, "tags": {"amenity": "bench", "backrest": "yes", "colour": "green", "material": "metal"}}, {"type": "node", "id": 9775776249, "lat": 50.9411786, "lon": 7.0284347, "tags": {"amenity": "bicycle_parking", "covered": "no"}}, {"type": "node", "id": 9775776250, "lat": 50.9444288, "lon": 7.0319626, "tags": {"amenity": "waste_basket", "colour": "silver", "material": "metal", "waste": "trash"}}, {"type": "node", "id": 9775776252, "lat": 50.9457958, "lon": 7.0333453, "tags": {"amenity": "bench", "backrest": "yes", "colour": "green", "material": "metal"}}, {"type": "node", "id": 9775776253, "lat": 50.9458003, "lon": 7.0333608, "tags": {"amenity": "bench", "backrest": "yes", "colour": "green", "material": "metal"}}, {"type": "node", "id": 9775776254, "lat": 50.9458097, "lon": 7.033396, "tags": {"amenity": "bench", "backrest": "yes", "colour": "green", "material": "metal"}}, {"type": "node", "id": 9775776255, "lat": 50.9458123, "lon": 7.0334085, "tags": {"amenity": "bench", "backrest": "yes", "colour": "green", "material": "metal"}}, {"type": "node", "id": 9775776256, "lat": 50.9458163, "lon": 7.0334265, "tags": {"amenity": "bench", "backrest": "yes", "colour": "green", "material": "metal"}}, {"type": "node", "id": 9775776257, "lat": 50.9458185, "lon": 7.0334415, "tags": {"amenity": "bench", "backrest": "yes", "colour": "green", "material": "metal"}}, {"type": "node", "id": 9775776258, "lat": 50.9457911, "lon": 7.0333281, "tags": {"amenity": "waste_basket", "waste": "trash"}}, {"type": "node", "id": 9775776259, "lat": 50.9458056, "lon": 7.0333788, "tags": {"amenity": "waste_basket", "waste": "trash"}}, {"type": "node", "id": 9775776260, "lat": 50.9454322, "lon": 7.0334093, "tags": {"amenity": "bench", "backrest": "yes", "colour": "green", "material": "metal"}}, {"type": "node", "id": 9775776261, "lat": 50.9454566, "lon": 7.0334102, "tags": {"amenity": "bench", "backrest": "yes", "colour": "green", "material": "metal"}}, {"type": "node", "id": 9775776262, "lat": 50.9454447, "lon": 7.0334065, "tags": {"amenity": "waste_basket", "waste": "trash"}}, {"type": "node", "id": 9775776263, "lat": 50.9470169, "lon": 7.0355098, "tags": {"amenity": "waste_basket", "waste": "trash"}}, {"type": "node", "id": 9775776264, "lat": 50.9470319, "lon": 7.0355296, "tags": {"amenity": "bench", "backrest": "yes", "colour": "green", "material": "metal"}}, {"type": "node", "id": 9775776265, "lat": 50.9473126, "lon": 7.0368475, "tags": {"amenity": "bench", "backrest": "yes"}}, {"type": "node", "id": 9775776266, "lat": 50.9456603, "lon": 7.0370392, "tags": {"amenity": "waste_basket", "waste": "trash"}}, {"type": "node", "id": 9775776267, "lat": 50.945629, "lon": 7.0370474, "tags": {"amenity": "bench", "backrest": "yes", "colour": "green", "material": "metal"}}, {"type": "node", "id": 9775776268, "lat": 50.9451815, "lon": 7.0365524, "tags": {"amenity": "waste_basket", "waste": "trash"}}, {"type": "node", "id": 9775776269, "lat": 50.9451862, "lon": 7.0365722, "tags": {"amenity": "bench", "backrest": "yes", "colour": "green", "material": "metal"}}, {"type": "node", "id": 9775776270, "lat": 50.9448925, "lon": 7.0350768, "tags": {"amenity": "waste_basket", "waste": "trash"}}, {"type": "node", "id": 9775776271, "lat": 50.9448831, "lon": 7.035039, "tags": {"amenity": "bench", "backrest": "yes", "colour": "green", "material": "metal"}}, {"type": "node", "id": 9775776272, "lat": 50.9450641, "lon": 7.0358343, "tags": {"amenity": "waste_basket", "waste": "trash"}}, {"type": "node", "id": 9775776273, "lat": 50.9450484, "lon": 7.0359981, "tags": {"amenity": "waste_basket", "waste": "trash"}}, {"type": "node", "id": 9775776274, "lat": 50.9451586, "lon": 7.0362477, "tags": {"amenity": "waste_basket", "waste": "trash"}}, {"type": "node", "id": 9775776275, "lat": 50.9446787, "lon": 7.0371557, "tags": {"amenity": "waste_basket", "waste": "trash"}}, {"type": "node", "id": 9775776276, "lat": 50.9446969, "lon": 7.0371529, "tags": {"amenity": "bench", "backrest": "yes", "colour": "green", "material": "metal"}}, {"type": "node", "id": 9775776277, "lat": 50.9434033, "lon": 7.0373557, "tags": {"amenity": "waste_basket", "waste": "trash"}}, {"type": "node", "id": 9775776278, "lat": 50.9418303, "lon": 7.0363731, "tags": {"amenity": "waste_basket", "waste": "trash"}}, {"type": "node", "id": 9775776279, "lat": 50.9418328, "lon": 7.0364022, "tags": {"amenity": "bench", "backrest": "yes", "colour": "green", "material": "metal"}}, {"type": "node", "id": 9775776280, "lat": 50.9418583, "lon": 7.0366871, "tags": {"amenity": "waste_basket", "waste": "trash"}}, {"type": "node", "id": 9775776281, "lat": 50.9418564, "lon": 7.0366532, "tags": {"amenity": "bench", "backrest": "yes", "colour": "green", "material": "metal"}}, {"type": "node", "id": 9775776282, "lat": 50.9418053, "lon": 7.0356521, "tags": {"amenity": "waste_basket", "waste": "trash"}}, {"type": "node", "id": 9775776283, "lat": 50.9418175, "lon": 7.0356615, "tags": {"amenity": "bench", "backrest": "yes", "colour": "green", "material": "metal"}}, {"type": "node", "id": 9775776284, "lat": 50.9428609, "lon": 7.0354188, "tags": {"amenity": "waste_basket", "waste": "trash"}}, {"type": "node", "id": 9775776285, "lat": 50.9428453, "lon": 7.0354224, "tags": {"amenity": "bench", "backrest": "no", "material": "wood"}}, {"type": "node", "id": 9775776286, "lat": 50.9447043, "lon": 7.034653, "tags": {"amenity": "waste_basket", "waste": "trash"}}, {"type": "node", "id": 9775776287, "lat": 50.9447091, "lon": 7.0346238, "tags": {"amenity": "bench", "backrest": "yes", "colour": "green", "material": "metal"}}, {"type": "node", "id": 9775776288, "lat": 50.9449692, "lon": 7.0356652, "tags": {"amenity": "waste_basket", "waste": "trash"}}, {"type": "node", "id": 9775776289, "lat": 50.9449739, "lon": 7.035685, "tags": {"amenity": "bench", "backrest": "yes", "colour": "green", "material": "metal"}}, {"type": "node", "id": 9775776292, "lat": 50.9484146, "lon": 7.0317508, "tags": {"amenity": "bench", "backrest": "yes", "check_date": "2020-12-27"}}, {"type": "node", "id": 9775776293, "lat": 50.9416216, "lon": 7.0333109, "tags": {"amenity": "waste_basket", "waste": "trash"}}, {"type": "node", "id": 9775776294, "lat": 50.9416678, "lon": 7.032152, "tags": {"amenity": "bench", "backrest": "yes", "material": "wood"}}, {"type": "node", "id": 9775776295, "lat": 50.9416704, "lon": 7.0321264, "tags": {"amenity": "waste_basket", "waste": "trash"}}, {"type": "node", "id": 9775776296, "lat": 50.9418069, "lon": 7.0306778, "tags": {"amenity": "bench", "backrest": "yes", "material": "wood"}}, {"type": "node", "id": 9775776297, "lat": 50.9418088, "lon": 7.0306603, "tags": {"amenity": "waste_basket", "waste": "trash"}}, {"type": "node", "id": 9775776298, "lat": 50.9400798, "lon": 7.0279038, "tags": {"amenity": "waste_basket", "colour": "silver", "material": "metal", "waste": "trash"}}, {"type": "node", "id": 9775776299, "lat": 50.9401339, "lon": 7.0277918, "tags": {"amenity": "waste_basket", "colour": "silver", "material": "metal", "waste": "trash"}}, {"type": "node", "id": 9775776300, "lat": 50.9403306, "lon": 7.0261216, "tags": {"addr:city": "K\u00f6ln", "addr:housenumber": "111", "addr:postcode": "51103", "addr:street": "Olpener Stra\u00dfe", "amenity": "post_office", "operator": "Deutsche Post", "operator:wikidata": "Q157645"}}, {"type": "node", "id": 9775776301, "lat": 50.9403082, "lon": 7.0257666, "tags": {"amenity": "waste_basket", "colour": "silver", "material": "metal", "waste": "trash"}}, {"type": "node", "id": 9775776302, "lat": 50.9401384, "lon": 7.0257038, "tags": {"amenity": "waste_basket", "colour": "silver", "material": "metal", "waste": "trash"}}, {"type": "node", "id": 9775776303, "lat": 50.9403288, "lon": 7.0254025, "tags": {"amenity": "vending_machine", "fee": "no", "vending": "excrement_bags"}}, {"type": "node", "id": 9775776304, "lat": 50.9403405, "lon": 7.0243156, "tags": {"amenity": "bench", "backrest": "yes"}}, {"type": "node", "id": 9775776305, "lat": 50.9403447, "lon": 7.0243824, "tags": {"amenity": "bench", "backrest": "yes"}}, {"type": "node", "id": 9775776306, "lat": 50.9403397, "lon": 7.024385, "tags": {"amenity": "waste_basket", "waste": "trash"}}, {"type": "node", "id": 9775776308, "lat": 50.9402046, "lon": 7.0241736, "tags": {"amenity": "waste_basket", "waste": "trash"}}, {"type": "node", "id": 9807775269, "lat": 50.9426444, "lon": 7.0204306, "tags": {"amenity": "vending_machine", "bin": "no", "fee": "no", "vending": "excrement_bags"}}, {"type": "node", "id": 9859115332, "lat": 50.9410659, "lon": 7.0268969}, {"type": "node", "id": 9859115333, "lat": 50.9411308, "lon": 7.0269659}, {"type": "node", "id": 9859115334, "lat": 50.9411377, "lon": 7.0268955}, {"type": "node", "id": 9859115335, "lat": 50.9410723, "lon": 7.0268141}, {"type": "node", "id": 9859115336, "lat": 50.9408388, "lon": 7.0266137}, {"type": "node", "id": 9859115337, "lat": 50.9410512, "lon": 7.026873}, {"type": "node", "id": 9859115338, "lat": 50.9410544, "lon": 7.0267902}, {"type": "node", "id": 9859115339, "lat": 50.9408421, "lon": 7.0265309}, {"type": "node", "id": 9859115340, "lat": 50.9406494, "lon": 7.0263812}, {"type": "node", "id": 9859115341, "lat": 50.9408247, "lon": 7.0265991}, {"type": "node", "id": 9859115342, "lat": 50.9408283, "lon": 7.0265127}, {"type": "node", "id": 9859115343, "lat": 50.9406521, "lon": 7.0262963}, {"type": "node", "id": 9859115344, "lat": 50.9416924, "lon": 7.0271867}, {"type": "node", "id": 9859115345, "lat": 50.941459, "lon": 7.0270371}, {"type": "node", "id": 9859115346, "lat": 50.9414695, "lon": 7.0271235}, {"type": "node", "id": 9859115347, "lat": 50.9416915, "lon": 7.0272652}, {"type": "node", "id": 9910567465, "lat": 50.9388619, "lon": 7.0185785}, {"type": "node", "id": 9910567466, "lat": 50.9385613, "lon": 7.0186639}, {"type": "node", "id": 9917938526, "lat": 50.9422735, "lon": 7.0233721}, {"type": "node", "id": 9917938527, "lat": 50.9422489, "lon": 7.0234985}, {"type": "node", "id": 9917938528, "lat": 50.9421954, "lon": 7.0234723}, {"type": "node", "id": 9917938529, "lat": 50.94222, "lon": 7.023346}, {"type": "node", "id": 10053433741, "lat": 50.9397956, "lon": 7.019302}, {"type": "node", "id": 10054341759, "lat": 50.9398246, "lon": 7.0324241, "tags": {"access": "yes", "amenity": "charging_station", "authentication:none": "yes", "capacity": "2", "covered": "no", "fee": "no", "operator": "Autohaus Karst GmbH", "socket:schuko": "2", "socket:schuko:current": "16", "socket:schuko:output": "3.7 kW", "socket:schuko:voltage": "230"}}, {"type": "node", "id": 10087771225, "lat": 50.9483451, "lon": 7.0295698, "tags": {"amenity": "bench", "backrest": "yes"}}, {"type": "node", "id": 10557247539, "lat": 50.9404284, "lon": 7.0230135, "tags": {"amenity": "fast_food", "diet:vegan": "no", "diet:vegetarian": "yes", "indoor_seating": "yes", "name": "Chickenland", "opening_hours": "PH,Mo-Su 11:00-22:00", "outdoor_seating": "yes", "wheelchair": "no"}}, {"type": "node", "id": 10577822762, "lat": 50.9460751, "lon": 7.0196661}, {"type": "node", "id": 10577822763, "lat": 50.9461118, "lon": 7.0200115}, {"type": "node", "id": 10577822764, "lat": 50.9460945, "lon": 7.0200162}, {"type": "node", "id": 10577822765, "lat": 50.9460578, "lon": 7.0196708}, {"type": "node", "id": 10577822766, "lat": 50.9457449, "lon": 7.0206631}, {"type": "node", "id": 10577822767, "lat": 50.9455858, "lon": 7.0208943}, {"type": "node", "id": 10577822768, "lat": 50.9455975, "lon": 7.0209144}, {"type": "node", "id": 10577822769, "lat": 50.9457565, "lon": 7.0206833}, {"type": "node", "id": 10577822770, "lat": 50.9460539, "lon": 7.0201448}, {"type": "node", "id": 10577822771, "lat": 50.9457297, "lon": 7.0206284}, {"type": "node", "id": 10577822772, "lat": 50.9457753, "lon": 7.0206569}, {"type": "node", "id": 10577822773, "lat": 50.9461001, "lon": 7.0201757}, {"type": "node", "id": 10577822774, "lat": 50.946612, "lon": 7.0197486}, {"type": "node", "id": 10577822775, "lat": 50.9464992, "lon": 7.0197778}, {"type": "node", "id": 10577822776, "lat": 50.9465211, "lon": 7.0198313}, {"type": "node", "id": 10577822777, "lat": 50.9466323, "lon": 7.0198015}, {"type": "node", "id": 10577822778, "lat": 50.9473115, "lon": 7.0191265}, {"type": "node", "id": 10577822779, "lat": 50.9472052, "lon": 7.0191567}, {"type": "node", "id": 10577822780, "lat": 50.947213, "lon": 7.0192259}, {"type": "node", "id": 10577822781, "lat": 50.9473193, "lon": 7.0191958}, {"type": "node", "id": 10577822782, "lat": 50.9470708, "lon": 7.0192602}, {"type": "node", "id": 10577822783, "lat": 50.9469709, "lon": 7.0192966}, {"type": "node", "id": 10577822784, "lat": 50.9469818, "lon": 7.0193714}, {"type": "node", "id": 10577822785, "lat": 50.9470816, "lon": 7.019335}, {"type": "node", "id": 10577822786, "lat": 50.9464255, "lon": 7.0192427}, {"type": "node", "id": 10577822787, "lat": 50.9465937, "lon": 7.019146}, {"type": "node", "id": 10577822788, "lat": 50.9465746, "lon": 7.0190627}, {"type": "node", "id": 10577822789, "lat": 50.9464065, "lon": 7.0191594}, {"type": "node", "id": 10690165542, "lat": 50.9440396, "lon": 7.0264862}, {"type": "node", "id": 10816581678, "lat": 50.940185, "lon": 7.0193408}, {"type": "node", "id": 10816581679, "lat": 50.9402023, "lon": 7.0193366}, {"type": "node", "id": 10816581680, "lat": 50.9401757, "lon": 7.0192615}, {"type": "node", "id": 10816581681, "lat": 50.9401904, "lon": 7.0192581}, {"type": "node", "id": 10816581682, "lat": 50.9401603, "lon": 7.0191718}, {"type": "node", "id": 10816581683, "lat": 50.9401915, "lon": 7.0194095}, {"type": "node", "id": 10816581684, "lat": 50.9402088, "lon": 7.0194091}, {"type": "node", "id": 10816581685, "lat": 50.9401755, "lon": 7.0191675}, {"type": "node", "id": 10816581686, "lat": 50.9402179, "lon": 7.0196264}, {"type": "node", "id": 10816581687, "lat": 50.9402125, "lon": 7.0194638}, {"type": "node", "id": 10816581688, "lat": 50.9401945, "lon": 7.0194653}, {"type": "node", "id": 10816581689, "lat": 50.9402, "lon": 7.019628}, {"type": "node", "id": 10816581690, "lat": 50.9402244, "lon": 7.0199257}, {"type": "node", "id": 10816581691, "lat": 50.9402182, "lon": 7.0197015}, {"type": "node", "id": 10816581692, "lat": 50.9402016, "lon": 7.0197027}, {"type": "node", "id": 10816581693, "lat": 50.9402078, "lon": 7.0199269}, {"type": "node", "id": 10816581694, "lat": 50.9402329, "lon": 7.0202485}, {"type": "node", "id": 10816581695, "lat": 50.9402306, "lon": 7.0201791}, {"type": "node", "id": 10816581696, "lat": 50.9402142, "lon": 7.0201805}, {"type": "node", "id": 10816581697, "lat": 50.9402166, "lon": 7.0202499}, {"type": "node", "id": 10816581698, "lat": 50.9402376, "lon": 7.020416}, {"type": "node", "id": 10816581699, "lat": 50.9402398, "lon": 7.0205002}, {"type": "node", "id": 10816581700, "lat": 50.9402228, "lon": 7.0205013}, {"type": "node", "id": 10816581701, "lat": 50.9402206, "lon": 7.0204171}, {"type": "node", "id": 10816581702, "lat": 50.9402413, "lon": 7.0205751}, {"type": "node", "id": 10816581703, "lat": 50.9402451, "lon": 7.0207415}, {"type": "node", "id": 10816581704, "lat": 50.9402292, "lon": 7.0207424}, {"type": "node", "id": 10816586205, "lat": 50.9402254, "lon": 7.020576}, {"type": "way", "id": 28334250, "nodes": [311163504, 311163509, 311163512, 311163520, 311163506, 311163504], "tags": {"access": "private", "amenity": "parking", "parking": "surface"}}, {"type": "way", "id": 28335780, "nodes": [3008675474, 3008675503, 3008675484, 3008675336, 3008675263, 311184824, 3008675449, 311184822, 3008675510, 3008675505, 3008675290, 3008675489, 3008675499, 3008675497, 311184813, 3008675474], "tags": {"addr:city": "K\u00f6ln", "addr:country": "DE", "addr:housenumber": "129a", "addr:postcode": "51103", "addr:street": "Oranienstra\u00dfe", "amenity": "social_facility", "building": "yes", "building:levels": "2", "building:use": "gathering", "email": "oranien@koelnkitas.de", "name": "Kindertagesst\u00e4tte und Familienzentrum Oranienstra\u00dfe", "phone": "+49 221 873358", "social_facility": "outreach", "website": "http://www.koelnkitas.de/oranienstrasse.html"}}, {"type": "way", "id": 28384703, "nodes": [311791715, 311791714, 311791722, 311791724, 311791725, 311791747, 311791715], "tags": {"access": "private", "amenity": "parking", "parking": "surface"}}, {"type": "way", "id": 28418790, "nodes": [3039419841, 3039419816, 3039419814, 3039419819, 3039419818, 3039419840, 3039419843, 3039419829, 3039419841], "tags": {"addr:city": "K\u00f6ln", "addr:country": "DE", "addr:housenumber": "2a", "addr:postcode": "51103", "addr:street": "Rothenburger Stra\u00dfe", "amenity": "kindergarten", "building": "yes", "building:levels": "1", "building:use": "gathering", "name": "KiTa H\u00f6henberg"}}, {"type": "way", "id": 28764355, "nodes": [3039420063, 3039420053, 3039420052, 3039420057, 3039420043, 3039420047, 3039420044, 3039420055, 3039420063], "tags": {"addr:city": "K\u00f6ln", "addr:country": "DE", "addr:housenumber": "2", "addr:postcode": "51103", "addr:street": "Schulstra\u00dfe", "amenity": "restaurant", "building": "yes", "building:levels": "1", "building:use": "residential;industrial", "name": "Oranieneck", "smoking": "yes"}}, {"type": "way", "id": 29184786, "nodes": [320944929, 9910567465, 320944930, 320944931, 9910567466, 320944932, 320944929], "tags": {"access": "private", "amenity": "parking", "parking": "surface", "source": "photography"}}, {"type": "way", "id": 29188217, "nodes": [320976045, 320976052, 3039420665, 320976054, 3039420564, 3039420562, 3039420555, 3039420554, 3039420561, 320976048, 320976045], "tags": {"addr:city": "K\u00f6ln", "addr:country": "DE", "addr:housenumber": "2a", "addr:postcode": "51103", "addr:street": "Bennoplatz", "alt_name": "Gurdwara Sri Guru Tegh Bahadur Sahib", "amenity": "place_of_worship", "building": "yes", "building:levels": "1", "building:use": "gathering", "name": "Sikh-Tempel Sri Guru Tegh Bahadur Sahib", "religion": "sikh"}}, {"type": "way", "id": 31283353, "nodes": [3356327284, 3356327289, 3356328361, 3356328366, 3356328364, 3356328365, 3356328360, 3356328358, 3356328359, 3356330617, 3356330616, 3356330615, 3356330618, 3356330614, 3356330619, 3356330620, 3356330622, 3356328357, 3356330621, 3356330623, 3356327284], "tags": {"addr:city": "K\u00f6ln", "addr:country": "DE", "addr:housenumber": "293", "addr:postcode": "51103", "addr:street": "Frankfurter Stra\u00dfe", "amenity": "funeral_hall", "building": "yes", "name": "Trauerhalle"}}, {"type": "way", "id": 33434244, "nodes": [3039421536, 3039420723, 3039420713, 3039420714, 3039420724, 3039421538, 3039421536], "tags": {"amenity": "fast_food", "building": "yes", "building:levels": "1", "cuisine": "pizza", "name": "Pizza Panda"}}, {"type": "way", "id": 33507505, "nodes": [381953984, 320978961, 320978959, 381953995, 320980001, 320980004, 381953984], "tags": {"access": "permissive", "amenity": "parking", "name": "Norma", "parking": "surface"}}, {"type": "way", "id": 33508763, "nodes": [3074255497, 3074256321, 3074256322, 3074256292, 3074256291, 8433215472, 8433215464, 8433215463, 8433215471, 3074256610, 3074256611, 3074256779, 3074256778, 3074256316, 3074256317, 3074255496, 8433215469, 8433215466, 8433215465, 8433215467, 8433215468, 8433215470, 3074255497], "tags": {"amenity": "parking", "parking": "surface"}}, {"type": "way", "id": 33509274, "nodes": [3051899322, 3051899303, 3051899310, 3051899286, 3051899703, 3051899302, 3051899322], "tags": {"addr:city": "K\u00f6ln", "addr:country": "DE", "addr:housenumber": "125", "addr:postcode": "51103", "addr:street": "Burgstra\u00dfe", "amenity": "social_facility", "building": "school", "building:levels": "3", "building:use": "gathering"}}, {"type": "way", "id": 33770239, "nodes": [386579998, 386579999, 386580000, 386580001, 386579998], "tags": {"access": "permissive", "amenity": "parking", "parking": "surface", "source": "photography"}}, {"type": "way", "id": 33770496, "nodes": [386581499, 3074256250, 3074256240, 3074256238, 3074256246, 386581501, 386581502, 3074255981, 3074255990, 3074255996, 3074255988, 386581500, 386581503, 386581499], "tags": {"addr:city": "K\u00f6ln", "addr:country": "DE", "addr:housenumber": "3", "addr:postcode": "51103", "addr:street": "Augsburger Stra\u00dfe", "amenity": "kindergarten", "building": "yes", "building:levels": "1", "building:use": "gathering", "name": "Kindertagesst\u00e4tte"}}, {"type": "way", "id": 43759615, "nodes": [554161965, 554161955, 554161953, 3039419916, 3039419917, 3039421935, 3039421936, 3039421948, 3039421947, 554161957, 554161968, 554161965], "tags": {"addr:city": "K\u00f6ln", "addr:country": "DE", "addr:housenumber": "9-13", "addr:postcode": "51103", "addr:street": "Olpener Stra\u00dfe", "amenity": "public_building", "building": "yes", "building:levels": "4", "building:use": "public", "name": "Postamt H\u00f6henberg"}}, {"type": "way", "id": 44581798, "nodes": [3039421968, 3039421951, 3039421952, 3039421955, 3039421954, 3039421953, 3039421972, 3039421971, 3039421968], "tags": {"addr:city": "K\u00f6ln", "addr:country": "DE", "addr:housenumber": "27", "addr:postcode": "51103", "addr:street": "Olpener Stra\u00dfe", "amenity": "fuel", "brand": "Markant", "building": "yes", "building:use": "service", "name": "Markant"}}, {"type": "way", "id": 52459493, "nodes": [2379133036, 666946070, 2379133035, 2379133034, 2379133032, 2379133036], "tags": {"access": "customers", "amenity": "parking", "parking": "surface"}}, {"type": "way", "id": 52459494, "nodes": [3065951495, 3065951478, 666946128, 3065951473, 3065951474, 3065951475, 3065951482, 3065951487, 3065951486, 3065951492, 3065951491, 3065951494, 3065951493, 3065951496, 3065951495], "tags": {"addr:city": "K\u00f6ln", "addr:country": "DE", "addr:housenumber": "4", "addr:postcode": "51103", "addr:street": "Geraer Stra\u00dfe", "amenity": "kindergarten", "building": "kindergarten", "building:levels": "2", "building:use": "gathering", "name": "Kindertagesst\u00e4tte"}}, {"type": "way", "id": 85417948, "nodes": [990227306, 10690165542, 990227722, 990227603, 990227607, 990227306], "tags": {"access": "yes", "amenity": "parking", "capacity": "30", "fee": "yes", "parking": "surface"}}, {"type": "way", "id": 85417953, "nodes": [990227450, 990227286, 1646033710, 990227640, 1646033718, 1646033722, 990227414, 990227343, 990227344, 992820075, 990227450], "tags": {"access": "yes", "amenity": "parking", "capacity": "80", "fee": "no", "parking": "surface"}}, {"type": "way", "id": 107820947, "nodes": [3074312905, 3074256971, 3074256961, 3074256936, 3074256784, 3074312902, 3074312905], "tags": {"addr:city": "K\u00f6ln", "addr:country": "DE", "addr:housenumber": "14", "addr:postcode": "51103", "addr:street": "Adalbertstra\u00dfe", "amenity": "place_of_worship", "building": "church", "building:levels": "9", "building:use": "religious"}}, {"type": "way", "id": 107820959, "nodes": [3051899123, 3051899053, 3051899042, 3051899033, 3051898413, 3051899063, 3051899123], "tags": {"amenity": "kindergarten", "building": "yes", "building:levels": "1"}}, {"type": "way", "id": 107820967, "nodes": [3051899243, 3051899080, 3051899055, 3051899045, 3051899056, 3051899036, 3051899070, 3051899113, 3051899131, 3051899239, 3051899127, 3051899243], "tags": {"amenity": "place_of_worship", "building": "church", "building:levels": "2", "deanery": "Evangelischer Kirchenkreis K\u00f6ln-Rechtsrheinisch", "denomination": "protestant", "diocese": "Evangelische Kirche im Rheinland", "name": "Erl\u00f6serkirche Vingst", "parish": "Evangelische Kirchengemeinde Vingst-Neubr\u00fcck-H\u00f6henberg", "religion": "christian", "service_times": "Su 11:00", "website": "http://neubrueck.kirchekoeln.de/", "wikidata": "Q62588293"}}, {"type": "way", "id": 115379429, "nodes": [3051899528, 3051899395, 3051899518, 3051899502, 3051899495, 3051899478, 3051899503, 3051899500, 3051899385, 3051899404, 3051899528], "tags": {"addr:city": "K\u00f6ln", "addr:country": "DE", "addr:housenumber": "44", "addr:postcode": "51103", "addr:street": "Schulstra\u00dfe", "amenity": "social_facility", "building": "detached", "building:levels": "2", "building:use": "gathering"}}, {"type": "way", "id": 115613526, "nodes": [8680545677, 1305716467, 1305716447, 1305716691, 1305716566, 1305716718, 8680545677], "tags": {"amenity": "parking", "parking": "surface"}}, {"type": "way", "id": 132540432, "nodes": [381966305, 2697985437, 2697985430, 2697985421, 386580003, 381966308, 1457828989, 2697985428, 381966305], "tags": {"access": "yes", "amenity": "parking", "fee": "no", "parking": "surface"}}, {"type": "way", "id": 224172369, "nodes": [2329975937, 3076828633, 2329975941, 2329975932, 2329975934, 3076825610, 3076825614, 2329975935, 3076825611, 3076825625, 2329975937], "tags": {"amenity": "parking", "parking": "surface"}}, {"type": "way", "id": 265304215, "nodes": [2709726667, 2709726604, 2709726606, 2709726662, 2709726665, 2709726667], "tags": {"amenity": "parking", "parking": "surface"}}, {"type": "way", "id": 265596632, "nodes": [2712349806, 2712349775, 2712349783, 2712349810, 2712349806], "tags": {"amenity": "parking", "parking": "surface", "source": "survey"}}, {"type": "way", "id": 297028371, "nodes": [3008675046, 3008674621, 3008674620, 3008674618, 3008673991, 3008674600, 3008674012, 3008675036, 3008675046], "tags": {"addr:city": "K\u00f6ln", "addr:country": "DE", "addr:housenumber": "11", "addr:postcode": "51103", "addr:street": "W\u00fcrzburger Stra\u00dfe", "amenity": "social_facility", "building": "yes", "building:levels": "1", "building:use": "gathering"}}, {"type": "way", "id": 300702137, "nodes": [3048105174, 3048105175, 3048105176, 10053433741, 3039420707, 3048105178, 3048105177, 3048105179, 1686246660, 3039420704, 1686246657, 3048105174], "tags": {"addr:city": "K\u00f6ln", "addr:housenumber": "60", "addr:postcode": "51103", "addr:street": "Olpener Stra\u00dfe", "amenity": "fuel", "brand": "JET", "brand:wikidata": "Q568940", "brand:wikipedia": "en:Jet (brand)", "building:min_level": "1", "building:part": "yes", "fuel:diesel": "yes", "fuel:e10": "yes", "fuel:octane_95": "yes", "fuel:octane_98": "yes", "name": "Jet", "payment:apple_pay": "yes", "payment:cash": "yes", "payment:credit_cards": "yes", "payment:debit_cards": "yes", "payment:dkv": "yes", "payment:girocard": "yes", "payment:google_pay": "yes", "payment:logpay": "yes", "payment:maestro": "yes", "payment:mastercard": "yes", "payment:novofleet": "yes", "payment:uta": "yes", "payment:visa": "yes", "self_service": "yes", "source": "photography", "website": "https://www.jet-tankstellen.de/tankstellen/koeln/olpener-str-60/"}}, {"type": "way", "id": 301080976, "nodes": [3051898404, 3051899049, 3051899402, 3051900045, 3051900049, 3051900048, 3051899329, 3051898404], "tags": {"addr:city": "K\u00f6ln", "addr:housenumber": "17", "addr:postcode": "51103", "addr:street": "Adalbertstra\u00dfe", "alt_name": "Gesamtschule K\u00f6ln-H\u00f6henberg", "amenity": "school", "email": "Katharina-Henoth-Gesamtschule@stadt-koeln.de", "name": "Katharina-Henoth-Gesamtschule", "phone": "+49 221 88 80 90", "website": "https://igs-kathi.com"}}, {"type": "way", "id": 301080978, "nodes": [3051898367, 8758217736, 3051898677, 3051898695, 3051898864, 3051898407, 3051898394, 3051898381, 3051898367], "tags": {"addr:city": "K\u00f6ln", "addr:housenumber": "43", "addr:postcode": "51103", "addr:street": "Lustheider Stra\u00dfe", "amenity": "school", "email": "ggslustheiderstr@schulen-koeln.de", "name": "Gemeinschaftsgrundschule Lustheider Stra\u00dfe", "phone": "+49 221 35661130", "website": "https://ggslustheiderstr.de/"}}, {"type": "way", "id": 301081420, "nodes": [3051898406, 3051898401, 3051898400, 3051898392, 3051898373, 3051898385, 3051898386, 3051898390, 3051898406], "tags": {"addr:city": "K\u00f6ln", "addr:country": "DE", "addr:housenumber": "75", "addr:postcode": "51103", "addr:street": "Burgstra\u00dfe", "amenity": "community_centre", "building": "community_centre", "building:levels": "3", "building:use": "religious", "deanery": "Evangelischer Kirchenkreis K\u00f6ln-Rechtsrheinisch", "denomination": "protestant", "diocese": "Evangelische Kirche im Rheinland", "name": "Gemeindezentrum Erl\u00f6serkirche", "parish": "Evangelische Kirchengemeinde Vingst-Neubr\u00fcck-H\u00f6henberg", "religion": "christian", "website": "http://neubrueck.kirchekoeln.de/"}}, {"type": "way", "id": 302777878, "nodes": [3070554954, 3070554951, 3070554984, 3070554983, 3070554985, 3070554987, 3070554988, 3070554994, 3070554993, 3070554991, 3070554990, 3070554989, 3070554954], "tags": {"access": "private", "amenity": "parking", "layer": "-1", "level": "-1", "parking": "underground"}}, {"type": "way", "id": 302794779, "nodes": [3070791644, 3070790827, 648837479, 3070790777, 3070791658, 3070791673, 3070791675, 3070791692, 3070791687, 3070791681, 3070791644], "tags": {"amenity": "kindergarten", "name": "Kindertageseinrichtung Familienzentrum"}}, {"type": "way", "id": 302794780, "nodes": [3070791474, 3070791162, 1303883025, 3070791167, 3070791163, 3070784916, 3070784920, 3070791433, 3070791435, 3070784922, 3070784924, 3070791169, 3070791174, 3070791485, 3070791474], "tags": {"access": "private", "amenity": "parking", "layer": "-1", "level": "-1", "parking": "underground"}}, {"type": "way", "id": 302794786, "nodes": [3070793386, 3070793357, 3070793377, 3070793388, 3070793386], "tags": {"access": "private", "amenity": "parking", "parking": "surface"}}, {"type": "way", "id": 302794803, "nodes": [3074315116, 3070793385, 3070793370, 3070793369, 3070793371, 3074315114, 3074315116], "tags": {"addr:city": "K\u00f6ln", "addr:country": "DE", "addr:housenumber": "344", "addr:postcode": "51103", "addr:street": "Frankfurter Stra\u00dfe", "amenity": "public_building", "building": "yes", "building:levels": "2", "building:use": "public"}}, {"type": "way", "id": 302794810, "nodes": [3070791676, 3070791678, 3070791677, 3070791498, 3070791511, 3070791454, 3070791458, 3070791524, 3070791526, 3070791667, 3070791666, 3070791680, 3070791676], "tags": {"addr:city": "K\u00f6ln", "addr:country": "DE", "addr:housenumber": "16", "addr:postcode": "51103", "addr:street": "H\u00f6henberger Stra\u00dfe", "amenity": "social_facility", "building": "yes", "building:levels": "1", "building:use": "gathering", "name": "Kindertageseinrichtung Familienzentrum"}}, {"type": "way", "id": 302794902, "nodes": [3070790781, 3070790791, 3070790802, 3070790805, 3070790796, 3070790806, 3070790812, 3070790826, 3070790820, 3070791135, 3070791145, 3070791149, 3070791139, 3070791141, 3070791134, 3070791136, 3070790792, 3070790795, 3070790786, 3070790783, 3070790937, 3070790936, 3070789230, 3070789229, 3070789226, 3070789222, 3070789217, 3070789209, 3070789214, 3070789206, 3070789202, 3070789200, 3070789203, 3070789196, 3070789192, 3070789190, 3070789194, 3070790776, 3070790771, 3070790768, 3070790774, 3070790765, 3070790752, 3070790745, 3070790772, 3070790775, 3070789189, 3070789191, 3070789195, 3070789198, 3070789204, 3070789210, 3070789215, 3070789216, 3070789219, 3070789220, 3070790972, 3070790801, 3070790963, 3070790970, 3070790982, 3070790987, 3070790973, 3070790778, 3070790785, 3070790789, 3070790781], "tags": {"addr:city": "K\u00f6ln", "addr:country": "DE", "addr:housenumber": "17", "addr:postcode": "51103", "addr:street": "H\u00f6henberger Stra\u00dfe", "amenity": "place_of_worship", "building": "church", "building:levels": "1", "building:use": "religious", "denomination": "catholic", "name": "St. Elisabeth", "religion": "christian", "wikidata": "Q62587777"}}, {"type": "way", "id": 302951863, "nodes": [3072335461, 3072335308, 3072335301, 3072335276, 3072335274, 3072335283, 3072335270, 3072335253, 3072335302, 3072335317, 3072335420, 3072335461], "tags": {"access": "private", "amenity": "parking", "layer": "-1", "level": "-1", "parking": "underground"}}, {"type": "way", "id": 302951867, "nodes": [3072334841, 3072334855, 3072334854, 3072334903, 3072334901, 3072335046, 3072335044, 3072335072, 3072335069, 3072334687, 3072334694, 3072334688, 3072334689, 3072334650, 3072334653, 3072334643, 3072334661, 3072334648, 3072334656, 3072334699, 3072334700, 3072335077, 3072335076, 3072335071, 3072335070, 3072335053, 3072335049, 3072334880, 3072334879, 3072334864, 3072334862, 3072334877, 3072334872, 3072334870, 3072334884, 3072334882, 3072334868, 3072334867, 3072334865, 3072334878, 3072334874, 3072334861, 3072334860, 3072334857, 3072334844, 3072334843, 3072334841], "tags": {"access": "private", "amenity": "parking", "layer": "-1", "level": "-1", "parking": "underground"}}, {"type": "way", "id": 302952139, "nodes": [3072335554, 3072335479, 3072335475, 3072335472, 3072335482, 3072335571, 3072335596, 3072335601, 3072335580, 3072335554], "tags": {"addr:city": "K\u00f6ln", "addr:country": "DE", "addr:housenumber": "11", "addr:postcode": "51103", "addr:street": "An St. Elisabeth", "amenity": "social_facility", "building": "yes", "building:levels": "3", "building:use": "gathering", "name": "Kath. Kindertagesst\u00e4tte", "social_facility": "workshop"}}, {"type": "way", "id": 303116946, "nodes": [3074253309, 3051900033, 3051900034, 3051900038, 3051900039, 3051900040, 3051900042, 3051900043, 3051900046, 3051900047, 3074256379, 3051900044, 3051900041, 3074253309], "tags": {"amenity": "kindergarten"}}, {"type": "way", "id": 303117143, "nodes": [3051899311, 3051899519, 3051899513, 3074253309, 3051900041, 3074312889, 3074312888, 3051899311], "tags": {"amenity": "school", "name": "Montesori Grundschule"}}, {"type": "way", "id": 303122811, "nodes": [3074312909, 3074312923, 3074312922, 3074312913, 3074312908, 3074312909], "tags": {"access": "private", "amenity": "parking", "layer": "-1", "level": "-1", "parking": "underground"}}, {"type": "way", "id": 303122821, "nodes": [3051900041, 3051900044, 3074256379, 3074256570, 3074256591, 3074256608, 3074257234, 3074255525, 3074256330, 7724305856, 7724305855, 7724305854, 7724305853, 7724305864, 7724305863, 7724305862, 7724305861, 3074256277, 3074256249, 3051899311, 3074312888, 3074312889, 3051900041], "tags": {"addr:city": "K\u00f6ln", "addr:postcode": "51103", "addr:street": "N\u00fcrnberger Stra\u00dfe", "alt_name": "Gemeinschaftsgrundschule H\u00f6henberg", "amenity": "school", "name": "Katharina-Henoth-Gesamtschule K\u00f6ln", "name:etymology:wikidata": "Q547021", "phone": "+49 221 80 11 050", "website": "https://igs-kathi.com/"}}, {"type": "way", "id": 303122822, "nodes": [3074315079, 3070790763, 3070790742, 3074315078, 3074315079], "tags": {"addr:city": "K\u00f6ln", "addr:country": "DE", "addr:housenumber": "1", "addr:postcode": "51103", "addr:street": "An St. Elisabeth", "amenity": "place_of_worship", "building": "church", "building:levels": "2", "building:use": "religious"}}, {"type": "way", "id": 333495602, "nodes": [3406139649, 3406139650, 3406140982, 3406140981, 3406139649], "tags": {"amenity": "school"}}, {"type": "way", "id": 354936615, "nodes": [3605859728, 3605859724, 3605859718, 3605859706, 3605859701, 3605859714, 3605859712, 3605859687, 3605859682, 3605859699, 3605859696, 3605859717, 3605859728], "tags": {"amenity": "kindergarten"}}, {"type": "way", "id": 498629998, "nodes": [4900122937, 4900122936, 4900122935, 4900122934, 4900122937], "tags": {"amenity": "bicycle_parking", "bicycle_parking": "wall_loops", "bike_ride": "yes", "capacity": "21", "covered": "yes"}}, {"type": "way", "id": 505307120, "nodes": [4952752437, 4952752438, 4952752451, 4952752450, 4952752439, 4952752449, 4952752437], "tags": {"amenity": "shelter", "shelter_type": "public_transport"}}, {"type": "way", "id": 505307121, "nodes": [4952752455, 4952752454, 4952752453, 4952752452, 4952752455], "tags": {"amenity": "shelter", "shelter_type": "public_transport"}}, {"type": "way", "id": 531553905, "nodes": [5159786280, 5159786281, 5159786282, 5159786283, 5159786280], "tags": {"amenity": "parking", "operator": "Privat", "park_ride": "no", "parking": "surface"}}, {"type": "way", "id": 531553906, "nodes": [5159768643, 5159768642, 8274719833, 5159768656, 8274719832, 5159768654, 5159768655, 5159768651, 5159768648, 5159768643], "tags": {"access": "private", "amenity": "parking", "layer": "-1", "parking": "underground", "supervised": "no"}}, {"type": "way", "id": 531553907, "nodes": [5159786285, 3065952111, 3065952152, 3039423332, 5159786285], "tags": {"access": "private", "amenity": "parking", "fee": "yes", "layer": "-1", "operator": "Cornely & Roth GmbH", "parking": "underground", "supervised": "no"}}, {"type": "way", "id": 851426925, "nodes": [7941387957, 7941387958, 7941387955, 7941387956, 7941387957], "tags": {"amenity": "parking", "parking": "street_side", "parking:orientation": "diagonal"}}, {"type": "way", "id": 890200281, "nodes": [8274531929, 3406139631, 3406139635, 8274531928, 8274531927, 8274531926, 8274531925, 8274531924, 8274531923, 8274531922, 8274531921, 8274531920, 8274531919, 8274531918, 8274531917, 8274531316, 8274531315, 8274531314, 8274531313, 8274531312, 8274531311, 8274531310, 8274531309, 8274531308, 3406140974, 3406140972, 3406140969, 3406140968, 3406137659, 3406140967, 3406140966, 3406137658, 3406137657, 8274531307, 8274531306, 8274531305, 8274531304, 8274531303, 8274531302, 8274531301, 8274531294, 8274531296, 8274531295, 8274531300, 8274531297, 8274531298, 8274531299, 8274531929], "tags": {"addr:city": "K\u00f6ln", "addr:country": "DE", "addr:housenumber": "28", "addr:postcode": "51103", "addr:street": "Weimarer Stra\u00dfe", "amenity": "school", "contact:email": "112367@schule.nrw.de", "contact:phone": "+49 221 47447170", "contact:website": "https://www.ggs-weimar-koeln.de/", "name": "Gemeinschaftsgrundschule Weimarer Stra\u00dfe", "operator": "Stadt K\u00f6ln"}}, {"type": "way", "id": 890293915, "nodes": [8275216964, 8275216963, 8275216962, 8275216961, 8275216964], "tags": {"access": "yes", "amenity": "parking", "fee": "no", "parking": "street_side"}}, {"type": "way", "id": 890293916, "nodes": [8275216968, 8275216967, 8275216966, 8275216965, 8275216968], "tags": {"access": "yes", "amenity": "parking", "fee": "Mo-Fr 09:00-18:00; Sa 09:00-18:00", "parking": "street_side"}}, {"type": "way", "id": 921082237, "nodes": [8551710235, 8551710234, 8551710233, 8551710232, 8551710235], "tags": {"amenity": "parking", "parking": "street_side"}}, {"type": "way", "id": 989697912, "nodes": [9146401592, 9146401591, 9146401590, 9146401589, 9146401592], "tags": {"amenity": "parking", "parking": "street_side"}}, {"type": "way", "id": 1004459363, "nodes": [9267794216, 9267794213, 9267794214, 9267794215, 9267794216], "tags": {"amenity": "parking", "parking": "street_side"}}, {"type": "way", "id": 1004459365, "nodes": [9267803622, 9267803621, 9267803620, 9267803619, 9267803622], "tags": {"access": "private", "amenity": "parking", "parking": "street_side"}}, {"type": "way", "id": 1004459366, "nodes": [9267803626, 9267803623, 9267803624, 9267803625, 9267803626], "tags": {"amenity": "parking", "parking": "street_side"}}, {"type": "way", "id": 1004459367, "nodes": [9267803630, 9267803627, 9267803628, 9267803629, 9267803630], "tags": {"amenity": "parking", "parking": "street_side"}}, {"type": "way", "id": 1004459368, "nodes": [9267803634, 9267803631, 9267803632, 9267803633, 9267803634], "tags": {"amenity": "parking", "parking": "street_side"}}, {"type": "way", "id": 1004459369, "nodes": [9267803638, 9267803635, 9267803636, 9267803637, 9267803638], "tags": {"amenity": "parking", "parking": "street_side"}}, {"type": "way", "id": 1004459370, "nodes": [9267803642, 9267803639, 9267803640, 9267803641, 9267803642], "tags": {"amenity": "parking", "parking": "street_side"}}, {"type": "way", "id": 1004459371, "nodes": [9267803646, 9267803643, 9267803644, 9267803645, 9267803646], "tags": {"amenity": "parking", "parking": "street_side"}}, {"type": "way", "id": 1004459372, "nodes": [9267803650, 9267803647, 9267803648, 9267803649, 9267803650], "tags": {"amenity": "parking", "parking": "street_side"}}, {"type": "way", "id": 1004459373, "nodes": [9267803654, 9267803651, 9267803652, 9267803653, 9267803654], "tags": {"amenity": "parking", "parking": "street_side"}}, {"type": "way", "id": 1004459374, "nodes": [9267803658, 9267803655, 9267803656, 9267803657, 9267803658], "tags": {"amenity": "parking", "parking": "street_side"}}, {"type": "way", "id": 1004587555, "nodes": [9268760375, 9268760374, 9268760373, 9268760372, 9268760375], "tags": {"amenity": "parking", "parking": "street_side"}}, {"type": "way", "id": 1004592155, "nodes": [9268802807, 9268802806, 9268802805, 9268802804, 9268802807], "tags": {"amenity": "parking", "parking": "street_side"}}, {"type": "way", "id": 1004592156, "nodes": [9268802811, 9268802810, 9268802809, 9268802808, 9268802811], "tags": {"amenity": "parking", "parking": "street_side"}}, {"type": "way", "id": 1004592157, "nodes": [9268802815, 9268802814, 9268802813, 9268802812, 9268802815], "tags": {"amenity": "parking", "parking": "street_side"}}, {"type": "way", "id": 1004592158, "nodes": [9268822019, 9268822018, 9268822017, 9268802816, 9268822019], "tags": {"amenity": "parking", "parking": "street_side"}}, {"type": "way", "id": 1004592159, "nodes": [9268822023, 9268822020, 9268822021, 9268822022, 9268822023], "tags": {"amenity": "parking", "parking": "street_side"}}, {"type": "way", "id": 1004592160, "nodes": [9268822027, 9268822024, 9268822025, 9268822026, 9268822027], "tags": {"amenity": "parking", "parking": "street_side"}}, {"type": "way", "id": 1004592161, "nodes": [9268822031, 9268822028, 9268822029, 9268822030, 9268822031], "tags": {"amenity": "parking", "parking": "street_side"}}, {"type": "way", "id": 1010725853, "nodes": [9324974275, 9324974274, 9324974273, 9324974272, 9324974275], "tags": {"amenity": "parking", "parking": "street_side"}}, {"type": "way", "id": 1025953380, "nodes": [9459031571, 9459031568, 9459031569, 9459031570, 9459031571], "tags": {"amenity": "parking", "parking": "street_side", "parking:orientation": "perpendicular"}}, {"type": "way", "id": 1025953381, "nodes": [9459031575, 9459031572, 9459031573, 9459031574, 9459031575], "tags": {"amenity": "parking", "parking": "street_side", "parking:orientation": "perpendicular"}}, {"type": "way", "id": 1025953382, "nodes": [9459031579, 9459031576, 9459031577, 9459031578, 9459031579], "tags": {"amenity": "parking", "parking": "street_side", "parking:orientation": "perpendicular"}}, {"type": "way", "id": 1025953383, "nodes": [9459031583, 9459031580, 9459031581, 9459031582, 9459031583], "tags": {"amenity": "parking", "parking": "street_side", "parking:orientation": "perpendicular"}}, {"type": "way", "id": 1025953384, "nodes": [9459031587, 9459031584, 9459031585, 9459031586, 9459031587], "tags": {"amenity": "parking", "parking": "street_side", "parking:orientation": "perpendicular"}}, {"type": "way", "id": 1025953385, "nodes": [9459031591, 9459031588, 9459031589, 9459031590, 9459031591], "tags": {"amenity": "parking", "parking": "street_side", "parking:orientation": "perpendicular"}}, {"type": "way", "id": 1025953386, "nodes": [9459031595, 9459031592, 9459031593, 9459031594, 9459031595], "tags": {"amenity": "parking", "parking": "street_side", "parking:orientation": "perpendicular"}}, {"type": "way", "id": 1025953387, "nodes": [9459031599, 9459031596, 9459031597, 9459031598, 9459031599], "tags": {"amenity": "parking", "parking": "street_side", "parking:orientation": "perpendicular"}}, {"type": "way", "id": 1025953388, "nodes": [9459031604, 9459031603, 9459031602, 9459031601, 9459031604], "tags": {"amenity": "parking", "parking": "street_side", "parking:orientation": "parallel"}}, {"type": "way", "id": 1025953389, "nodes": [9459031612, 9459031608, 9459031606, 9459031611, 9459031610, 9459031605, 9459031607, 9459031609, 9459031612], "tags": {"amenity": "parking", "parking": "street_side", "parking:orientation": "parallel"}}, {"type": "way", "id": 1025953390, "nodes": [9459031616, 9459031615, 9459031614, 9459031613, 9459031616], "tags": {"amenity": "parking", "parking": "street_side", "parking:orientation": "parallel"}}, {"type": "way", "id": 1025953391, "nodes": [9459060720, 9459060719, 9459060718, 9459060717, 9459060720], "tags": {"amenity": "parking", "parking": "street_side", "parking:orientation": "perpendicular"}}, {"type": "way", "id": 1036629746, "nodes": [9550346759, 9550346756, 9550346757, 9550346758, 9550346759], "tags": {"amenity": "parking", "parking": "street_side", "parking:orientation": "parallel"}}, {"type": "way", "id": 1036629747, "nodes": [9550346763, 9550346762, 9550346761, 9550346760, 9550346763], "tags": {"amenity": "parking", "parking": "street_side", "parking:orientation": "parallel"}}, {"type": "way", "id": 1036629748, "nodes": [9550346767, 9550346764, 9550346765, 9550346766, 9550346767], "tags": {"amenity": "parking", "parking": "street_side", "parking:orientation": "perpendicular"}}, {"type": "way", "id": 1036629749, "nodes": [9550346771, 9550346768, 9550346769, 9550346770, 9550346771], "tags": {"amenity": "parking", "parking": "street_side", "parking:orientation": "perpendicular"}}, {"type": "way", "id": 1036629750, "nodes": [9550346775, 9550346772, 9550346773, 9550346774, 9550346775], "tags": {"amenity": "parking", "parking": "street_side", "parking:orientation": "perpendicular"}}, {"type": "way", "id": 1036977950, "nodes": [9552928686, 9552928685, 9552493784, 9552928684, 9552928686], "tags": {"amenity": "parking", "parking": "street_side", "parking:orientation": "perpendicular"}}, {"type": "way", "id": 1039998784, "nodes": [9576008838, 9576008835, 9576008836, 9576008837, 9576008838], "tags": {"amenity": "parking", "parking": "street_side", "parking:orientation": "parallel"}}, {"type": "way", "id": 1039998785, "nodes": [9576008842, 9576008839, 9576008840, 9576008841, 9576008842], "tags": {"amenity": "parking", "parking": "street_side", "parking:orientation": "parallel"}}, {"type": "way", "id": 1039998786, "nodes": [9576008846, 9576008843, 9576008844, 9576008845, 9576008846], "tags": {"amenity": "parking", "parking": "street_side", "parking:orientation": "parallel"}}, {"type": "way", "id": 1039998787, "nodes": [9576008850, 9576008847, 9576008848, 9576008849, 9576008850], "tags": {"amenity": "parking", "parking": "street_side", "parking:orientation": "parallel"}}, {"type": "way", "id": 1040000865, "nodes": [9576030456, 9576030455, 9576030454, 9576030453, 9576030456], "tags": {"access": "private", "amenity": "parking", "parking": "street_side", "parking:orientation": "diagonal"}}, {"type": "way", "id": 1064429315, "nodes": [9775776220, 9775776221, 9775776222, 9775776223, 9775776220], "tags": {"amenity": "shelter", "bench": "yes", "building": "yes"}}, {"type": "way", "id": 1074938034, "nodes": [9859115335, 9859115334, 9859115333, 9859115332, 9859115335], "tags": {"amenity": "parking", "parking": "street_side", "parking:orientation": "diagonal"}}, {"type": "way", "id": 1074938035, "nodes": [9859115339, 9859115338, 9859115337, 9859115336, 9859115339], "tags": {"amenity": "parking", "parking": "street_side", "parking:orientation": "diagonal"}}, {"type": "way", "id": 1074938036, "nodes": [9859115343, 9859115342, 9859115341, 9859115340, 9859115343], "tags": {"amenity": "parking", "parking": "street_side", "parking:orientation": "diagonal"}}, {"type": "way", "id": 1074938037, "nodes": [9859115347, 9859115346, 9859115345, 9859115344, 9859115347], "tags": {"amenity": "parking", "parking": "street_side", "parking:orientation": "diagonal"}}, {"type": "way", "id": 1082187869, "nodes": [9917938529, 9917938526, 9917938527, 9917938528, 9917938529], "tags": {"amenity": "parking", "parking": "street_side", "parking:orientation": "perpendicular"}}, {"type": "way", "id": 1134662898, "nodes": [10577822765, 10577822762, 10577822763, 10577822764, 10577822765], "tags": {"amenity": "parking", "parking": "street_side", "parking:orientation": "parallel"}}, {"type": "way", "id": 1134662899, "nodes": [10577822769, 10577822768, 10577822767, 10577822766, 10577822769], "tags": {"amenity": "parking", "parking": "street_side", "parking:orientation": "parallel"}}, {"type": "way", "id": 1134662900, "nodes": [10577822773, 10577822772, 10577822771, 10577822770, 10577822773], "tags": {"amenity": "parking", "parking": "street_side", "parking:orientation": "diagonal"}}, {"type": "way", "id": 1134662901, "nodes": [10577822777, 10577822776, 10577822775, 10577822774, 10577822777], "tags": {"amenity": "parking", "parking": "street_side", "parking:orientation": "diagonal"}}, {"type": "way", "id": 1134662902, "nodes": [10577822781, 10577822780, 10577822779, 10577822778, 10577822781], "tags": {"amenity": "parking", "parking": "street_side", "parking:orientation": "perpendicular"}}, {"type": "way", "id": 1134662903, "nodes": [10577822785, 10577822784, 10577822783, 10577822782, 10577822785], "tags": {"amenity": "parking", "parking": "street_side", "parking:orientation": "perpendicular"}}, {"type": "way", "id": 1134662904, "nodes": [10577822789, 10577822788, 10577822787, 10577822786, 10577822789], "tags": {"amenity": "parking", "parking": "street_side", "parking:orientation": "perpendicular"}}, {"type": "way", "id": 1163060706, "nodes": [10816581680, 10816581681, 10816581685, 10816581682, 10816581680], "tags": {"amenity": "parking_space", "parking_space": "disabled"}}, {"type": "way", "id": 1163060707, "nodes": [10816581685, 10816581681, 10816581679, 10816581684, 10816581683, 10816581678, 10816581680, 10816581682, 10816581685], "tags": {"amenity": "parking", "parking": "street_side", "parking:orientation": "parallel"}}, {"type": "way", "id": 1163060708, "nodes": [10816581689, 10816581688, 10816581687, 10816581686, 10816581689], "tags": {"amenity": "parking", "parking": "street_side", "parking:orientation": "parallel"}}, {"type": "way", "id": 1163060709, "nodes": [10816581693, 10816581692, 10816581691, 10816581690, 10816581693], "tags": {"amenity": "parking", "parking": "street_side", "parking:orientation": "parallel"}}, {"type": "way", "id": 1163060710, "nodes": [10816581697, 10816581696, 10816581695, 10816581694, 10816581697], "tags": {"amenity": "parking", "parking": "street_side", "parking:orientation": "parallel"}}, {"type": "way", "id": 1163060711, "nodes": [10816581701, 10816581698, 10816581699, 10816581700, 10816581701], "tags": {"amenity": "parking", "parking": "street_side", "parking:orientation": "parallel"}}, {"type": "way", "id": 1163060712, "nodes": [10816586205, 10816581702, 10816581703, 10816581704, 10816586205], "tags": {"amenity": "parking", "parking": "street_side", "parking:orientation": "parallel"}}]}