{"version": 0.6, "generator": "Overpass API 0.7.60.2 e4cf9f7a", "osm3s": {"timestamp_osm_base": "2023-04-29T12:51:48Z", "copyright": "The data included in this document is from www.openstreetmap.org. The data is made available under ODbL."}, "elements": [{"type": "node", "id": 248114816, "lat": 50.9254501, "lon": 6.9561869, "tags": {"amenity": "restaurant", "cuisine": "regional", "email": "info@wirtz-koeln.de", "name": "Gastst\u00e4tte Wirtz", "opening_hours": "Mo-Su 17:30-23:00; We off", "operator": "Alexander Haag", "phone": "+49 221 314839", "source": "knowledge", "website": "https://wirtz-koeln.de/", "wheelchair": "no"}}, {"type": "node", "id": 265730572, "lat": 50.9372516, "lon": 6.9324013, "tags": {"addr:city": "K\u00f6ln", "addr:housenumber": "79", "addr:postcode": "50674", "addr:street": "Moltkestra\u00dfe", "amenity": "restaurant", "name": "Bistro Lotus", "toilets:wheelchair": "yes", "wheelchair": "yes"}}, {"type": "node", "id": 266044207, "lat": 50.9351496, "lon": 6.9368407, "tags": {"amenity": "restaurant", "cuisine": "indian", "name": "Ganesha", "opening_hours": "Mo 18:00-24:00; Tu-Su 12:00-15:00, 18:00-23:30; \"Warme K\u00fcche 12:00-14:45, 18:00-23:00\"", "wheelchair": "no"}}, {"type": "node", "id": 286420721, "lat": 50.9288473, "lon": 6.9364768, "tags": {"addr:city": "K\u00f6ln", "addr:country": "DE", "addr:housenumber": "48", "addr:postcode": "50674", "addr:street": "Z\u00fclpicher Stra\u00dfe", "amenity": "restaurant", "diet:vegetarian": "yes", "internet_access": "wlan", "internet_access:fee": "no", "name": "Magnus", "opening_hours": "Mo-Th 09:00-02:00; Fr-Sa 09:00+; Su, PH 10:00-24:00", "toilets:wheelchair": "no", "wheelchair": "limited"}}, {"type": "node", "id": 286420723, "lat": 50.9297077, "lon": 6.9385423, "tags": {"addr:city": "K\u00f6ln", "addr:country": "DE", "addr:housenumber": "7", "addr:postcode": "50674", "addr:street": "Z\u00fclpicher Stra\u00dfe", "amenity": "restaurant", "cuisine": "italian", "name": "Borsalino", "operator": "Y. Kutlu", "phone": "+49221248852", "toilets:wheelchair": "no", "website": "https://www.restaurant-borsalino.de/", "wheelchair": "no"}}, {"type": "node", "id": 286420725, "lat": 50.9295681, "lon": 6.9382438, "tags": {"addr:city": "K\u00f6ln", "addr:country": "DE", "addr:housenumber": "9", "addr:postcode": "50674", "addr:street": "Z\u00fclpicher Stra\u00dfe", "amenity": "restaurant", "cuisine": "german", "name": "Bei Oma Kleinmann", "opening_hours": "Tu-Th 17:00-24:00, Fr-Sa 17:00-01:00, Su 17:00-24:00", "website": "https://www.beiomakleinmann.de/", "wheelchair": "no", "wikidata": "Q2063563", "wikipedia": "de:Paula Kleinmann"}}, {"type": "node", "id": 286420727, "lat": 50.9286366, "lon": 6.936715, "tags": {"addr:city": "K\u00f6ln", "addr:country": "DE", "addr:housenumber": "39", "addr:postcode": "50674", "addr:street": "Z\u00fclpicher Stra\u00dfe", "amenity": "restaurant", "cuisine": "german", "internet_access": "wlan", "internet_access:fee": "no", "name": "Filmdose", "opening_hours": "Mo-Fr 15:00+; Sa-Su 12:00+; PH 15:00+", "opening_hours:kitchen": "Mo-Fr 17:00+; Sa-Su 12:00+; PH 15:00+", "outdoor_seating": "yes", "strapline": "Theater Cafe Kneipe", "wheelchair": "no"}}, {"type": "node", "id": 292424479, "lat": 50.9359323, "lon": 6.9347492, "tags": {"addr:city": "K\u00f6ln", "addr:country": "DE", "addr:housenumber": "40-42", "addr:postcode": "50674", "addr:street": "Br\u00fcsseler Stra\u00dfe", "amenity": "restaurant", "cuisine": "thai;asian", "description": "Authentisches Thai-Essen in modernem Ambiente: Lecker, preiswert, schnell!", "diet:gluten_free": "yes", "diet:vegan": "yes", "diet:vegetarian": "yes", "email": "info@kruathai.koeln", "image": "https://belgischesviertel.kruathai.koeln/wp-content/uploads/2023/02/10_ktaussenansicht.jpg", "name": "Krua Thai", "opening_hours": "Su-Th 12:00-21:00; Fr+Sa 12:00-22:00", "outdoor_seating": "yes", "phone": "+49 221 2774636", "website": "https://belgischesviertel.kruathai.koeln", "wheelchair": "no"}}, {"type": "node", "id": 292426667, "lat": 50.9279815, "lon": 6.9401264, "tags": {"addr:city": "K\u00f6ln", "addr:country": "DE", "addr:housenumber": "28", "addr:postcode": "50674", "addr:street": "Luxemburger Stra\u00dfe", "amenity": "restaurant", "name": "PhongLan"}}, {"type": "node", "id": 293189861, "lat": 50.9217189, "lon": 6.9663846, "tags": {"addr:city": "K\u00f6ln", "addr:country": "DE", "addr:housenumber": "58", "addr:street": "Ubierring", "amenity": "restaurant", "name": "Hardy Kugel", "wheelchair": "limited"}}, {"type": "node", "id": 293205512, "lat": 50.9188888, "lon": 6.9622516, "tags": {"addr:city": "K\u00f6ln", "addr:country": "DE", "addr:housenumber": "17", "addr:postcode": "50678", "addr:street": "Teutoburger Stra\u00dfe", "addr:suburb": "S\u00fcdstadt", "amenity": "restaurant", "contact:facebook": "https://www.facebook.com/bagatellesuedstadt/", "contact:mobile": "+49 160 994 452 67", "cuisine": "tapas", "delivery": "no", "diet:vegetarian": "yes", "email": "info@bagatelle.koeln", "name": "Bagatelle", "opening_hours": "Mo-Sa 17:00-01:00, Su 15:00-24:00", "operator": "Reja-Lisa Rabe", "outdoor_seating": "yes", "reservation": "recommended", "toilets:wheelchair": "no", "website": "https://www.bagatelle.koeln/", "wheelchair": "limited"}}, {"type": "node", "id": 298083391, "lat": 50.9223326, "lon": 6.9683518, "tags": {"amenity": "restaurant", "email": "info@limanicologne.de", "name": "Limani", "note:opening_hours": "Montag bis Sonntag: 10:00 bis 01:00 Uhr; K\u00fcche: 12:00 bis 23:00 Uhr; Fr\u00fchst\u00fcck: Samstag und Sonntag: 10:00 bis 12:00 Uhr", "opening_hours": "Mo-Su 10:00-01:00", "opening_hours:kitchen": "12:00-23:00", "phone": "+49 221 7190590", "source": "photography", "website": "https://www.limanicologne.de/", "wheelchair": "no"}}, {"type": "node", "id": 298085304, "lat": 50.920402, "lon": 6.9691267, "tags": {"amenity": "restaurant", "email": "info@josephs-koeln.de", "fax": "+49 221 16 917 301", "name": "Joseph's", "operator": "JOSEPH'S Gastronomie GmbH", "phone": "+49 221 16 917 300", "source": "photograph", "toilets:wheelchair": "no", "website": "https://www.josephs-koeln.de/", "wheelchair": "limited"}}, {"type": "node", "id": 298094322, "lat": 50.918935, "lon": 6.969862, "tags": {"addr:city": "K\u00f6ln", "addr:housenumber": "30", "addr:postcode": "50678", "addr:street": "Agrippinawerft", "amenity": "restaurant", "contact:facebook": "TacoslosCarnalesKoeln", "contact:instagram": "_tacosloscarnales_", "cuisine": "mexican", "diet:vegan": "yes", "diet:vegetarian": "yes", "email": "reservaciones@loscarnales.de", "event_location": "yes", "internet_access": "wlan", "name": "Los Carnales Taqueria", "opening_hours": "Mo-Fr 17:00-00:00; Sa-Su 12:00-00:00", "outdoor_seating": "yes", "phone": "+49 221 56083195", "reservation": "recommended", "website": "https://www.loscarnales.de/"}}, {"type": "node", "id": 338578563, "lat": 50.9304407, "lon": 6.9371208, "tags": {"addr:city": "K\u00f6ln", "addr:housenumber": "7", "addr:postcode": "50674", "addr:street": "Rathenauplatz", "amenity": "restaurant", "cuisine": "coffee_shop", "name": "Feynsinn", "opening_hours": "Mo-Th 09:00-01:00; Fr 09:00-02:00; Sa 09:30-02:00; Su 10:00-01:00", "wheelchair": "limited"}}, {"type": "node", "id": 338578781, "lat": 50.9309422, "lon": 6.9378466, "tags": {"addr:city": "K\u00f6ln", "addr:housenumber": "1", "addr:postcode": "50674", "addr:street": "Rathenauplatz", "amenity": "restaurant", "cuisine": "persian", "name": "Alborz", "opening_hours": "12:00-24:00", "operator": "Dabasch", "phone": "+49 221 60 60 34 22", "toilets:wheelchair": "no", "wheelchair": "limited"}}, {"type": "node", "id": 372713996, "lat": 50.9205099, "lon": 6.9622515, "tags": {"addr:city": "K\u00f6ln", "addr:country": "DE", "addr:housenumber": "35", "addr:postcode": "50678", "addr:street": "Alteburger Stra\u00dfe", "amenity": "restaurant", "cuisine": "persian", "name": "Oxin", "opening_hours": "Tu-Su 18:00-24:00; Mo off", "website": "http://www.oxin-restaurant.de"}}, {"type": "node", "id": 372715654, "lat": 50.9194695, "lon": 6.9608613, "tags": {"amenity": "restaurant", "created_by": "Potlatch 0.10f", "name": "Kart\u00f6ffelchen"}}, {"type": "node", "id": 429437776, "lat": 50.9230086, "lon": 6.9673813, "tags": {"addr:city": "K\u00f6ln", "addr:country": "DE", "addr:housenumber": "22", "addr:postcode": "50678", "addr:street": "Anna-Schneider-Steig", "alt_name": "Boname", "amenity": "restaurant", "cuisine": "turkish", "email": "info@bona-me.de", "name": "Bona'me", "opening_hours": "Mo-Su 10:00-24:00", "outdoor_seating": "yes", "phone": "+4922139760407", "source": "photography", "toilets:wheelchair": "yes", "website": "https://www.bona-me.de/", "wheelchair": "yes"}}, {"type": "node", "id": 435541562, "lat": 50.9273163, "lon": 6.9393818, "tags": {"addr:city": "K\u00f6ln", "addr:country": "DE", "addr:housenumber": "42", "addr:postcode": "50674", "addr:street": "Luxemburger Stra\u00dfe", "amenity": "restaurant", "cuisine": "indian", "delivery": "yes", "name": "Little India", "opening_hours": "Mo-Fr 12:00-14:30, Mo-Th 18:00-22:30, Fr 18:00-23:00; Sa 17:00-23:00; Su,PH 17:00-22:30", "phone": "+49 221 2618817", "takeaway": "yes", "website": "https://www.little-india-koeln.de/", "wheelchair": "yes"}}, {"type": "node", "id": 435541574, "lat": 50.9279702, "lon": 6.940601, "tags": {"addr:city": "K\u00f6ln", "addr:country": "DE", "addr:housenumber": "19", "addr:postcode": "50674", "addr:street": "Luxemburger Stra\u00dfe", "amenity": "restaurant", "name": "Dalmatiner Stuben"}}, {"type": "node", "id": 441240856, "lat": 50.9339368, "lon": 6.9342707, "tags": {"addr:city": "K\u00f6ln", "addr:country": "DE", "addr:housenumber": "11", "addr:postcode": "50674", "addr:street": "Br\u00fcsseler Stra\u00dfe", "amenity": "restaurant", "cuisine": "french", "name": "L'Escalier", "opening_hours": "Tu-Sa 12:00-14:00,18:00-22:00", "phone": "+492212053998", "wheelchair": "no"}}, {"type": "node", "id": 441261923, "lat": 50.9285329, "lon": 6.9372945, "tags": {"addr:city": "K\u00f6ln", "addr:country": "DE", "addr:housenumber": "53", "addr:postcode": "50674", "addr:street": "Kyffh\u00e4userstra\u00dfe", "amenity": "restaurant", "cuisine": "french", "name": "La Soci\u00e9t\u00e9", "phone": "+49-221-232464", "source": "survey", "website": "http://www.lasociete.info/", "wheelchair": "no"}}, {"type": "node", "id": 442548658, "lat": 50.9311961, "lon": 6.9352749, "tags": {"addr:city": "K\u00f6ln", "addr:housenumber": "17", "addr:postcode": "50674", "addr:street": "Rathenauplatz", "amenity": "restaurant", "cuisine": "wine", "name": "Bacchus", "opening_hours": "Mo-Sa 18:00-24:00", "toilets:wheelchair": "no", "wheelchair": "no"}}, {"type": "node", "id": 442702947, "lat": 50.9264651, "lon": 6.9547926, "tags": {"addr:city": "K\u00f6ln", "addr:country": "DE", "addr:housenumber": "45", "addr:street": "Josephstra\u00dfe", "amenity": "restaurant", "name": "Ulrichsch\u00e4nke"}}, {"type": "node", "id": 442702949, "lat": 50.9256428, "lon": 6.9571014, "tags": {"addr:city": "K\u00f6ln", "addr:country": "DE", "addr:housenumber": "22", "addr:postcode": "50678", "addr:street": "Jakobstra\u00dfe", "amenity": "restaurant", "cuisine": "italian", "name": "Toscanini", "opening_hours": "Mo-Fr 12:00-15:00,18:00-23:00; Sa 18:00-23:00; Su 12:00-15:00,18:00-23:00", "phone": "+492213109990", "wheelchair": "no"}}, {"type": "node", "id": 442702956, "lat": 50.9262435, "lon": 6.958224, "tags": {"addr:city": "K\u00f6ln", "addr:country": "DE", "addr:housenumber": "104", "addr:postcode": "50678", "addr:street": "Severinstra\u00dfe", "amenity": "restaurant", "description": "Serving Reissdorf", "name": "Em Scheffge", "wheelchair": "limited"}}, {"type": "node", "id": 442702970, "lat": 50.9249222, "lon": 6.9594522, "tags": {"addr:city": "K\u00f6ln", "addr:country": "DE", "addr:housenumber": "2", "addr:postcode": "50678", "addr:street": "Achterstra\u00dfe", "addr:suburb": "S\u00fcdstadt", "amenity": "restaurant", "contact:email": "haus.mueller.koeln@gmail.com", "contact:instagram": "https://www.instagram.com/hausmueller/", "contact:phone": "+49 221 9321086", "contact:website": "https://www.haus-m\u00fcller-k\u00f6ln.de/", "cuisine": "regional", "name": "Haus M\u00fcller", "opening_hours": "Mo-Sa 17:00+; Su 12:00+", "opening_hours:kitchen": "Mo-Sa 17:00-22:00; Su 12:00-15:00,16:30-22:00", "outdoor_seating": "yes", "takeaway": "yes"}}, {"type": "node", "id": 456372576, "lat": 50.9280534, "lon": 6.9459876, "tags": {"amenity": "restaurant", "cuisine": "japanese", "name": "Tsubaki"}}, {"type": "node", "id": 475023111, "lat": 50.9244673, "lon": 6.9445701, "tags": {"amenity": "restaurant", "cuisine": "italian", "name": "Caminetto", "toilets:wheelchair": "no", "wheelchair": "no"}}, {"type": "node", "id": 519918190, "lat": 50.9223909, "lon": 6.96175, "tags": {"amenity": "restaurant", "cuisine": "german", "name": "Elsa", "old_name": "Opera", "opening_hours": "Mo-Sa 12:00-23:00", "outdoor_seating": "yes", "phone": "+49 221 99028870", "toilets:wheelchair": "no", "website": "http://www.elsa-restaurant.de", "wheelchair": "limited"}}, {"type": "node", "id": 532096158, "lat": 50.9219255, "lon": 6.9632046, "tags": {"addr:city": "K\u00f6ln", "addr:country": "DE", "addr:housenumber": "33", "addr:postcode": "50678", "addr:street": "Ubierring", "amenity": "restaurant", "cuisine": "sushi", "name": "Bento Box", "name:en": "Bento Box", "phone": "+492218016996", "takeaway": "yes", "website": "https://www.bentobox.de/", "wheelchair": "no"}}, {"type": "node", "id": 535497557, "lat": 50.9230444, "lon": 6.9591345, "tags": {"addr:city": "K\u00f6ln", "addr:country": "DE", "addr:housenumber": "28", "addr:postcode": "50678", "addr:street": "Severinstra\u00dfe", "amenity": "restaurant", "name": "Del Bajazzo", "opening_hours": "Tu-Su 12:00-24:00", "phone": "+49-221-327272", "start_date": "1974"}}, {"type": "node", "id": 538206288, "lat": 50.9219961, "lon": 6.9559899, "tags": {"addr:city": "K\u00f6ln", "addr:country": "DE", "addr:housenumber": "3", "addr:street": "Sachsenring", "amenity": "restaurant", "cuisine": "asian", "name": "Zhing-San", "wheelchair": "no"}}, {"type": "node", "id": 538207241, "lat": 50.9202622, "lon": 6.9561014, "tags": {"amenity": "restaurant", "name": "Taqueria Especial"}}, {"type": "node", "id": 538208925, "lat": 50.9205156, "lon": 6.9579891, "tags": {"addr:city": "K\u00f6ln", "addr:housenumber": "32", "addr:postcode": "50677", "addr:street": "Elsa\u00dfstra\u00dfe", "amenity": "restaurant", "cuisine": "afghan", "name": "Kabul", "phone": "+49 221 9311139", "website": "https://www.restaurant-kabul.de", "wheelchair": "limited"}}, {"type": "node", "id": 538209393, "lat": 50.9192368, "lon": 6.9594947, "tags": {"amenity": "restaurant", "cuisine": "italian", "name": "Ia Locanda", "opening_hours": "Tu-Su 18:00-23:00"}}, {"type": "node", "id": 538209491, "lat": 50.9183458, "lon": 6.9595254, "tags": {"addr:city": "K\u00f6ln", "addr:housenumber": "9", "addr:postcode": "50677", "addr:street": "Rolandstra\u00dfe", "amenity": "restaurant", "capacity": "60", "cuisine": "italian", "name": "Little Italy", "opening_hours": "Tu-Fr 12:00-15:00,17:00-23:00; Sa-Su 12:00-23:00; Mo off", "phone": "+49 221 29851186", "website": "https://littleitaly-restaurant.de/"}}, {"type": "node", "id": 538211001, "lat": 50.9205522, "lon": 6.9615491, "tags": {"addr:city": "K\u00f6ln", "addr:housenumber": "24", "addr:postcode": "50678", "addr:street": "Kurf\u00fcrstenstra\u00dfe", "amenity": "restaurant", "name": "La Patata"}}, {"type": "node", "id": 538211048, "lat": 50.9208252, "lon": 6.9615597, "tags": {"addr:city": "K\u00f6ln", "addr:housenumber": "27", "addr:postcode": "50678", "addr:street": "Kurf\u00fcrstenstra\u00dfe", "amenity": "restaurant", "cuisine": "indian;german;french;bistro;greek", "name": "keimaks", "opening_hours": "Mo-Su 18:30-01:30", "outdoor_seating": "yes", "phone": "+49 221 312670", "website": "https://www.keimaks.de/", "wheelchair": "limited"}}, {"type": "node", "id": 538211285, "lat": 50.9207308, "lon": 6.9618391, "tags": {"addr:city": "K\u00f6ln", "addr:housenumber": "20", "addr:street": "Alteburger Stra\u00dfe", "amenity": "restaurant", "wheelchair": "limited"}}, {"type": "node", "id": 538211496, "lat": 50.9207372, "lon": 6.9621797, "tags": {"addr:city": "K\u00f6ln", "addr:country": "DE", "addr:housenumber": "31", "addr:postcode": "50678", "addr:street": "Alteburger Stra\u00dfe", "amenity": "restaurant", "fixme": "bitte zuordnen", "name": "Capricorn (i) Aries", "phone": "+49 221 323182", "website": "http://www.capricorniaries.com/", "wheelchair": "yes"}}, {"type": "node", "id": 538211628, "lat": 50.9206346, "lon": 6.9642376, "tags": {"amenity": "restaurant", "name": "Mainzer Hof", "wheelchair": "limited"}}, {"type": "node", "id": 538243124, "lat": 50.9221706, "lon": 6.9591519, "tags": {"addr:city": "K\u00f6ln", "addr:country": "DE", "addr:housenumber": "3", "addr:postcode": "50678", "addr:street": "Severinstra\u00dfe", "amenity": "restaurant", "cuisine": "spanish", "name": "Turista S\u00fcd", "opening_hours": "Mo-Su 16:00-24:00", "outdoor_seating": "yes", "phone": "+49 221 9311421", "wheelchair": "no"}}, {"type": "node", "id": 538261480, "lat": 50.919493, "lon": 6.9596653, "tags": {"addr:city": "K\u00f6ln", "addr:housenumber": "26", "addr:postcode": "50677", "addr:street": "Bonner Stra\u00dfe", "amenity": "restaurant", "name": "Fertig", "opening_hours": "Mo-Su,PH 17:00-22:00+"}}, {"type": "node", "id": 567515138, "lat": 50.935604, "lon": 6.934321, "tags": {"amenity": "restaurant", "cuisine": "vietnamese", "name": "Bonjour Saigon", "wheelchair": "no"}}, {"type": "node", "id": 567885138, "lat": 50.9363521, "lon": 6.9344734, "tags": {"addr:city": "K\u00f6ln", "addr:country": "DE", "addr:housenumber": "31", "addr:postcode": "50674", "addr:street": "Aachener Stra\u00dfe", "amenity": "restaurant", "cuisine": "vietnamese", "diet:vegan": "only", "diet:vegetarian": "only", "name": "Veggie Vu", "opening_hours": "Mo-Fr 12:00-23:30; Sa 13:00-23:30; Su 14:00-23:30"}}, {"type": "node", "id": 570776253, "lat": 50.9210459, "lon": 6.9617218, "tags": {"addr:city": "K\u00f6ln", "addr:country": "DE", "addr:housenumber": "18", "addr:postcode": "50678", "addr:street": "Alteburger Stra\u00dfe", "amenity": "restaurant", "name": "Speisekammer", "toilets:wheelchair": "no", "wheelchair": "limited"}}, {"type": "node", "id": 572688715, "lat": 50.9282943, "lon": 6.9409776, "tags": {"addr:city": "K\u00f6ln", "addr:country": "DE", "addr:housenumber": "9", "addr:postcode": "50674", "addr:street": "Luxemburger Stra\u00dfe", "amenity": "restaurant", "cuisine": "oriental", "name": "Derwisch", "wheelchair": "limited"}}, {"type": "node", "id": 581966208, "lat": 50.9218274, "lon": 6.962983, "tags": {"addr:city": "K\u00f6ln", "addr:country": "DE", "addr:housenumber": "31", "addr:street": "Ubierring", "amenity": "restaurant", "cuisine": "greek", "name": "El Greco"}}, {"type": "node", "id": 585351046, "lat": 50.936641, "lon": 6.934789, "tags": {"addr:city": "K\u00f6ln", "addr:country": "DE", "addr:housenumber": "52", "addr:postcode": "50674", "addr:street": "Aachener Stra\u00dfe", "amenity": "restaurant", "food": "yes", "name": "Herr Pimock", "outdoor_seating": "yes", "phone": "+49221511866", "takeaway": "yes", "website": "http://www.herr-pimock.de", "wheelchair": "limited"}}, {"type": "node", "id": 589995474, "lat": 50.9303739, "lon": 6.9435264, "tags": {"addr:city": "K\u00f6ln", "addr:country": "DE", "addr:housenumber": "61", "addr:street": "Weyerstra\u00dfe", "amenity": "restaurant", "cuisine": "portuguese", "name": "A Caravela", "toilets:wheelchair": "no", "wheelchair": "limited"}}, {"type": "node", "id": 593246947, "lat": 50.922191, "lon": 6.9568924, "tags": {"addr:city": "K\u00f6ln", "addr:country": "DE", "addr:housenumber": "40", "addr:postcode": "50678", "addr:street": "Sachsenring", "amenity": "restaurant", "cuisine": "japanese", "name": "Tobioka"}}, {"type": "node", "id": 595714450, "lat": 50.9289849, "lon": 6.9397019, "tags": {"addr:city": "K\u00f6ln", "addr:country": "DE", "addr:housenumber": "18", "addr:postcode": "50674", "addr:street": "Kyffh\u00e4userstra\u00dfe", "amenity": "restaurant", "cuisine": "international;local", "description": "Sion K\u00f6lsch", "name": "Manni's R\u00e4storang", "opening_hours": "Mo-Sa 17:30-01:00", "opening_hours:kitchen": "Mo-Sa 17-30:23:00", "operator": "Daniel L. Hermes", "phone": "+49221230970", "toilets:wheelchair": "no", "website": "https://www.mannisraestorang.de/", "wheelchair": "no"}}, {"type": "node", "id": 595714912, "lat": 50.9287613, "lon": 6.937915, "tags": {"addr:city": "K\u00f6ln", "addr:country": "DE", "addr:housenumber": "38", "addr:street": "Kyffh\u00e4userstra\u00dfe", "amenity": "restaurant", "cuisine": "thai", "name": "Khun Mae", "opening_hours": "Mo-Fr 11:30-22:00; Sa,Su,PH 15:00-22:00", "phone": "+49 221 39 75 77 59", "takeaway": "yes", "wheelchair": "no"}}, {"type": "node", "id": 624539932, "lat": 50.9363735, "lon": 6.9359851, "tags": {"addr:city": "K\u00f6ln", "addr:country": "DE", "addr:housenumber": "17", "addr:postcode": "50674", "addr:street": "Aachener Stra\u00dfe", "amenity": "restaurant", "brand": "Sumo", "cuisine": "sushi", "delivery": "no", "name": "Sumo", "outdoor_seating": "yes", "phone": "+49 221 2221590", "takeaway": "yes", "website": "http://www.sumo-restaurant.de", "wheelchair": "no"}}, {"type": "node", "id": 638613747, "lat": 50.9222678, "lon": 6.9617866, "tags": {"addr:city": "K\u00f6ln", "addr:country": "DE", "addr:housenumber": "3", "addr:postcode": "50678", "addr:street": "Alteburger Stra\u00dfe", "amenity": "restaurant", "cuisine": "italian", "name": "Pizza Grande Fratello", "opening_hours": "11:30-15:00, 17:30-23:30", "outdoor_seating": "yes", "phone": "+492213109774"}}, {"type": "node", "id": 658930092, "lat": 50.931207, "lon": 6.947826, "tags": {"addr:city": "K\u00f6ln", "addr:country": "DE", "addr:housenumber": "40", "addr:postcode": "50676", "addr:street": "Kleiner Griechenmarkt", "amenity": "restaurant", "brand": "Reissdorf", "cuisine": "german", "name": "Brauhaus Reissdorf", "opening_hours": "Mo-Fr 12:00-24:00; Sa,Su 11:30-24:00", "toilets:wheelchair": "no", "website": "https://www.brauhaus-reissdorf.de/", "wheelchair": "limited", "wheelchair:description": "easily accessible, toilet not accessible"}}, {"type": "node", "id": 660196268, "lat": 50.9271583, "lon": 6.9612895, "tags": {"addr:city": "K\u00f6ln", "addr:country": "DE", "addr:housenumber": "2", "addr:postcode": "50678", "addr:street": "Im Sionstal", "amenity": "restaurant", "cuisine": "german", "name": "Rheinau", "opening_hours": "Su-Th 12:00-22:00; Fr-Sa 12:00-23:00", "outdoor_seating": "yes", "phone": "+49 221 99701230", "wheelchair": "limited"}}, {"type": "node", "id": 660196581, "lat": 50.9271097, "lon": 6.9610324, "tags": {"addr:city": "K\u00f6ln", "addr:country": "DE", "addr:housenumber": "43", "addr:postcode": "50678", "addr:street": "Rosenstra\u00dfe", "amenity": "restaurant", "cuisine": "italian", "name": "Ristorante Italia", "opening_hours": "Tu-Fr 12:00-14:30,18:00-22:30; PH,Sa,Su 17:30-22:30", "outdoor_seating": "yes", "phone": "+49 221 314619", "takeaway": "yes", "website": "https://www.italienisches-restaurant-koeln.com/"}}, {"type": "node", "id": 691281441, "lat": 50.9219297, "lon": 6.9585365, "tags": {"addr:city": "K\u00f6ln", "addr:country": "DE", "addr:housenumber": "7-11", "addr:postcode": "50678", "addr:street": "Kart\u00e4userwall", "amenity": "restaurant", "changing_table": "yes", "contact:phone": "+49 221 80167474", "cuisine": "regional", "diet:vegan": "yes", "email": "email@ecco-restaurant.de", "name": "ecco", "opening_hours": "Mo-Fr 10:00-24:00; Sa 10:00-24:00; Su,PH 10:00-20:00", "outdoor_seating": "yes", "toilets:wheelchair": "no", "website": "http://ecco-restaurant.de/", "wheelchair": "limited"}}, {"type": "node", "id": 710366211, "lat": 50.9298495, "lon": 6.9387651, "tags": {"addr:city": "K\u00f6ln", "addr:country": "DE", "addr:housenumber": "3", "addr:postcode": "50674", "addr:street": "Z\u00fclpicher Stra\u00dfe", "amenity": "restaurant", "contact:instagram": "https://www.instagram.com/duma.cologne", "cuisine": "asian;tapas", "diet:vegan": "yes", "dog": "yes", "email": "info@duma-restaurant.de", "internet_access": "wlan", "name": "duma", "opening_hours": "Mo-Sa 11:00-00:00; Su 12:00-23:00", "outdoor_seating": "yes", "takeaway": "yes", "website": "https://duma-restaurant-und-bar.eatbu.com", "wheelchair": "no"}}, {"type": "node", "id": 763221015, "lat": 50.9290954, "lon": 6.9358911, "tags": {"addr:city": "K\u00f6ln", "addr:country": "DE", "addr:housenumber": "4", "addr:street": "Dasselstra\u00dfe", "amenity": "restaurant", "name": "Zarathustra", "phone": "+49 221 2407660", "website": "https://www.zarathustra-restaurant-koeln.de/"}}, {"type": "node", "id": 763221037, "lat": 50.931366, "lon": 6.935002, "tags": {"addr:city": "K\u00f6ln", "addr:housenumber": "21", "addr:postcode": "50674", "addr:street": "Rathenauplatz", "amenity": "restaurant", "name": "Fischermanns", "wheelchair": "limited"}}, {"type": "node", "id": 768701368, "lat": 50.9303498, "lon": 6.9367338, "tags": {"addr:city": "K\u00f6ln", "addr:housenumber": "8", "addr:postcode": "50674", "addr:street": "Rathenauplatz", "alt_name": "Meister Gerhard no 008", "amenity": "restaurant", "cuisine": "tapas", "name": "Meister Gerhard", "opening_hours": "17:00-01:00", "outdoor_seating": "yes", "phone": "+49 221 39757650", "website": "https://meister-gerhard.com/", "wheelchair": "no"}}, {"type": "node", "id": 809813731, "lat": 50.929776, "lon": 6.9381567, "tags": {"addr:city": "K\u00f6ln", "addr:housenumber": "11a", "addr:postcode": "50674", "addr:street": "Heinsbergstra\u00dfe", "amenity": "restaurant", "name": "Rendezvous", "toilets:wheelchair": "no", "wheelchair": "yes"}}, {"type": "node", "id": 826292829, "lat": 50.9290867, "lon": 6.9406426, "tags": {"addr:city": "K\u00f6ln", "addr:country": "DE", "addr:housenumber": "4", "addr:postcode": "50674", "addr:street": "Kyffh\u00e4userstra\u00dfe", "amenity": "restaurant", "cuisine": "coffee_shop", "name": "Kochsyndikat", "opening_hours": "Mo-Fr 12:00-18:00", "takeaway": "yes", "wheelchair": "limited"}}, {"type": "node", "id": 836346345, "lat": 50.9342845, "lon": 6.9382707, "tags": {"addr:city": "K\u00f6ln", "addr:housenumber": "5", "addr:postcode": "50674", "addr:street": "Lindenstra\u00dfe", "amenity": "restaurant", "cuisine": "italian", "name": "Vetrina Toscana", "outdoor_seating": "no"}}, {"type": "node", "id": 897594972, "lat": 50.9366642, "lon": 6.9372911, "tags": {"amenity": "restaurant", "name": "Little Nonna"}}, {"type": "node", "id": 945102290, "lat": 50.9301451, "lon": 6.9414416, "tags": {"addr:city": "K\u00f6ln", "addr:country": "DE", "addr:housenumber": "14", "addr:postcode": "50674", "addr:street": "Hohenstaufenring", "amenity": "restaurant", "cuisine": "vietnamese", "description": "Vietnamesische K\u00fcche", "name": "Viet Village", "opening_hours": "Nov-Mar Mo-Th 11:30-15:30,17:00-23:00; Fr-Sa 12:00-23:00; Su,PH 13:00-23:00; Apr-Oct Mo-Th 11:30-23:00; Fr-Sa 12:00-23:00; Su,PH 13:00-23:00", "website": "http://vietvillage-koeln.de/"}}, {"type": "node", "id": 969944560, "lat": 50.9296732, "lon": 6.9393492, "tags": {"addr:city": "K\u00f6ln", "addr:country": "DE", "addr:housenumber": "35", "addr:postcode": "50674", "addr:street": "Hochstadenstra\u00dfe", "amenity": "restaurant", "cuisine": "pizza", "name": "Pizza Pazza", "opening_hours": "Mo-Th 12:00-00:00; Fr-Sa 12:00-02:00; Su 12:00-23:30", "operator": "Kaouache Ammar", "phone": "+49 221 310 87 33", "wheelchair": "no"}}, {"type": "node", "id": 992862619, "lat": 50.9366028, "lon": 6.9368483, "tags": {"addr:city": "K\u00f6ln", "addr:housenumber": "16", "addr:postcode": "50674", "addr:street": "Aachener Stra\u00dfe", "amenity": "restaurant", "cuisine": "indian", "name": "Flavour of India", "phone": "+49 221 27846785", "toilets:wheelchair": "yes", "website": "http://www.indischer-curry-hut.de/", "wheelchair": "yes", "wheelchair:description": "Enges WC"}}, {"type": "node", "id": 999159136, "lat": 50.9319406, "lon": 6.942039, "tags": {"addr:city": "K\u00f6ln", "addr:country": "DE", "addr:housenumber": "26-30", "addr:postcode": "50676", "addr:street": "Jahnstra\u00dfe", "amenity": "restaurant", "name": "Pinocchio", "phone": "+49 221 24 25 26", "website": "http://persisches-restaurant.de/", "wheelchair": "limited"}}, {"type": "node", "id": 1018047304, "lat": 50.936332, "lon": 6.932372, "tags": {"addr:city": "K\u00f6ln", "addr:housenumber": "65a", "addr:postcode": "50674", "addr:street": "Moltkestra\u00dfe", "amenity": "restaurant", "name": "La Bamba"}}, {"type": "node", "id": 1056777492, "lat": 50.9371193, "lon": 6.9347646, "tags": {"addr:city": "K\u00f6ln", "addr:housenumber": "54", "addr:postcode": "50674", "addr:street": "Br\u00fcsseler Stra\u00dfe", "amenity": "restaurant", "cuisine": "belgian", "name": "Belgischer Hof", "opening_hours": "Mo-Su,PH 18:00-01:00", "phone": "+4922154817017", "toilets:wheelchair": "no", "website": "http://www.belgischer-hof.de", "wheelchair": "yes"}}, {"type": "node", "id": 1093872767, "lat": 50.9293545, "lon": 6.9423113}, {"type": "node", "id": 1131131298, "lat": 50.9284072, "lon": 6.9435677, "tags": {"addr:city": "K\u00f6ln", "addr:country": "DE", "addr:housenumber": "44", "addr:postcode": "50677", "addr:street": "Salierring", "amenity": "restaurant", "cuisine": "chinese", "name": "H\u00f6fchen", "opening_hours": "Tu-Su 11:30-15:00,17:30-22:00"}}, {"type": "node", "id": 1145336656, "lat": 50.9286718, "lon": 6.9372347, "tags": {"addr:city": "K\u00f6ln", "addr:country": "DE", "addr:housenumber": "50", "addr:postcode": "50674", "addr:street": "Kyffh\u00e4userstra\u00dfe", "amenity": "restaurant", "name": "Rosa & Paula", "smoking": "no", "website": "https://www.rosa-paula.de/"}}, {"type": "node", "id": 1217588478, "lat": 50.9280187, "lon": 6.9351358, "tags": {"addr:housenumber": "58d", "addr:postcode": "50674", "addr:street": "Z\u00fclpicher Stra\u00dfe", "amenity": "restaurant", "cuisine": "vietnamese", "name": "Com Pho", "wheelchair": "limited"}}, {"type": "node", "id": 1233608547, "lat": 50.9293418, "lon": 6.9407051, "tags": {"addr:city": "K\u00f6ln", "addr:country": "DE", "addr:housenumber": "3", "addr:postcode": "50674", "addr:street": "Roonstra\u00dfe", "amenity": "restaurant", "cuisine": "indian", "diet:vegan": "yes", "diet:vegetarian": "only", "name": "Govardhan", "opening_hours": "Mo-Sa 12:00-22:00", "wheelchair": "no"}}, {"type": "node", "id": 1384149272, "lat": 50.9208668, "lon": 6.9590821, "tags": {"amenity": "restaurant", "cuisine": "italian", "name": "Peperino", "toilets:wheelchair": "no", "wheelchair": "limited"}}, {"type": "node", "id": 1384149276, "lat": 50.9208462, "lon": 6.9589286, "tags": {"amenity": "restaurant", "cuisine": "turkish", "name": "Mersin Tantuni Salonu", "wheelchair": "limited"}}, {"type": "node", "id": 1447067026, "lat": 50.9238937, "lon": 6.9586175, "tags": {"addr:city": "K\u00f6ln", "addr:housenumber": "51", "addr:postcode": "50678", "addr:street": "Severinstra\u00dfe", "amenity": "restaurant", "capacity": "245", "cuisine": "regional", "name": "Zum Alten Brauhaus", "toilets:wheelchair": "no", "website": "http://www.brauhaus-suedstadt.de", "wheelchair": "yes", "wheelchair:description": "Stufenlos; kein Rolli-WC"}}, {"type": "node", "id": 1502263344, "lat": 50.9353176, "lon": 6.9398611, "tags": {"addr:housenumber": "2-12", "addr:street": "Habsburgerring", "amenity": "restaurant", "brand": "Vapiano", "brand:wikidata": "Q506252", "brand:wikipedia": "en:Vapiano", "contact:website": "https://de.vapiano.com/de/nc/restaurants/vapiano-koeln-2-habsburger-ring-2-12-1/", "cuisine": "italian", "delivery": "yes", "diet:vegan": "yes", "name": "Vapiano", "opening_hours": "Mo-Th 11:00-23:00; Fr-Sa 11:00-24:00; PH,Su 12:00-22:00", "opening_hours:kitchen": "Mo-Th 11:00-23:00; Fr-Sa 11:00-24:00; PH,Su 12:00-22:00", "takeaway": "yes", "wheelchair": "yes"}}, {"type": "node", "id": 1625182077, "lat": 50.9243718, "lon": 6.9442398, "tags": {"addr:housenumber": "4", "addr:postcode": "50677", "addr:street": "Eifelplatz", "amenity": "restaurant", "cuisine": "italian", "description": "Gehobene ital. K\u00fcche", "indoor_seating": "yes", "name": "Casa di Biase", "opening_hours": "Mo-Fr 12:00-14:00; Mo-Sa 18:30-22:30", "outdoor_seating": "yes", "phone": "+49 221 322433", "smoking": "outside", "website": "http://casadibiase.de/", "wheelchair": "yes"}}, {"type": "node", "id": 1629678506, "lat": 50.9241632, "lon": 6.9447183, "tags": {"amenity": "restaurant", "name": "Climax", "toilets:wheelchair": "no", "wheelchair": "yes"}}, {"type": "node", "id": 1634943476, "lat": 50.9327586, "lon": 6.9342611, "tags": {"addr:city": "K\u00f6ln", "addr:country": "DE", "addr:housenumber": "67", "addr:postcode": "50674", "addr:street": "Lindenstra\u00dfe", "amenity": "restaurant", "cuisine": "sushi;japanese", "name": "Kaizen", "opening_hours": "Tu-Th 18:00-23:00; Fr-Sa 18:00-24:00; Su 18:00-23:00", "phone": "+49 221 16915037"}}, {"type": "node", "id": 1634943481, "lat": 50.9281165, "lon": 6.9407432, "tags": {"addr:city": "K\u00f6ln", "addr:country": "DE", "addr:housenumber": "17", "addr:postcode": "50674", "addr:street": "Luxemburger Stra\u00dfe", "amenity": "restaurant", "cuisine": "ethiopian", "name": "Fasika", "phone": "+49 221 4204891", "website": "http://www.restaurant-fasika.de/"}}, {"type": "node", "id": 1642616296, "lat": 50.9312654, "lon": 6.9348849, "tags": {"addr:city": "K\u00f6ln", "addr:country": "DE", "addr:housenumber": "2", "addr:postcode": "50674", "addr:street": "G\u00f6rresstra\u00dfe", "amenity": "restaurant", "cuisine": "french,mediterranean", "email": "restaurant-amabile@web.de", "fax": "+49221218101", "internet_access": "no", "name": "Amabile", "opening_hours": "Tu-Su 18:00-23:00", "operator": "Blanusa & Boudry GBR", "phone": "+49 221 219101", "website": "http://www.restaurant-amabile.de/", "wheelchair": "no"}}, {"type": "node", "id": 1643520918, "lat": 50.9292735, "lon": 6.9372737, "tags": {"addr:city": "K\u00f6ln", "addr:country": "DE", "addr:housenumber": "38", "addr:postcode": "50674", "addr:street": "Z\u00fclpicher Stra\u00dfe", "amenity": "restaurant", "name": "Al Midan Al Dimaschki"}}, {"type": "node", "id": 1643520951, "lat": 50.9290904, "lon": 6.9374216, "tags": {"addr:city": "K\u00f6ln", "addr:country": "DE", "addr:housenumber": "27", "addr:postcode": "50674", "addr:street": "Z\u00fclpicher Stra\u00dfe", "amenity": "restaurant", "cuisine": "italian", "name": "Etrusca"}}, {"type": "node", "id": 1643521001, "lat": 50.9299213, "lon": 6.9388977, "tags": {"addr:city": "K\u00f6ln", "addr:country": "DE", "addr:housenumber": "1", "addr:postcode": "50674", "addr:street": "Z\u00fclpicher Stra\u00dfe", "amenity": "restaurant", "name": "Mango", "wheelchair": "no"}}, {"type": "node", "id": 1643521027, "lat": 50.9289488, "lon": 6.9367369, "tags": {"addr:city": "K\u00f6ln", "addr:country": "DE", "addr:housenumber": "46", "addr:postcode": "50674", "addr:street": "Z\u00fclpicher Stra\u00dfe", "amenity": "restaurant", "cuisine": "sushi;ramen", "name": "Shokudo", "payment:cash": "only", "website": "http://www.shokudo.koeln", "wheelchair": "no"}}, {"type": "node", "id": 1643521298, "lat": 50.9297998, "lon": 6.9386782, "tags": {"addr:city": "K\u00f6ln", "addr:country": "DE", "addr:housenumber": "5", "addr:postcode": "50674", "addr:street": "Z\u00fclpicher Stra\u00dfe", "amenity": "restaurant", "contact:facebook": "https://www.facebook.com/Nonna-Napoli-107075481061540", "cuisine": "italian;pizza", "delivery": "yes", "diet:vegan": "yes", "diet:vegetarian": "yes", "name": "Nonna Napoli", "opening_hours": "Mo-Su 11:45-22:30", "phone": "+49 221 98043256", "website": "https://www.nonna-napoli-koeln.de/"}}, {"type": "node", "id": 1721584453, "lat": 50.9193349, "lon": 6.9596932, "tags": {"amenity": "restaurant", "cuisine": "italian", "name": "Il Teatro"}}, {"type": "node", "id": 1741423139, "lat": 50.9181538, "lon": 6.9606497, "tags": {"addr:city": "K\u00f6ln", "addr:country": "DE", "addr:housenumber": "43", "addr:postcode": "50677", "addr:street": "Bonner Stra\u00dfe", "amenity": "restaurant", "check_date:opening_hours": "2022-04-04", "cuisine": "burger", "delivery": "yes", "level": "0", "microbrewery": "yes", "name": "Die fette Kuh", "note": "zu microbrewery: Das fette IPA. Es wird nicht dort gebraut aber exclusiv verkauft", "opening_hours": "PH,We-Mo 12:00-22:00; Tu off", "outdoor_seating": "yes", "phone": "+4922137627775", "takeaway": "yes", "toilets:wheelchair": "no", "website": "http://www.diefettekuh.de/", "wheelchair": "yes"}}, {"type": "node", "id": 1870314931, "lat": 50.9236687, "lon": 6.9586796, "tags": {"addr:city": "K\u00f6ln", "addr:housenumber": "45", "addr:postcode": "50678", "addr:street": "Severinstra\u00dfe", "amenity": "restaurant", "cuisine": "spanish", "delivery": "yes", "name": "Pizzeria Peperoni", "opening_hours": "Mo-Fr 11:30-22:30; Sa,Su,PH 12:00-22:30", "takeaway": "yes", "website": "http://www.pizzataxi-peperoni.de/"}}, {"type": "node", "id": 1870314936, "lat": 50.9235477, "lon": 6.9586772, "tags": {"addr:city": "K\u00f6ln", "addr:housenumber": "41", "addr:postcode": "50678", "addr:street": "Severinstra\u00dfe", "amenity": "restaurant", "cuisine": "spanish;tapas", "name": "La Esquina", "phone": "+49 221 8696840", "website": "http://laesquina.de/index.php"}}, {"type": "node", "id": 1892794995, "lat": 50.9280011, "lon": 6.9441376, "tags": {"addr:housenumber": "42", "addr:postcode": "50676", "addr:street": "Pantaleonsm\u00fchlengasse", "amenity": "restaurant", "cuisine": "italian", "name": "Pizzeria Restaurant Santa Maria", "source": "local knowledge", "wheelchair": "limited"}}, {"type": "node", "id": 1892805913, "lat": 50.930327, "lon": 6.9428551, "tags": {"addr:city": "K\u00f6ln", "addr:country": "DE", "addr:housenumber": "96", "addr:postcode": "50676", "addr:street": "Weyerstra\u00dfe", "amenity": "restaurant", "cuisine": "regional", "name": "Haus T\u00f6ller", "website": "https://haus-toeller.de/", "wheelchair": "limited", "wikidata": "Q1387555", "wikipedia": "de:Haus T\u00f6ller"}}, {"type": "node", "id": 1892828039, "lat": 50.9309944, "lon": 6.9401178, "tags": {"addr:city": "K\u00f6ln", "addr:country": "DE", "addr:housenumber": "4a", "addr:postcode": "50674", "addr:street": "Z\u00fclpicher Platz", "amenity": "restaurant", "capacity": "100", "cuisine": "sushi", "name": "Tsukiji", "smoking": "outside", "source": "local knowledge", "website": "https://tsukiji.de/"}}, {"type": "node", "id": 1893109999, "lat": 50.9305764, "lon": 6.9412486, "tags": {"addr:city": "K\u00f6ln", "addr:country": "DE", "addr:housenumber": "22", "addr:postcode": "50674", "addr:street": "Hohenstaufenring", "amenity": "restaurant", "name": "Al Salam", "opening_hours": "Tu-Sa 17:00-24:00", "website": "http://www.al-salam.de", "wheelchair": "limited"}}, {"type": "node", "id": 2023074218, "lat": 50.9343727, "lon": 6.9363014, "tags": {"addr:housenumber": "2", "addr:postcode": "50674", "addr:street": "H\u00e4ndelstra\u00dfe", "amenity": "restaurant", "cuisine": "thai", "name": "Sivilai", "source": "visit"}}, {"type": "node", "id": 2030185103, "lat": 50.9258286, "lon": 6.9382924, "tags": {"addr:city": "K\u00f6ln", "addr:country": "DE", "addr:housenumber": "57", "addr:postcode": "50674", "addr:street": "Luxemburger Stra\u00dfe", "amenity": "restaurant", "check_date:opening_hours": "2023-03-19", "contact:website": "http://sushi-delux.com/", "cuisine": "sushi", "name": "Sushi de Lux", "opening_hours": "Mo,Tu,Th,Fr 12:00-15:00,17:00-22:00; PH,Sa,Su 17:00-22:00"}}, {"type": "node", "id": 2047732650, "lat": 50.9312421, "lon": 6.9348547, "tags": {"addr:city": "K\u00f6ln", "addr:country": "DE", "addr:housenumber": "2", "addr:postcode": "50674", "addr:street": "G\u00f6rresstra\u00dfe", "amenity": "restaurant", "cuisine": "latin_american;peruvian", "email": "el-inca@netcologne.de", "level": "-1", "name": "El Inca", "opening_hours": "Mo-Su 18:00-00:00", "payment:american_express": "yes", "payment:cash": "yes", "payment:debit_cards": "yes", "payment:mastercard": "yes", "payment:visa": "yes", "phone": "+49 221 245503", "takeaway": "yes", "website": "https://www.el-inca.de/", "wheelchair": "no"}}, {"type": "node", "id": 2104572859, "lat": 50.9303555, "lon": 6.9406854, "tags": {"addr:city": "K\u00f6ln", "addr:country": "DE", "addr:housenumber": "21", "addr:postcode": "50674", "addr:street": "Hohenstaufenring", "amenity": "restaurant", "cuisine": "vietnamese", "email": "essen@lokal-lu.de", "internet_access": "no", "name": "Lu", "opening_hours": "Mo-Sa 12:00-23:00; Su 15:00-23:00", "phone": "+49 221 54813457", "smoking": "no", "website": "https://lokal-lu.de/", "wheelchair": "limited"}}, {"type": "node", "id": 2196397300, "lat": 50.9165043, "lon": 6.9607484, "tags": {"addr:city": "K\u00f6ln", "addr:housenumber": "2a", "addr:postcode": "50677", "addr:street": "Bonner Wall", "amenity": "restaurant", "check_date:opening_hours": "2022-04-04", "cuisine": "russian", "name": "Raskolnikow", "opening_hours": "Tu-Sa 18:00-23:00, Su-Mo 18:00-22:00", "phone": "+49 221 93118420", "website": "http://raskolnikow-koeln.de/", "wheelchair": "limited"}}, {"type": "node", "id": 2229584408, "lat": 50.9308808, "lon": 6.9400266, "tags": {"amenity": "restaurant", "cuisine": "thai", "name": "asia thai gourmet", "opening_hours": "Mo-Fr 11:00-22:00; PH,Sa,Su 12:00-22:00"}}, {"type": "node", "id": 2277589008, "lat": 50.9367422, "lon": 6.9347068}, {"type": "node", "id": 2277589009, "lat": 50.9367422, "lon": 6.9348719}, {"type": "node", "id": 2277589020, "lat": 50.9368402, "lon": 6.9348732}, {"type": "node", "id": 2277589021, "lat": 50.9368411, "lon": 6.9347078}, {"type": "node", "id": 2279864305, "lat": 50.9323167, "lon": 6.9335253, "tags": {"addr:city": "K\u00f6ln", "addr:housenumber": "81", "addr:postcode": "50674", "addr:street": "Lindenstra\u00dfe", "amenity": "restaurant", "cuisine": "vietnamese;thai", "name": "Bangkok", "opening_hours": "Mo-Tu 17:00-23:00; We-Sa 12:00-15:00,17:00-23:00; Su 12:00-23:00", "payment:cash": "yes", "payment:maestro": "yes", "payment:mastercard": "yes", "payment:visa": "yes", "phone": "+49 152 13339145", "website": "https://bangkok-thai-restaurant.de/"}}, {"type": "node", "id": 2282818572, "lat": 50.9329359, "lon": 6.9376043, "tags": {"addr:housenumber": "9", "addr:street": "Mozartstra\u00dfe", "amenity": "restaurant", "cuisine": "spanish", "name": "Manuela - Tapas Bar", "phone": "+49 221 2224864"}}, {"type": "node", "id": 2286488275, "lat": 50.9352447, "lon": 6.9369072, "tags": {"addr:city": "K\u00f6ln", "addr:housenumber": "28", "addr:postcode": "50674", "addr:street": "H\u00e4ndelstra\u00dfe", "amenity": "restaurant", "contact:instagram": "to_1980_vegan", "contact:phone": "+49 221 245504", "contact:website": "https://www.to80vegan-koeln.de/", "cuisine": "asian;japanese;vietnamese", "diet:vegan": "yes", "name": "To 80", "opening_hours": "Mo-Su 12:00-23:00"}}, {"type": "node", "id": 2340913485, "lat": 50.9280836, "lon": 6.9437064, "tags": {"addr:city": "K\u00f6ln", "addr:housenumber": "38", "addr:postcode": "50677", "addr:street": "Salierring", "amenity": "restaurant", "contact:website": "https://asian-tapas.eatbu.com/", "cuisine": "chinese;french", "name": "JuJu & Lu Tapas", "opening_hours": "Tu-Th 17:00-22:00; Fr,Sa 17:00-23:00; Su 17:00-21:00"}}, {"type": "node", "id": 2378929030, "lat": 50.9171918, "lon": 6.9609196, "tags": {"amenity": "restaurant", "cuisine": "asian", "description": "Koreanisches Spezialit\u00e4ten", "disused": "yes", "name": "Namdaemun", "toilets:wheelchair": "yes", "wheelchair": "yes"}}, {"type": "node", "id": 2463409039, "lat": 50.9316301, "lon": 6.9484542, "tags": {"addr:city": "K\u00f6ln", "addr:country": "DE", "addr:housenumber": "49", "addr:street": "Kleiner Griechenmarkt", "amenity": "restaurant", "cuisine": "italian", "name": "Pettirosso", "opening_hours": "Mo,Tu,Th,Fr 12:00-15:00,18:00-23:00; Sa,Su,PH 18:00-23:00", "source": "survey"}}, {"type": "node", "id": 2464039839, "lat": 50.9367422, "lon": 6.9348271}, {"type": "node", "id": 2467465110, "lat": 50.9291879, "lon": 6.9423127}, {"type": "node", "id": 2467465124, "lat": 50.9292716, "lon": 6.9424454}, {"type": "node", "id": 2467465129, "lat": 50.9292845, "lon": 6.9421553}, {"type": "node", "id": 2467465155, "lat": 50.9293683, "lon": 6.9422879}, {"type": "node", "id": 2467491576, "lat": 50.9297775, "lon": 6.9420912, "tags": {"addr:city": "K\u00f6ln", "addr:country": "DE", "addr:housenumber": "114", "addr:street": "Weyerstra\u00dfe", "amenity": "restaurant", "cuisine": "indian", "name": "Kamasutra", "phone": "+4922134892828", "website": "http://www.kamasutra-koeln.de", "wheelchair": "limited"}}, {"type": "node", "id": 2559529094, "lat": 50.9230458, "lon": 6.9559117, "tags": {"addr:city": "K\u00f6ln", "addr:country": "DE", "addr:housenumber": "47", "addr:postcode": "50678", "addr:street": "Kart\u00e4userwall", "amenity": "restaurant", "fixme": "bitte Name und Details erg\u00e4nzen"}}, {"type": "node", "id": 2560124275, "lat": 50.9243152, "lon": 6.9444048}, {"type": "node", "id": 2560124278, "lat": 50.9243193, "lon": 6.9444401}, {"type": "node", "id": 2560124280, "lat": 50.9243502, "lon": 6.9442867}, {"type": "node", "id": 2560124285, "lat": 50.9244213, "lon": 6.9443606}, {"type": "node", "id": 2560124288, "lat": 50.924425, "lon": 6.9445592}, {"type": "node", "id": 2560124290, "lat": 50.9244266, "lon": 6.9443871}, {"type": "node", "id": 2560124292, "lat": 50.9244277, "lon": 6.9443356}, {"type": "node", "id": 2560124304, "lat": 50.9244528, "lon": 6.9444123}, {"type": "node", "id": 2560124306, "lat": 50.9244763, "lon": 6.9444419}, {"type": "node", "id": 2561188785, "lat": 50.9220535, "lon": 6.963724, "tags": {"amenity": "restaurant", "email": "hallo@frau-maher.de", "name": "Frau Mah\u00e9r", "opening_hours": "Mo-Th 09:00-23:00; Fr, Sa 09:00-24:00; Su 09:00-23:00", "outdoor_seating": "yes", "phone": "+49 221 32 61 33", "website": "https://frau-maher.de/", "wheelchair": "no"}}, {"type": "node", "id": 2586325827, "lat": 50.9288728, "lon": 6.941075, "tags": {"amenity": "restaurant", "check_date:currency:XBT": "2023-02-01", "cuisine": "russian;european", "currency:XBT": "yes", "fixme": "bitte Hauseingang bzw. Geb\u00e4udeteil zuordnen", "name": "Raskolnikow", "opening_hours": "Tu-Sa 18:00-23:00; Mo,Su 18:00-22:00 || \"Mittagszeit mit Vorbestellung f\u00fcr Gruppen\"", "payment:lightning": "no", "payment:lightning_contactless": "no", "payment:onchain": "yes", "toilets:wheelchair": "no", "wheelchair": "limited"}}, {"type": "node", "id": 2587148007, "lat": 50.9255712, "lon": 6.9584217, "tags": {"addr:city": "K\u00f6ln", "addr:housenumber": "78", "addr:postcode": "50678", "addr:street": "Severinstra\u00dfe", "amenity": "restaurant", "cuisine": "japanese", "name": "Sushi Teria", "wheelchair": "yes"}}, {"type": "node", "id": 2588348480, "lat": 50.9283201, "lon": 6.9576067}, {"type": "node", "id": 2588348489, "lat": 50.928336, "lon": 6.9577681}, {"type": "node", "id": 2588348504, "lat": 50.9283563, "lon": 6.9577205}, {"type": "node", "id": 2588348506, "lat": 50.9283603, "lon": 6.9577623}, {"type": "node", "id": 2588348527, "lat": 50.928376, "lon": 6.9575929}, {"type": "node", "id": 2588348545, "lat": 50.9283875, "lon": 6.9577149}, {"type": "node", "id": 2588368856, "lat": 50.9273909, "lon": 6.9568538}, {"type": "node", "id": 2588368857, "lat": 50.9274071, "lon": 6.9570117}, {"type": "node", "id": 2588368860, "lat": 50.9274309, "lon": 6.9568412}, {"type": "node", "id": 2588368861, "lat": 50.9274355, "lon": 6.9568773}, {"type": "node", "id": 2588368864, "lat": 50.9274496, "lon": 6.9568353}, {"type": "node", "id": 2588368865, "lat": 50.9274541, "lon": 6.9568712}, {"type": "node", "id": 2588368870, "lat": 50.9274985, "lon": 6.9569465}, {"type": "node", "id": 2588368872, "lat": 50.9275028, "lon": 6.9569862}, {"type": "node", "id": 2588368874, "lat": 50.927505, "lon": 6.9568175}, {"type": "node", "id": 2588368878, "lat": 50.9275205, "lon": 6.9568128}, {"type": "node", "id": 2588368880, "lat": 50.9275321, "lon": 6.9569307}, {"type": "node", "id": 2682239117, "lat": 50.9207122, "lon": 6.9552413, "tags": {"addr:city": "K\u00f6ln", "addr:housenumber": "4", "addr:postcode": "50677", "addr:street": "Vondelstra\u00dfe", "amenity": "restaurant", "bar": "yes", "cafe": "yes", "lunch": "menu", "name": "Wagenhalle", "note": "brunch Su 10:30-16:00", "opening_hours": "Mo-Sa 12:00+; Su 10:30+", "outdoor_seating": "yes", "phone": "+49 221 35558910", "toilets:wheelchair": "yes", "website": "https://www.comedia-wagenhalle.de/", "wheelchair": "yes", "wheelchair:description": "Barrierefreies Restaurant mit Innen- und Au\u00dfenbereich. Zus\u00e4tzlich verf\u00fcgt der Laden \u00fcber ein Rollstuhlfahrer-WC"}}, {"type": "node", "id": 2810871133, "lat": 50.9363079, "lon": 6.936903, "tags": {"addr:city": "K\u00f6ln", "addr:housenumber": "5", "addr:postcode": "50674", "addr:street": "Aachener Stra\u00dfe", "amenity": "restaurant", "capacity": "100", "cuisine": "regional", "name": "campi volksb\u00fchne", "opening_hours": "Mo-Fr 17:00-01:00, Sa 15:00-01:00, Su 15:00-23:00", "phone": "+49 221 788789", "smoking": "outside", "website": "http://www.campi-volksbuehne.de/"}}, {"type": "node", "id": 2875300001, "lat": 50.934672, "lon": 6.940123, "tags": {"addr:city": "K\u00f6ln", "addr:housenumber": "63", "addr:postcode": "50676", "addr:street": "Schaafenstra\u00dfe", "amenity": "restaurant", "cuisine": "thai", "internet_access": "no", "name": "Serithai", "name:de": "Buriram", "opening_hours": "Mo-Su 18:00-24:00", "outdoor_seating": "no", "phone": "+49 221 231969"}}, {"type": "node", "id": 2899531873, "lat": 50.9179971, "lon": 6.9603515, "tags": {"addr:city": "K\u00f6ln", "addr:country": "DE", "addr:housenumber": "54", "addr:postcode": "50677", "addr:street": "Bonner Stra\u00dfe", "amenity": "restaurant", "check_date:opening_hours": "2022-04-04", "contact:phone": "+49 221 1688360", "contact:website": "http://www.sushininja.de/", "cuisine": "sushi", "delivery": "yes", "diet:vegetarian": "yes", "name": "Sushi Ninja", "opening_hours": "Mo-Fr 11:30-15:00,17:30-22:00; Sa-Su 15:00-22:00", "takeaway": "yes", "wheelchair": "yes"}}, {"type": "node", "id": 2916161827, "lat": 50.9199102, "lon": 6.9593969, "tags": {"amenity": "restaurant", "cuisine": "german", "entrance": "yes", "name": "Johann Sch\u00e4fer", "source": "survey", "toilets:wheelchair": "no", "wheelchair": "yes"}}, {"type": "node", "id": 2967470623, "lat": 50.9361095, "lon": 6.9347209, "tags": {"addr:city": "K\u00f6ln", "addr:housenumber": "44", "addr:postcode": "50674", "addr:street": "Br\u00fcsseler Stra\u00dfe", "amenity": "restaurant", "cuisine": "vietnamese", "diet:vegan": "yes", "diet:vegetarian": "yes", "name": "CoCo Viet", "phone": "+49 15254865184", "wheelchair": "limited"}}, {"type": "node", "id": 3037341368, "lat": 50.9199946, "lon": 6.9601003, "tags": {"addr:housenumber": "19", "addr:street": "Bonner Stra\u00dfe", "amenity": "restaurant", "check_date:opening_hours": "2019-01-15", "name": "Akemi", "opening_hours": "Mo-Sa 11:30-22:00; Su,PH 15:00-22:00", "phone": "+4922139760911", "website": "http://akemi-sushi.de/"}}, {"type": "node", "id": 3196234718, "lat": 50.9297477, "lon": 6.9467086, "tags": {"amenity": "restaurant", "name": "Finanzamt Kantine"}}, {"type": "node", "id": 3201522825, "lat": 50.932377, "lon": 6.9488662, "tags": {"addr:city": "K\u00f6ln", "addr:housenumber": "23/25", "addr:postcode": "50676", "addr:street": "Kleiner Griechenmarkt", "amenity": "restaurant", "check_date": "2017-09-06", "contact:website": "http://www.wellbeing-koeln.de/", "cuisine": "vietnamese", "diet:gluten_free": "yes", "diet:raw": "yes", "diet:soy_free": "yes", "diet:vegan": "only", "diet:vegetarian": "only", "fair_trade": "no", "name": "Well Being 2", "opening_hours": "Mo-Fr 11:30-15:00; Tu-Fr 17:00-22:00; Sa,Su,PH 14:00-22:00", "organic": "yes", "takeaway": "yes", "wheelchair": "no"}}, {"type": "node", "id": 3275522805, "lat": 50.9203033, "lon": 6.9562142, "tags": {"amenity": "restaurant", "cuisine": "french", "name": "Los Navarros"}}, {"type": "node", "id": 3392634340, "lat": 50.9277623, "lon": 6.9575196, "tags": {"addr:city": "K\u00f6ln", "addr:housenumber": "155", "addr:postcode": "50678", "addr:street": "Severinstra\u00dfe", "amenity": "restaurant", "cuisine": "thai", "delivery": "yes", "name": "Thai Cuisine", "opening_hours": "Mo-Fr 11:30-21:30; Sa 12:00-21:30; Su, PH 13:00-21:30", "website": "https://www.thai-cuisine-severinstrasse.de/", "wheelchair": "yes"}}, {"type": "node", "id": 3452126444, "lat": 50.9191249, "lon": 6.9603779, "tags": {"amenity": "restaurant", "cuisine": "italian", "takeaway": "yes"}}, {"type": "node", "id": 3453708022, "lat": 50.9202019, "lon": 6.962357, "tags": {"addr:city": "K\u00f6ln", "addr:housenumber": "41", "addr:postcode": "50678", "addr:street": "Alteburger Stra\u00dfe", "amenity": "restaurant", "capacity": "ca. 30", "cuisine": "italian;pasta;pizza", "name": "Massimo Rosticceria", "payment:cash": "yes", "payment:contactless": "no", "payment:credit_cards": "no", "payment:debit_cards": "no", "phone": "+49 221 3489601", "wheelchair": "limited"}}, {"type": "node", "id": 3528808093, "lat": 50.93499, "lon": 6.942994, "tags": {"addr:city": "K\u00f6ln", "addr:housenumber": "1-3", "addr:street": "Schaafenstra\u00dfe", "amenity": "restaurant", "cuisine": "italian", "name": "La Piazzetta", "outdoor_seating": "yes", "phone": "+49 221 99379300", "smoking": "outside"}}, {"type": "node", "id": 3556718905, "lat": 50.9340782, "lon": 6.9363708, "tags": {"addr:city": "K\u00f6ln", "addr:housenumber": "38", "addr:postcode": "50674", "addr:street": "Lindenstra\u00dfe", "amenity": "restaurant", "cuisine": "tapas;cocktails", "name": "Tapeo & Co.", "outdoor_seating": "yes", "phone": "+49 221 820 820 00", "website": "https://www.tapeoundco.de/"}}, {"type": "node", "id": 3602703283, "lat": 50.9171222, "lon": 6.9605853, "tags": {"addr:city": "K\u00f6ln", "addr:country": "DE", "addr:housenumber": "80", "addr:postcode": "50677", "addr:street": "Bonner Stra\u00dfe", "addr:suburb": "S\u00fcdstadt", "amenity": "restaurant", "cafe": "yes", "email": "info@carmelaedchen.de", "name": "Carmel\u00e4dchen Bistro Caf\u00e9 & K\u00f6stlichkeiten", "opening_hours": "Tu-Su 10:00-18:00", "operator": "Carmen Gilles", "payment:cash": "yes", "payment:coins": "yes", "payment:notes": "yes", "phone": "+49 221 99876461", "website": "http://carmel\u00e4dchen.de/"}}, {"type": "node", "id": 3602724674, "lat": 50.9217826, "lon": 6.9627008, "tags": {"addr:city": "K\u00f6ln", "addr:country": "DE", "addr:housenumber": "27", "addr:postcode": "50678", "addr:street": "Ubierring", "addr:suburb": "S\u00fcdstadt", "amenity": "restaurant", "cuisine": "thai;sushi", "email": "hallo@mj-sushi.de", "fax": "+49 221 168 60 936", "name": "MJ Sushi", "note": "U-Bier-Ding exisitert nicht mehr", "opening_hours": "Mo-Fr 11:30-22:00; Sa-Su 12:00-22:00", "operator": "Jamroen Janthanan", "outdoor_seating": "no", "payment:cash": "yes", "payment:coins": "yes", "payment:maestro": "yes", "payment:notes": "yes", "phone": "+49 221 168 60 333", "website": "http://www.mj-sushi.de"}}, {"type": "node", "id": 3602900596, "lat": 50.9191447, "lon": 6.9600055, "tags": {"addr:city": "K\u00f6ln", "addr:country": "DE", "addr:housenumber": "32", "addr:postcode": "50677", "addr:street": "Bonner Stra\u00dfe", "addr:suburb": "S\u00fcdstadt", "amenity": "restaurant", "cuisine": "burger", "email": "info@einburgerung.com", "name": "einBURGERung", "opening_hours": "Tu-Th 12:00-22:00; Fr-Sa 12:00-23:00; Su 14:00-22:00", "operator": "Taner lneyici", "payment:cash": "yes", "payment:maestro": "yes", "phone": "+49 221 9463144", "website": "https://einburgerung.com/", "wheelchair": "yes"}}, {"type": "node", "id": 3651247522, "lat": 50.9216424, "lon": 6.9591232, "tags": {"addr:city": "K\u00f6ln", "addr:housenumber": "15", "addr:postcode": "50678", "addr:street": "Chlodwigplatz", "amenity": "restaurant", "cuisine": "turkish", "name": "My Antep Mangal Restaurant", "outdoor_seating": "yes", "phone": "+49 221 47672656", "website": "https://www.my-antep-mangal-restaurant.de/"}}, {"type": "node", "id": 3651274169, "lat": 50.91985, "lon": 6.96019, "tags": {"amenity": "restaurant", "name": "Kurf\u00fcrstenhof", "opening_hours": "Mo-Su 11:00-18:00+", "outdoor_seating": "yes", "phone": "+49 221 3319216"}}, {"type": "node", "id": 3698446468, "lat": 50.9309786, "lon": 6.9412834, "tags": {"addr:city": "K\u00f6ln", "addr:country": "DE", "addr:housenumber": "24", "addr:postcode": "50674", "addr:street": "Hohenstaufenring", "amenity": "restaurant", "cuisine": "fast_casual;chicken;burger", "delivery": "yes", "name": "Rock Pit", "opening_hours": "12:00-24:00", "outdoor_seating": "yes", "smoking": "outside", "sport": "9pin", "takeaway": "yes", "wheelchair": "no"}}, {"type": "node", "id": 3736464991, "lat": 50.9204751, "lon": 6.9575749, "tags": {"addr:city": "K\u00f6ln", "addr:housenumber": "53", "addr:postcode": "50677", "addr:street": "Elsa\u00dfstra\u00dfe", "amenity": "restaurant", "cuisine": "thai", "name": "Rim Khong", "smoking": "outside", "source": "local knowledge", "takeaway": "yes"}}, {"type": "node", "id": 3740368911, "lat": 50.9197691, "lon": 6.959335, "tags": {"amenity": "restaurant", "cuisine": "french", "name": "Epicerie boucherie", "opening_hours": "09:00-23:00", "phone": "+4922131081999", "website": "https://epicerieboucherie.de"}}, {"type": "node", "id": 3753097193, "lat": 50.9311258, "lon": 6.9481506, "tags": {"addr:city": "K\u00f6ln", "addr:housenumber": "73", "addr:postcode": "50676", "addr:street": "Kleiner Griechenmarkt", "amenity": "restaurant", "bar": "yes", "cuisine": "german", "name": "Ansgar's", "opening_hours": "Tu-Th 16:00-23:00,Fr-Sa 16:00-03:00,Su 16:00-23:00", "outdoor_seating": "yes", "phone": "+49 221 2718388", "pub": "yes", "sport": "9pin", "website": "https://ansgars-koeln.de"}}, {"type": "node", "id": 3778088410, "lat": 50.9250955, "lon": 6.9452143, "tags": {"amenity": "restaurant", "cuisine": "italian", "description": "Italiener ohne Pizza, aber hausgemachte Pasta", "name": "Pane e Vino", "opening_hours": "Mo-Su 11:00-15:00,18:00-23:00", "phone": "+49 221 9311311", "website": "https://www.ristorante-paneevino.de/", "wheelchair": "limited"}}, {"type": "node", "id": 3784304052, "lat": 50.9348425, "lon": 6.9346866, "tags": {"amenity": "restaurant", "name": "Christoph Paul's", "opening_hours": "Tu-Sa 18:00-24:00", "opening_hours:kitchen": "18:00-21:30", "outdoor_seating": "yes"}}, {"type": "node", "id": 3910613518, "lat": 50.9212153, "lon": 6.9612493, "tags": {"addr:city": "K\u00f6ln", "addr:housenumber": "18", "addr:postcode": "50678", "addr:street": "Ubierring", "amenity": "restaurant", "name": "Veedel Vital -Salatbar", "opening_hours": "Mo-Fr 10:00-15:00; PH,Sa,Su off"}}, {"type": "node", "id": 4078587052, "lat": 50.9276967, "lon": 6.9575397, "tags": {"amenity": "restaurant", "cuisine": "italian", "name": "Trattoria Palermo", "opening_hours": "Mo-Tu, We-Sa 12:00-15:00, 17:30-23:00"}}, {"type": "node", "id": 4109433862, "lat": 50.9297478, "lon": 6.9404874, "tags": {"addr:city": "K\u00f6ln", "addr:country": "DE", "addr:housenumber": "8", "addr:postcode": "50674", "addr:street": "Roonstra\u00dfe", "amenity": "restaurant", "contact:website": "http://www.tokyo-koeln.de/", "cuisine": "japanese;sushi", "name": "Tokyo", "phone": "+49 221 39 76 489", "takeaway": "yes", "wheelchair": "limited"}}, {"type": "node", "id": 4121915664, "lat": 50.9244515, "lon": 6.9587432, "tags": {"addr:city": "K\u00f6ln", "addr:country": "DE", "addr:housenumber": "52c", "addr:postcode": "50678", "addr:street": "Severinstra\u00dfe", "addr:suburb": "Severinsviertel", "amenity": "restaurant", "contact:facebook": "hayati.koeln", "contact:instagram": "hayatikoeln", "cuisine": "arab", "name": "Hayati", "opening_hours": "11:00-23:00", "payment:cash": "yes", "payment:coins": "yes", "payment:notes": "yes", "phone": "022129817957", "smoking": "no", "takeaway": "yes", "wheelchair": "yes"}}, {"type": "node", "id": 4162327109, "lat": 50.9225692, "lon": 6.9592574, "tags": {"addr:city": "K\u00f6ln", "addr:housenumber": "10-12", "addr:postcode": "50678", "addr:street": "Severinstra\u00dfe", "amenity": "restaurant", "cuisine": "mexican", "diet:vegetarian": "yes", "email": "koeln@casitamexicana.de", "name": "Casita Mexicana", "opening_hours": "Mo-Th 12:00-23:00; Fr 12:00-24:00; Sa 13:00-24:00; Su 13:00-23:30", "opening_hours:kitchen": "Mo-Th 12:00-22:00, Fr 12:00-23:00, Sa 13:00-23:00, Su 13:00-22:00", "phone": "+49 221 959 364 66", "reservation": "yes", "toilets:wheelchair": "yes", "website": "http://casitamexicana.de/koeln-altstadt.php", "wheelchair": "yes"}}, {"type": "node", "id": 4162327128, "lat": 50.9263617, "lon": 6.9581791, "tags": {"amenity": "restaurant", "cuisine": "pizza;noodle", "delivery": "yes", "name": "Pizza & Pasta Traditionale", "opening_hours": "Mo-Su 12:00-22:30; Tu off", "phone": "+49 22180187800", "website": "https://www.pizza-pasta-trad.de/"}}, {"type": "node", "id": 4226808093, "lat": 50.9348775, "lon": 6.9363678, "tags": {"addr:city": "K\u00f6ln", "addr:housenumber": "33", "addr:postcode": "50674", "addr:street": "H\u00e4ndelstra\u00dfe", "amenity": "restaurant", "cuisine": "indian", "name": "Ginti", "opening_hours": "PH,Mo-Su 11:00-23:00"}}, {"type": "node", "id": 4239480443, "lat": 50.9225007, "lon": 6.9619698, "tags": {"addr:housenumber": "22", "addr:postcode": "50678", "addr:street": "Severinswall", "amenity": "restaurant", "contact:facebook": "pizzerianennillo", "cuisine": "italian", "name": "Antica Pizzeria Nennillo", "opening_hours": "Su,Tu-We 12:00-22:30; Fr-Sa 12:00-23:00", "phone": "+49 221 20193556", "website": "https://www.nennillo.de", "wheelchair": "limited"}}, {"type": "node", "id": 4239525852, "lat": 50.9190715, "lon": 6.960026, "tags": {"addr:city": "K\u00f6ln", "addr:country": "DE", "addr:housenumber": "34", "addr:postcode": "50677", "addr:street": "Bonner Stra\u00dfe", "amenity": "restaurant", "cuisine": "pizza", "name": "485Grad", "name:en": "485 Grad", "opening_hours": "Mo-We 17:00-22:00; Th 12:00-22:00; Fr, Sa 12:00-23:00; Su 12:00-22:00", "phone": "+49 221 93293148", "website": "https://www.485grad.de/"}}, {"type": "node", "id": 4239546512, "lat": 50.9287194, "lon": 6.9375966, "tags": {"addr:city": "K\u00f6ln", "addr:housenumber": "44", "addr:postcode": "50674", "addr:street": "Kyffh\u00e4userstra\u00dfe", "amenity": "restaurant", "cuisine": "pizza", "name": "485\u00b0", "opening_hours": "Mo-We 17:00-22:00; Th 12:00-22:00; Fr-Sa 12:00-23:00; Su,PH 12:00-22:00", "phone": "+49 221 39753330", "strapline": "Vera Pizza Napoletana", "website": "http://www.485grad.de/standorte/kyffhaeuserstrasse/", "wheelchair": "no"}}, {"type": "node", "id": 4305780847, "lat": 50.9196453, "lon": 6.9504409, "tags": {"amenity": "restaurant", "contact:facebook": "https://www.facebook.com/daurlang.cgn/", "contact:phone": "+49 221 34097080", "cuisine": "indonesian", "name": "Daur Lang", "opening_hours": "Mo-Su 12:00-21:00", "outdoor_seating": "yes"}}, {"type": "node", "id": 4396248737, "lat": 50.9322007, "lon": 6.9424358, "tags": {"amenity": "restaurant", "name": "Restaurant Sadaf", "opening_hours": "Mo-Sa 12:00-23:00; Su 12:00-22:00"}}, {"type": "node", "id": 4396379648, "lat": 50.9363521, "lon": 6.9369178, "tags": {"amenity": "restaurant", "cuisine": "mexican", "diet:vegan": "yes", "diet:vegetarian": "yes", "name": "Burrito Rico"}}, {"type": "node", "id": 4460016306, "lat": 50.9328589, "lon": 6.9384225, "tags": {"amenity": "restaurant", "bar": "yes", "cuisine": "italian", "cuisine:crossover": "yes", "name": "Tanica", "opening_hours": "Mo-Fr 12:00-15:30,17:30-24:00; Sa-Su 18:00-24:00", "phone": "+49 221 2405271"}}, {"type": "node", "id": 4490046695, "lat": 50.9337069, "lon": 6.9354317, "tags": {"addr:city": "K\u00f6ln", "addr:housenumber": "48", "addr:postcode": "50674", "addr:street": "Lindenstra\u00dfe", "amenity": "restaurant", "cuisine": "asian", "name": "YouYou Noodle House", "opening_hours": "Mo-Su 12:00-20:30", "source": "visited", "website": "http://www.youyou-noodle-house.com"}}, {"type": "node", "id": 4730879614, "lat": 50.9244091, "lon": 6.9585326, "tags": {"amenity": "restaurant", "cuisine": "steak_house", "internet_access": "wlan", "name": "Ca'n Marcos"}}, {"type": "node", "id": 4791261324, "lat": 50.9286447, "lon": 6.9571068, "tags": {"amenity": "restaurant", "name": "La Galette", "opening_hours": "Tu-Sa 18:30-00:00", "phone": "+49 1520 5916110"}}, {"type": "node", "id": 4863804414, "lat": 50.9318395, "lon": 6.9401167, "tags": {"addr:city": "K\u00f6ln", "addr:country": "DE", "addr:housenumber": "29-37", "addr:postcode": "50674", "addr:street": "Hohenstaufenring", "amenity": "restaurant", "capacity": "ca. 60", "cuisine": "argentinian;steak_house", "delivery": "no", "name": "El Gaucho", "opening_hours": "Tu-Su 11:00-23:00", "outdoor_seating": "no", "smoking": "no", "takeaway": "no"}}, {"type": "node", "id": 4937274521, "lat": 50.9318905, "lon": 6.9329001, "tags": {"addr:city": "K\u00f6ln", "addr:country": "DE", "addr:housenumber": "93", "addr:postcode": "50674", "addr:street": "Lindenstra\u00dfe", "addr:suburb": "Quartier Latin", "amenity": "restaurant", "contact:email": "reservierung@trapas.de", "contact:phone": "+49 15735600147", "contact:website": "https://trapas.de/restaurant", "contact:whatsapp": "https://wa.me/+4915735600147/?text=Hallo%20liebes%20Trapas%20Team,%20ich%20w%C3%BCrde%20gerne%20einen%20Platz%20f%C3%BCr%20(Anzahl)%20Personen%20reservieren.%20Auf%20den%20Namen%20(Mustername),%20am%20(Datum)%20um%20(00:00).", "name": "Trapas", "opening_hours": "Tu-Fr 17:00+; Sa-Su 12:00+", "source": "https://www.koelner.de/2020/12/16/trapas/"}}, {"type": "node", "id": 4982070897, "lat": 50.9225969, "lon": 6.9522373, "tags": {"addr:city": "K\u00f6ln", "addr:housenumber": "1", "addr:postcode": "50677", "addr:street": "Vorgebirgsstra\u00dfe", "amenity": "restaurant", "cuisine": "italian", "name": "Latio", "outdoor_seating": "yes"}}, {"type": "node", "id": 5279375017, "lat": 50.9288046, "lon": 6.9382726, "tags": {"addr:city": "K\u00f6ln", "addr:housenumber": "32", "addr:postcode": "50674", "addr:street": "Kyffh\u00e4userstra\u00dfe", "amenity": "restaurant", "cuisine": "pizza;italian", "email": "alforno360@outlook.de", "name": "Al Forno 360\u00b0", "opening_hours": "Mo-Th 11:00-23:00; Fr-Sa 11:00-02:00; Su 12:00-23:00", "outdoor_seating": "no", "phone": "+49 221 789 480 19", "takeaway": "yes"}}, {"type": "node", "id": 5311896942, "lat": 50.9268159, "lon": 6.955255, "tags": {"amenity": "restaurant", "contact:website": "https://bongour.de/#/page/home", "delivery": "yes", "indoor_seating": "no", "name": "Bongour", "opening_hours": "Su-Fr 11:30-14:00, 18:30-21:00", "outdoor_seating": "no", "takeaway": "yes"}}, {"type": "node", "id": 5462838421, "lat": 50.9306501, "lon": 6.947232, "tags": {"addr:housenumber": "2", "addr:street": "Mauritiussteinweg", "amenity": "restaurant", "cuisine": "sushi", "diet:vegan": "only", "level": "0", "name": "Makimaki Sushi Green", "name:en": "Sushi Green", "opening_hours": "Mo-Fr,Su 17:30-22:00; Sa 15:00-22:00; PH closed", "outdoor_seating": "yes", "phone": "+49 221 93115678", "reservation": "yes", "smoking": "outside", "takeaway": "yes", "toilets": "yes", "toilets:wheelchair": "no", "website": "https://sushigreen.de/", "wheelchair": "yes"}}, {"type": "node", "id": 5709340021, "lat": 50.9285293, "lon": 6.943427, "tags": {"amenity": "restaurant", "name": "Pasta Bar", "opening_hours": "Mo-Sa 17:00-22:00"}}, {"type": "node", "id": 5763425696, "lat": 50.9199782, "lon": 6.9592981, "tags": {"addr:city": "K\u00f6ln", "addr:housenumber": "6", "addr:postcode": "50677", "addr:street": "Elsa\u00dfstra\u00dfe", "amenity": "restaurant", "contact:facebook": "johannschaeferbrauhaus", "contact:instagram": "johannschaeferbrauhaus", "contact:phone": "+49 221 16860975", "contact:website": "https://www.johann-schaefer.de", "cuisine": "german", "diet:vegan": "yes", "diet:vegetarian": "yes", "email": "info@johann-schaefer.de", "internet_access": "wlan", "microbrewery": "yes", "name": "Brauhaus Johann Sch\u00e4fer", "opening_hours": "Mo-Fr 17:00-22:00; Sa-Su 10:00-22:00", "outdoor_seating": "yes", "phone": "+49 221 16860975", "reservation": "recommended", "toilets:wheelchair": "yes", "website": "https://www.johann-schaefer.de/", "wheelchair": "yes"}}, {"type": "node", "id": 5902454164, "lat": 50.9323927, "lon": 6.933224, "tags": {"addr:city": "K\u00f6ln", "addr:housenumber": "86", "addr:postcode": "50674", "addr:street": "Lindenstra\u00dfe", "amenity": "restaurant", "craft": "caterer", "cuisine": "ethiopian;african;injera", "description": "Catering und Partyservice in K\u00f6ln und Umgebung", "email": "reservierung@injera-restaurant.com", "name": "Injera", "opening_hours": "18:00-24:00", "phone": "+49 221 998 49 42", "website": "http://www.injera-restaurant.de"}}, {"type": "node", "id": 5907904351, "lat": 50.9331785, "lon": 6.9395817, "tags": {"addr:city": "K\u00f6ln", "addr:country": "DE", "addr:housenumber": "55", "addr:postcode": "50674", "addr:street": "Hohenstaufenring", "amenity": "restaurant", "cuisine": "sushi; vietnamese", "delivery": "no", "email": "info@mikotosushi.de", "level": "0", "name": "Mikoto", "opening_hours": "Mo-Sa 12:00-23:00; Su 14:00-23:00", "outdoor_seating": "yes", "phone": "+49 221 29832294", "ref:vatin": "214/5034/3371", "takeaway": "yes", "website": "https://www.mikotosushi.de", "wheelchair": "yes"}}, {"type": "node", "id": 5908170797, "lat": 50.9341275, "lon": 6.9346636, "tags": {"addr:city": "K\u00f6ln", "addr:housenumber": "12", "addr:postcode": "50674", "addr:street": "Br\u00fcsseler Stra\u00dfe", "amenity": "restaurant", "capacity": "50", "contact:email": "eat@tigermilch.kitchen", "contact:phone": "+49 221 75985821", "contact:website": "https://www.tigermilch.kitchen/", "cuisine": "peruvian", "diet:vegan": "yes", "diet:vegetarian": "yes", "name": "Tigermilch", "opening_hours": "Tu-Th 18:00-23:00; Fr-Sa 18:00-01:00; Su 18:00-22:00", "smoking": "outside", "takeaway": "yes"}}, {"type": "node", "id": 5927098106, "lat": 50.9326281, "lon": 6.9354284, "tags": {"amenity": "restaurant", "name": "Wirtzhaus", "opening_hours": "Mo-Sa ab 18:00, Juni-August ab 20:00"}}, {"type": "node", "id": 5933638473, "lat": 50.930036, "lon": 6.9381114, "tags": {"amenity": "restaurant", "cuisine": "italian", "name": "Bagutta", "outdoor_seating": "terrace", "wheelchair": "no"}}, {"type": "node", "id": 5933662850, "lat": 50.9300068, "lon": 6.9385708, "tags": {"amenity": "restaurant", "brand": "Pizza Hut", "brand:wikidata": "Q191615", "brand:wikipedia": "en:Pizza Hut", "cuisine": "pizza", "name": "Pizza Hut", "opening_hours": "Mo-Th 11:00-24:00; Fr-Sa 11:00-01:00; Su, PH 12:00-24:00", "operator": "Fadayi Blatt GmbH, H\u00fcrth", "phone": "+49 221 366 366", "website": "https://pizzahut.de/"}}, {"type": "node", "id": 5933662852, "lat": 50.9300846, "lon": 6.9387161, "tags": {"amenity": "restaurant", "check_date": "2023-01-08", "cuisine": "sushi;japanese", "name": "Fant-asia", "opening_hours": "Mo-Th 11:30-23:00; Fr-Su 11:30-24:00", "payment:mastercard": "yes", "payment:visa": "yes"}}, {"type": "node", "id": 5995331449, "lat": 50.9365972, "lon": 6.9370079, "tags": {"addr:housenumber": "14", "addr:postcode": "50674", "addr:street": "Aachener Stra\u00dfe", "amenity": "restaurant", "contact:facebook": "NishNushCGN", "cuisine": "oriental", "name": "Nish Nush", "opening_hours": "Mo-Fr 11:00-23:30; Sa-Su 11:00-01:00", "outdoor_seating": "yes", "phone": "+49 221 42335009", "website": "https://facebook.com/NishNushCGN"}}, {"type": "node", "id": 6138689401, "lat": 50.9328369, "lon": 6.9447794, "tags": {"amenity": "restaurant", "name": "Wolkenburg", "website": "https://wolkenburg.de/de/kulinarik/essen.html"}}, {"type": "node", "id": 6216743127, "lat": 50.9186698, "lon": 6.964349, "tags": {"amenity": "restaurant", "contact:phone": "+49 221 27848949", "contact:website": "http://hdmona.de", "cuisine": "african", "name": "HDMONA", "note": "Eritreisches Restaurant", "opening_hours": "Tu-Th 18:00-22:00;Fr 18:00-24:00;Sa 17:00-24:00; Su 09:00-13:00,18:00-22:00"}}, {"type": "node", "id": 6221257029, "lat": 50.9311752, "lon": 6.9403852, "tags": {"addr:city": "K\u00f6ln", "addr:country": "DE", "addr:housenumber": "23", "addr:postcode": "50674", "addr:street": "Hohenstaufenring", "amenity": "restaurant", "description": "koreanisch", "name": "Bibimbab", "opening_hours": "Mo-Sa 12:00-23:00"}}, {"type": "node", "id": 6371741078, "lat": 50.9192184, "lon": 6.9600037, "tags": {"addr:housenumber": "30", "addr:street": "Bonner Stra\u00dfe", "amenity": "restaurant", "contact:facebook": "https://www.facebook.com/pages/Vina/165480593468897", "cuisine": "asian", "name": "Vina", "toilets:wheelchair": "no", "wheelchair": "yes"}}, {"type": "node", "id": 6373981316, "lat": 50.9344414, "lon": 6.9414444, "tags": {"amenity": "restaurant", "cuisine": "japanese", "name": "Restaurant Appare", "website": "https://www.appare.de/"}}, {"type": "node", "id": 6400260885, "lat": 50.9369048, "lon": 6.9373014, "tags": {"amenity": "restaurant", "name": "Warung Bayu", "opening_hours": "PH,Mo-Su 18:00-23:00"}}, {"type": "node", "id": 6407729258, "lat": 50.9214942, "lon": 6.9548158, "tags": {"amenity": "restaurant", "cuisine": "spanish", "name": "El Allioli", "opening_hours": "Mo-Sa 18:00-24:00"}}, {"type": "node", "id": 6559813985, "lat": 50.9368168, "lon": 6.937337, "tags": {"amenity": "restaurant", "cuisine": "japanese", "name": "Tanoshii", "opening_hours": "Mo-Sa 12:00-14:30, 17:30-23:00; Su 12:00-15:00, 17:00-22:00", "website": "http://www.tanoshii.eu"}}, {"type": "node", "id": 6566148184, "lat": 50.9358521, "lon": 6.9370326, "tags": {"addr:city": "K\u00f6ln", "addr:housenumber": "51", "addr:postcode": "50674", "addr:street": "H\u00e4ndelstra\u00dfe", "amenity": "restaurant", "cuisine": "fusion", "diet:vegan": "yes", "diet:vegetarian": "yes", "email": "info@kunstbruder.de", "name": "Kunstbruder", "opening_hours": "Mo-Th 12:00-22:00; Fr, Sa 12:00-01:00; Su 15:00-22:00", "phone": "+49 221 222 00146", "website": "http://www.kunstbruder-restaurant.de/"}}, {"type": "node", "id": 6715419351, "lat": 50.9226558, "lon": 6.9599211, "tags": {"addr:city": "K\u00f6ln", "addr:housenumber": "18-22", "addr:postcode": "50678", "addr:street": "Im Ferkulum", "amenity": "restaurant", "name": "Maison Blue", "opening_hours": "We-Su 18:30+", "phone": "+49 221 9328996", "website": "http://maisonblue-koeln.de/", "wheelchair": "limited"}}, {"type": "node", "id": 6772145993, "lat": 50.9216357, "lon": 6.9572841, "tags": {"addr:city": "K\u00f6ln", "addr:country": "DE", "addr:housenumber": "23", "addr:postcode": "50678", "addr:street": "Karolingerring", "addr:suburb": "S\u00fcdstadt", "amenity": "restaurant", "contact:phone": "+49 84640373", "contact:website": "http://sweetsushi-suedstadt.de/", "cuisine": "japanese", "name": "Sweet Sushi", "opening_hours": "Mo-Sa 11:30-22:30"}}, {"type": "node", "id": 6817531234, "lat": 50.9363944, "lon": 6.9328483, "tags": {"addr:city": "K\u00f6ln", "addr:housenumber": "59", "addr:postcode": "50674", "addr:street": "Aachener Stra\u00dfe", "amenity": "restaurant", "bar": "yes", "cuisine": "mexican;cocktails", "diet:vegetarian": "yes", "email": "info@barito.eu", "indoor_seating": "yes", "name": "barito", "opening_hours": "Mo-Th 17:00-01:00; Fr,Sa 17:00-02:00; Su 17:00-00:00", "outdoor_seating": "no", "phone": "+49 221 16921865", "website": "https://barito.eu/"}}, {"type": "node", "id": 6867433192, "lat": 50.9230523, "lon": 6.9625117, "tags": {"addr:city": "K\u00f6ln", "addr:housenumber": "39", "addr:postcode": "50678", "addr:street": "Severinswall", "amenity": "restaurant", "cuisine": "mexican", "email": "mongogo.cologne@gmail.com", "name": "Mongogo", "opening_hours": "Th-Sa 18:00+", "phone": "+49 221 30140795", "website": "http://www.mongogo.de/"}}, {"type": "node", "id": 6919663343, "lat": 50.9243391, "lon": 6.9585367, "tags": {"addr:city": "K\u00f6ln", "addr:housenumber": "59", "addr:postcode": "50678", "addr:street": "Severinstra\u00dfe", "amenity": "restaurant", "check_date:opening_hours": "2021-06-17", "contact:facebook": "ruffsburger", "contact:instagram": "ruffsburger", "cuisine": "burger", "name": "Ruff's Burger", "opening_hours": "Mo-Th 17:00-21:00; Fr-Su 12:00-22:00", "payment:cash": "yes", "payment:debit_cards": "yes", "phone": "+49 221 95935759", "reservation": "no", "website": "https://www.ruffsburger.de/", "wheelchair": "limited"}}, {"type": "node", "id": 7040255181, "lat": 50.9249866, "lon": 6.9650242, "tags": {"amenity": "restaurant", "cuisine": "greek", "name": "Ilios", "opening_hours": "Mo-We 12:00-15:00, Tu-Fr 12:00-15:00, 18:30-23:00; Sa 18:00-23:00; Su,PH off", "payment:mastercard": "yes", "payment:visa": "yes", "phone": "+49 221 20421663", "website": "https://www.restaurantilios.de/"}}, {"type": "node", "id": 7191536256, "lat": 50.920943, "lon": 6.9600527, "tags": {"amenity": "restaurant", "cuisine": "pizza", "name": "Pizzeria Piccola"}}, {"type": "node", "id": 7252296388, "lat": 50.9207561, "lon": 6.9573078, "tags": {"addr:housenumber": "14", "addr:street": "Merowingerstra\u00dfe", "amenity": "restaurant", "description": "Greek restaurant. Take-away possible.", "name": "Calypso Grillbar", "opening_hours": "Mo, We-Sa 11:30-22:00; Su 12:00-22:00"}}, {"type": "node", "id": 7271593229, "lat": 50.9215775, "lon": 6.9598103, "tags": {"addr:city": "K\u00f6ln", "addr:housenumber": "16", "addr:postcode": "50678", "addr:street": "Chlodwigplatz", "amenity": "restaurant", "cuisine": "turkish", "name": "Lalezar", "opening_hours": "Mo-Su 08:00-03:00", "phone": "+49 221 60607885", "website": "https://lalezar-turkish-restaurant.business.site/"}}, {"type": "node", "id": 7368800890, "lat": 50.9343656, "lon": 6.9408143, "tags": {"addr:postcode": "50676", "amenity": "restaurant", "name": "Don K\u00f6lle", "website": "http://www.don-koelle.de"}}, {"type": "node", "id": 7528276548, "lat": 50.9204754, "lon": 6.9580996, "tags": {"addr:city": "K\u00f6ln", "addr:housenumber": "30", "addr:postcode": "50677", "addr:street": "Elsa\u00dfstra\u00dfe", "amenity": "restaurant", "cuisine": "mediterranean", "name": "phaedra", "phone": "+49 221 168 266 25", "website": "https://phaedra-restaurant.de/"}}, {"type": "node", "id": 7528318644, "lat": 50.9223086, "lon": 6.9611781, "tags": {"addr:city": "K\u00f6ln", "addr:housenumber": "2", "addr:postcode": "50678", "addr:street": "Alteburger Stra\u00dfe", "amenity": "restaurant", "cuisine": "international", "name": "Bambule's Chilistube", "phone": "+49 221 4235 6050", "website": "https://www.bambuleschili.de"}}, {"type": "node", "id": 7541635749, "lat": 50.9204707, "lon": 6.9557665, "tags": {"addr:city": "K\u00f6ln", "addr:housenumber": "34", "addr:postcode": "50677", "addr:street": "Merowingerstra\u00dfe", "amenity": "restaurant", "cuisine": "italian;pizza", "name": "Trattoria Il Mondo", "opening_hours": "Tu-Th,Sa 17:00-18:00+; PH,Fr,Su 12:00-18:00+", "outdoor_seating": "yes", "phone": "+49 221 31098755", "website": "https://ilmondo.koeln/"}}, {"type": "node", "id": 7798343393, "lat": 50.9308311, "lon": 6.9390754, "tags": {"addr:city": "K\u00f6ln", "addr:country": "DE", "addr:housenumber": "3", "addr:postcode": "50674", "addr:street": "Engelbertstra\u00dfe", "amenity": "restaurant", "cuisine": "vietnamese", "email": "info@namkoeln.de", "name": "Nam", "opening_hours": "Tu-Sa 11:45-15:30,17:30-22:30; Su 12:00-22:00", "outdoor_seating": "yes", "phone": "+49 221-31038012", "website": "https://www.namkoeln.de"}}, {"type": "node", "id": 7801318197, "lat": 50.9345344, "lon": 6.9382434, "tags": {"amenity": "restaurant", "cuisine": "sushi", "name": "Mii Tii Sushi", "opening_hours": "Mo-Th 12:00-15:00, 17:00-22:00; Fr-Sa 12:00-15:00, 17:00-23:00; Su off", "phone": "+49 221 16923902", "takeaway": "yes", "wheelchair": "yes"}}, {"type": "node", "id": 8069331806, "lat": 50.93295, "lon": 6.9402873, "tags": {"addr:city": "K\u00f6ln", "addr:country": "DE", "addr:housenumber": "58", "addr:postcode": "50674", "addr:street": "Hohenstaufenring", "addr:suburb": "Innenstadt", "amenity": "restaurant", "contact:facebook": "takumikoeln", "contact:phone": "+49 221 95628704", "contact:website": "https://takumi.koeln/", "cuisine": "japanese;ramen", "delivery": "yes", "name": "Takumi", "opening_hours": "Mo-Fr 12:00-21:30; Sa-Su 13:00-22:30", "source": "https://www.koelner.de/2020/10/26/takumi-2/", "takeaway": "yes"}}, {"type": "node", "id": 8098074549, "lat": 50.9312352, "lon": 6.9439334, "tags": {"amenity": "restaurant", "name": "Frau Maa\u00df & Herr Schlie", "website": "https://www.maass-schlie.de/"}}, {"type": "node", "id": 8104229528, "lat": 50.9303149, "lon": 6.9427307, "tags": {"addr:city": "K\u00f6ln", "addr:country": "DE", "addr:housenumber": "98", "addr:postcode": "50676", "addr:street": "Weyerstra\u00dfe", "amenity": "restaurant", "description": "einfach. besonders. lecker.", "name": "Bouschong", "opening_hours": "Mo-Fr 12:00-17:00", "phone": "+49 221 16899037", "website": "https://www.bouschong.de/"}}, {"type": "node", "id": 8143087018, "lat": 50.9307436, "lon": 6.9474369, "tags": {"amenity": "restaurant", "cuisine": "italian", "name": "Sorrentino", "opening_hours": "Mo,We-Fr 11:00-23:00; Sa 13:00-23:00; PH,Su 13:00-22:00"}}, {"type": "node", "id": 8143715869, "lat": 50.9332959, "lon": 6.9453928, "tags": {"amenity": "restaurant", "cuisine": "tapas", "name": "Jonny Turista"}}, {"type": "node", "id": 8182655788, "lat": 50.9242799, "lon": 6.9585434, "tags": {"addr:city": "K\u00f6ln", "addr:country": "DE", "addr:housenumber": "57b", "addr:postcode": "50678", "addr:street": "Severinstra\u00dfe", "amenity": "restaurant", "contact:email": "info@allapappa.de", "contact:facebook": "https://de-de.facebook.com/allapappa", "contact:instagram": "https://www.instagram.com/alla_pappa", "contact:phone": "+49 221 16856588", "contact:website": "https://www.allapappa.de/", "cuisine": "italian", "delivery": "yes", "name": "alla Pappa", "opening_hours": "Mo-Th 12:00-21:00; Fr-Su 12:00-22:00", "operator": "Robert Germer;Marco Pasini", "takeaway": "yes"}}, {"type": "node", "id": 8483859617, "lat": 50.9363531, "lon": 6.9364307, "tags": {"addr:city": "K\u00f6ln", "addr:country": "DE", "addr:housenumber": "11", "addr:postcode": "50674", "addr:street": "Aachener Stra\u00dfe", "amenity": "restaurant", "cuisine": "asian", "name": "Tibet Momo K\u00f6ln", "opening_hours": "Su, Tu-Fr 16:00-22:30; Sa 13:00-22:30", "phone": "+4922134662759", "website": "http://tibet-momo-koeln.metro.rest"}}, {"type": "node", "id": 8595790566, "lat": 50.9243535, "lon": 6.9443418, "tags": {"addr:city": "K\u00f6ln", "addr:housenumber": "2", "addr:postcode": "50677", "addr:street": "Eifelplatz", "amenity": "restaurant", "cuisine": "italian", "diet:gluten_free": "yes", "email": "info@lateca-koeln.de", "name": "La Teca", "opening_hours": "Mar Su[-1]-Oct Su[-1] -1 day: Mo-Su 10:00-23:00; Oct Su[-1]-Mar Su[-1] -1 day: Mo off; Tu-Su 12:30-15:00,17:30-23:00", "phone": "+49 221 313485", "takeaway": "yes", "website": "http://www.lateca-koeln.de"}}, {"type": "node", "id": 8689590940, "lat": 50.9215709, "lon": 6.9612822, "tags": {"addr:city": "K\u00f6ln", "addr:housenumber": "15", "addr:postcode": "50678", "addr:street": "Ubierring", "amenity": "restaurant", "cuisine": "asian;fusion", "name": "Asian Fusion Kitchen Yun K\u00f6ln", "opening_hours": "Mo-Su 12:00-22:00", "phone": "+4922195625282", "website": "https://www.yunfusion.com/"}}, {"type": "node", "id": 8791590474, "lat": 50.9283491, "lon": 6.9575995}, {"type": "node", "id": 8911289600, "lat": 50.9332994, "lon": 6.9343017, "tags": {"addr:housenumber": "88", "addr:street": "Roonstra\u00dfe", "amenity": "restaurant", "description": "Mexican Restaurant", "diet:vegan": "yes", "diet:vegetarian": "yes", "name": "Casita Mexicana", "opening_hours": "Mo-Th 12:00-23:00; Fr 12:00-00:00; Sa 13:00-00:00; Su 13:00-23:00", "phone": "+49 221 78991856", "website": "https://casitamexicana.de/", "wheelchair": "limited"}}, {"type": "node", "id": 9080566717, "lat": 50.9299748, "lon": 6.9391268, "tags": {"addr:city": "K\u00f6ln", "addr:country": "DE", "addr:housenumber": "17", "addr:postcode": "50674", "addr:street": "Z\u00fclpicher Platz", "amenity": "restaurant", "cuisine": "grill;turkish", "name": "Kebap"}}, {"type": "node", "id": 9601001086, "lat": 50.9303808, "lon": 6.9413461, "tags": {"addr:city": "K\u00f6ln", "addr:country": "DE", "addr:housenumber": "16-18", "addr:postcode": "50674", "addr:street": "Hohenstaufenring", "amenity": "restaurant", "cuisine": "salad", "name": "Salatfabrik", "opening_hours": "Mo-Fr 11:30-19:00; PH,Sa,Su off"}}, {"type": "node", "id": 9721001908, "lat": 50.9300428, "lon": 6.9414704, "tags": {"amenity": "restaurant", "cuisine": "tapas", "name": "La Tortue", "opening_hours": "Tu-Fr 16:00-23:00, Sa-Su 15:00-23:00"}}, {"type": "node", "id": 9772981976, "lat": 50.9279656, "lon": 6.9438852, "tags": {"addr:city": "K\u00f6ln", "addr:housenumber": "34", "addr:postcode": "50677", "addr:street": "Salierring", "amenity": "restaurant", "cuisine": "tapas;mediterranean", "name": "Die MezeBar", "opening_hours": "Tu-Su 17:00-23:00", "phone": "+49 176 82389162", "website": "https://die-mezebar.eatbu.com", "website:menu": "https://cdn.website.dish.co/media/50/eb/4385164/Speisekarte.pdf"}}, {"type": "node", "id": 9952853297, "lat": 50.92182, "lon": 6.956781, "tags": {"addr:city": "K\u00f6ln", "addr:housenumber": "29", "addr:postcode": "50678", "addr:street": "Karolingerring", "amenity": "restaurant", "cuisine": "italian", "name": "Peppe Cucina Italiana", "opening_hours": "Mo-Fr 12:00-14:30,17:00-21:00; Sa 17:30-22:30", "phone": "+49 221 801 89 42", "website": "https://www.peppe-cucinaitaliana.de/", "website:menu": "https://www.peppe-cucinaitaliana.de/aktuelle-speisekarte"}}, {"type": "node", "id": 9997892427, "lat": 50.9194019, "lon": 6.9611146, "tags": {"addr:city": "K\u00f6ln", "addr:country": "DE", "addr:housenumber": "9", "addr:postcode": "50678", "addr:street": "Darmst\u00e4dter Stra\u00dfe", "addr:suburb": "S\u00fcdstadt", "amenity": "restaurant", "contact:facebook": "https://www.facebook.com/pottkind.koeln", "cuisine": "french", "delivery": "no", "description": "Keine Speisekarte (Carte Blanche). F\u00fcnf-G\u00e4nge-Men\u00fc. Es gibt das, was die K\u00fcche vorsetzt.", "diet:gluten_free": "yes", "diet:vegan": "no", "diet:vegetarian": "yes", "email": "info@restaurant-pottkind.de", "internet_access": "no", "name": "Pottkind", "opening_hours": "Tu-Sa 18:00-00:00", "opening_hours:kitchen": "Tu-Sa 18:00-00:00", "operator": "Lukas Winkelmann & Enrico Sablotny", "outdoor_seating": "yes", "phone": "+49 221 423 180 30", "reservation": "yes", "smoking": "outside", "stars": "1", "takeaway": "no", "website": "https://www.restaurant-pottkind.de/", "wheelchair": "limited"}}, {"type": "node", "id": 10111378527, "lat": 50.9358258, "lon": 6.9401309, "tags": {"addr:city": "K\u00f6ln", "addr:housenumber": "3", "addr:street": "Rudolfplatz", "amenity": "restaurant", "cuisine": "salad", "indoor_seating": "yes", "name": "Stadtsalat", "opening_hours": "Mo-Fr 11:30-20:15; Sa,Su 12:30-20:15", "outdoor_seating": "no", "website": "https://stadtsalat.de/cologne"}}, {"type": "node", "id": 10168279110, "lat": 50.9361164, "lon": 6.9393088, "tags": {"amenity": "restaurant", "brand": "BLOCK HOUSE", "brand:wikidata": "Q320430", "cuisine": "steak_house", "indoor_seating": "yes", "name": "BLOCK HOUSE", "opening_hours": "Mo-Th,Su 12:00-22:00; Fr, Sa 12:00-23:00", "outdoor_seating": "no", "phone": "+49 221 56088200", "reservation": "yes", "website": "https://www.block-house.de/restaurants/koeln/koeln"}}, {"type": "node", "id": 10310714610, "lat": 50.9366098, "lon": 6.9366429, "tags": {"amenity": "restaurant", "name": "Balthasars"}}, {"type": "node", "id": 10587085456, "lat": 50.9291286, "lon": 6.9409506, "tags": {"addr:housenumber": "7", "addr:street": "Barbarossaplatz", "amenity": "restaurant", "check_date": "2023-01-27", "cuisine": "turkish;kebab", "diet:halal": "yes", "diet:vegan": "yes", "name": "Kebabci", "opening_hours": "Mo-Th 09:00-24:00; Fr-Sa 09:00-04:00; Su 11:00-24:00", "payment:mastercard": "yes", "payment:visa": "yes", "source": "survey"}}, {"type": "way", "id": 65254775, "nodes": [2560124290, 2560124285, 2560124292, 2560124280, 2560124275, 2560124278, 2560124288, 2560124306, 2560124304, 2560124290], "tags": {"addr:city": "K\u00f6ln", "addr:country": "DE", "addr:housenumber": "2", "addr:postcode": "50677", "addr:street": "Eifelplatz", "amenity": "restaurant", "building": "yes", "building:levels": "5", "building:use": "residential;industrial", "name": "Teca di Biase", "toilets:wheelchair": "yes", "wheelchair": "no"}}, {"type": "way", "id": 218523811, "nodes": [2277589008, 2277589021, 2277589020, 2277589009, 2464039839, 2277589008], "tags": {"addr:city": "K\u00f6ln", "addr:country": "DE", "addr:housenumber": "46", "addr:postcode": "50674", "addr:street": "Br\u00fcsseler Stra\u00dfe", "amenity": "restaurant", "building": "yes", "building:use": "residential;industrial", "cuisine": "sushi", "email": "info@fisch-hof.de", "name": "Fisch Hof", "opening_hours": "Mo-Sa 11:00-23:00; Su 14:30-22:30", "phone": "+49-221-5103433", "source": "Survey", "website": "https://www.fisch-hof.de/"}}, {"type": "way", "id": 238936383, "nodes": [2467465129, 2467465155, 1093872767, 2467465124, 2467465110, 2467465129], "tags": {"addr:city": "K\u00f6ln", "addr:country": "DE", "addr:housenumber": "8", "addr:postcode": "50674", "addr:street": "Barbarossaplatz", "amenity": "restaurant", "building": "yes", "building:use": "residential;industrial", "cuisine": "tapas", "name": "La barra", "opening_hours": "Su off; Mo-Th 17:00-24:00; Fr-Sa 17:00-01:00", "smoking": "no", "takeaway": "yes", "toilets:wheelchair": "no", "wheelchair": "limited"}}, {"type": "way", "id": 252810779, "nodes": [2588348527, 8791590474, 2588348480, 2588348489, 2588348506, 2588348504, 2588348545, 2588348527], "tags": {"addr:city": "K\u00f6ln", "addr:country": "DE", "addr:housenumber": "162", "addr:postcode": "50678", "addr:street": "Severinstra\u00dfe", "amenity": "restaurant", "building": "yes", "building:levels": "2", "building:use": "residential;industrial", "diet:vegetarian": "yes", "name": "Downtowner - Korean Urban", "roof:shape": "flat"}}, {"type": "way", "id": 252813159, "nodes": [2588368878, 2588368874, 2588368864, 2588368865, 2588368861, 2588368860, 2588368856, 2588368857, 2588368872, 2588368870, 2588368880, 2588368878], "tags": {"addr:city": "K\u00f6ln", "addr:country": "DE", "addr:housenumber": "6", "addr:postcode": "50678", "addr:street": "Im Dau", "amenity": "restaurant", "building": "yes", "building:levels": "4", "building:use": "residential;industrial", "cuisine": "portuguese", "name": "Alfama", "opening_hours": "Tu-Sa 18:00-00:30, Su,PH 12:00-15:00,18:00-00:30", "phone": "+49 221 31097100", "roof:orientation": "across", "roof:shape": "gabled", "website": "http://alfama-colonia.de/"}}]}