{"version": 0.6, "generator": "Overpass API 0.7.60.2 e4cf9f7a", "osm3s": {"timestamp_osm_base": "2023-04-29T12:57:54Z", "copyright": "The data included in this document is from www.openstreetmap.org. The data is made available under ODbL."}, "elements": [{"type": "node", "id": 286421551, "lat": 50.9216021, "lon": 6.9195488, "tags": {"addr:city": "K\u00f6ln", "addr:housenumber": "312", "addr:postcode": "50937", "addr:street": "Z\u00fclpicher Stra\u00dfe", "amenity": "restaurant", "cuisine": "french", "name": "Bagatelle im alten Steinb\u00fcchel", "opening_hours": "t\u00e4glich ab 17 Uhr, sonn- und feiertags ab 12 Uhr"}}, {"type": "node", "id": 347724020, "lat": 50.9175942, "lon": 6.924062, "tags": {"addr:housenumber": "270", "addr:postcode": "50937", "addr:street": "Berrenrather Stra\u00dfe", "amenity": "restaurant", "cuisine": "thai", "name": "Thai Gourmet"}}, {"type": "node", "id": 347724034, "lat": 50.9177776, "lon": 6.9242958, "tags": {"addr:housenumber": "266", "addr:postcode": "50939", "addr:street": "Berrenrather Stra\u00dfe", "amenity": "restaurant", "cuisine": "japanese", "name": "Sakura", "opening_hours": "Mo-Su 11:30-15:00,17:30-23:00", "smoking": "separated", "wheelchair": "limited"}}, {"type": "node", "id": 358813498, "lat": 50.9159868, "lon": 6.92288, "tags": {"addr:city": "K\u00f6ln", "addr:housenumber": "349", "addr:postcode": "50937", "addr:street": "Berrenrather Stra\u00dfe", "amenity": "restaurant", "name": "I Fratelli", "opening_hours": "Mo-Su 12:00-23:00", "takeaway": "yes"}}, {"type": "node", "id": 358813500, "lat": 50.9156479, "lon": 6.9225705, "tags": {"addr:postcode": "50937", "amenity": "restaurant", "cuisine": "vietnamese", "name": "Mekong Restaurant", "opening_hours": "Su,PH 13:00-22:30; Tu-Fr 11:30-15:00,17:30-22:30; Sa 14:00-22:30", "phone": "+49 221 447750", "website": "http://www.mekong-restaurant.de", "wheelchair": "yes"}}, {"type": "node", "id": 358814512, "lat": 50.9145863, "lon": 6.9215423, "tags": {"addr:housenumber": "37", "addr:street": "Manderscheider Stra\u00dfe", "amenity": "restaurant", "name": "Tappo", "opening_hours": "Tu-Su 18:00-24:00", "wheelchair": "no"}}, {"type": "node", "id": 359207067, "lat": 50.9198649, "lon": 6.926915, "tags": {"amenity": "restaurant", "cuisine": "pizza", "name": "Pizzeria da Luca \"80 Fame\"", "opening_hours": "Mo-Fr 15:00-22:30; Sa,Su 15:00-23:00", "phone": "+49 22116999445", "wheelchair": "limited"}}, {"type": "node", "id": 359207070, "lat": 50.9189241, "lon": 6.9262394, "tags": {"addr:city": "K\u00f6ln", "addr:country": "DE", "addr:housenumber": "197", "addr:postcode": "50937", "addr:street": "Berrenrather Stra\u00dfe", "amenity": "restaurant", "cuisine": "italian", "name": "L' Angelo d' Oro", "opening_hours": "Mo-Fr 11:30-15:00,17:30-23:00; Sa 17:30-23:00; Su 17:30-23:00", "wheelchair": "no"}}, {"type": "node", "id": 408530308, "lat": 50.9128991, "lon": 6.9283773, "tags": {"addr:city": "K\u00f6ln", "addr:housenumber": "41", "addr:postcode": "50939", "addr:street": "Petersbergstra\u00dfe", "amenity": "restaurant", "name": "Petersberger Hof", "opening_hours": "Mo-Fr 11:30-01:00, Sa-Su 10:00-01:00", "phone": "+49 221 443600", "smoking": "no", "website": "https://www.petersbergerhof.de", "wheelchair": "limited"}}, {"type": "node", "id": 410999050, "lat": 50.9200973, "lon": 6.9200756, "tags": {"addr:city": "K\u00f6ln", "addr:housenumber": "170", "addr:postcode": "50937", "addr:street": "S\u00fclzburgstra\u00dfe", "amenity": "restaurant", "cuisine": "italian", "name": "Antonino", "opening_hours": "PH,Mo-Su 17:00-21:00", "outdoor_seating": "yes", "phone": "+49221 16835529", "website": "https://antonino.chayns.net/", "wheelchair": "no"}}, {"type": "node", "id": 410999052, "lat": 50.919448, "lon": 6.9195242, "tags": {"amenity": "restaurant", "breakfast": "yes", "cafe": "yes", "cuisine": "international", "name": "Balthasar", "opening_hours": "Mo-Sa 09:00-01:00; Su 10:00-24:00", "outdoor_seating": "yes", "wheelchair": "limited"}}, {"type": "node", "id": 432962984, "lat": 50.915224, "lon": 6.9273256, "tags": {"amenity": "restaurant", "indoor_seating": "yes", "name": "Eckstein", "opening_hours": "Mo-Sa 10:00-01:00, Su 11:00-01:00, PH 10:00-01:00", "outdoor_seating": "yes", "smoking": "no", "wheelchair": "limited"}}, {"type": "node", "id": 434303435, "lat": 50.9148278, "lon": 6.9303557, "tags": {"amenity": "restaurant", "name": "Filippo Nisi"}}, {"type": "node", "id": 434303436, "lat": 50.9149049, "lon": 6.9292331, "tags": {"amenity": "restaurant", "name": "Trattoria Riviera"}}, {"type": "node", "id": 434303437, "lat": 50.9150161, "lon": 6.9289301, "tags": {"amenity": "restaurant", "cuisine": "french", "cuisine:crossover": "french;indian", "name": "Der vierte K\u00f6nig", "wheelchair": "no"}}, {"type": "node", "id": 440273998, "lat": 50.9123475, "lon": 6.9243027, "tags": {"addr:city": "K\u00f6ln", "addr:country": "DE", "addr:housenumber": "319a", "addr:postcode": "50939", "addr:street": "Luxemburger Stra\u00dfe", "amenity": "restaurant", "contact:fax": "+49 221 4202170", "contact:phone": "+49 221 4206949", "contact:website": "http://www.gaststaette-mehring.de/", "name": "Mehring", "note": "de:zu bestimmten Uhrzeiten auch ein \"unsicht-Bar\"-Restaurant (Details siehe http://www.unsicht-bar.de/)", "opening_hours": "Mo,Tu off; We-Su 18:00+", "operator": "Boris Swaczyna", "wheelchair": "no"}}, {"type": "node", "id": 530585439, "lat": 50.9222334, "lon": 6.9283015, "tags": {"addr:city": "K\u00f6ln", "addr:country": "DE", "addr:housenumber": "15", "addr:postcode": "50937", "addr:street": "Weyertal", "amenity": "restaurant", "description:de": "Restaurant im Stile des Concept Stores (Themenkaufladen). Beschr\u00e4nkte Auswahl an Speisen. Fokus auf Snacks und Getr\u00e4nke.", "name": "c\u00e9ca", "opening_hours": "Tu-Sa 17:00-23:00; Mo,Su,PH off", "website": "https://www.ceca-cologne.de/", "wheelchair": "no"}}, {"type": "node", "id": 976649075, "lat": 50.9238645, "lon": 6.9269172, "tags": {"addr:city": "K\u00f6ln", "addr:country": "DE", "addr:housenumber": "47", "addr:postcode": "50937", "addr:street": "Weyertal", "amenity": "restaurant", "name": "Fladens"}}, {"type": "node", "id": 976649099, "lat": 50.9231582, "lon": 6.9238944, "tags": {"addr:city": "K\u00f6ln", "addr:country": "DE", "addr:housenumber": "268", "addr:postcode": "50937", "addr:street": "Z\u00fclpicher Stra\u00dfe", "amenity": "restaurant", "name": "Brasserie Marie"}}, {"type": "node", "id": 985923537, "lat": 50.9109971, "lon": 6.9229315, "tags": {"addr:city": "K\u00f6ln", "addr:country": "DE", "addr:housenumber": "339", "addr:postcode": "50939", "addr:street": "Luxemburger Stra\u00dfe", "amenity": "restaurant", "name": "Gastst\u00e4tte D\u00fcrr", "toilets:wheelchair": "no", "wheelchair": "yes"}}, {"type": "node", "id": 1603790563, "lat": 50.9206007, "lon": 6.9282106, "tags": {"amenity": "restaurant", "cuisine": "japanese", "name": "SushiTeria"}}, {"type": "node", "id": 1655560791, "lat": 50.9155043, "lon": 6.92691, "tags": {"addr:city": "K\u00f6ln", "addr:country": "DE", "addr:housenumber": "256", "addr:postcode": "50937", "addr:street": "Luxemburger Stra\u00dfe", "amenity": "restaurant", "cuisine": "austrian", "name": "Gasthaus Scherz", "opening_hours": "Sa 12:00-01:00, Fr 17:00-01:00, Mo-Th 17:00-24:00, Su 12:00-24:00", "phone": "+4922116929440", "smoking": "no", "website": "http://www.scherzrestaurant.de", "website:menu": "http://www.scherzrestaurant.de/wp-content/uploads/2022/03/Abendkarte-HP-18.3.pdf"}}, {"type": "node", "id": 1684088138, "lat": 50.9204215, "lon": 6.9332025, "tags": {"amenity": "restaurant", "name": "Antep Sultan Sofras\u0131", "opening_hours": "PH,Mo-Su 11:00-23:00", "source": "knowledge"}}, {"type": "node", "id": 2346713213, "lat": 50.9194918, "lon": 6.923579, "tags": {"addr:city": "K\u00f6ln", "addr:housenumber": "39", "addr:postcode": "50937", "addr:street": "Marsiliusstra\u00dfe", "amenity": "restaurant", "cuisine": "spanish;tapas", "name": "Pablo", "opening_hours": "Fr-Sa 18:00-01:00, Mo-Th 18:00-24:00, Su 18:00-24:00", "outdoor_seating": "no", "wheelchair": "no"}}, {"type": "node", "id": 2542014938, "lat": 50.916685, "lon": 6.8993057}, {"type": "node", "id": 2542014956, "lat": 50.9167541, "lon": 6.8992087}, {"type": "node", "id": 2542014960, "lat": 50.9167655, "lon": 6.8992292}, {"type": "node", "id": 2542014967, "lat": 50.916806, "lon": 6.8995227}, {"type": "node", "id": 2542014969, "lat": 50.9168148, "lon": 6.8995104}, {"type": "node", "id": 2542014972, "lat": 50.9168498, "lon": 6.8993782}, {"type": "node", "id": 2542014982, "lat": 50.9168714, "lon": 6.8992097}, {"type": "node", "id": 2542014984, "lat": 50.9168728, "lon": 6.8990787}, {"type": "node", "id": 2542014987, "lat": 50.9168887, "lon": 6.8996429}, {"type": "node", "id": 2542014996, "lat": 50.9169131, "lon": 6.8991511}, {"type": "node", "id": 2542014998, "lat": 50.9169147, "lon": 6.8992872}, {"type": "node", "id": 2542015006, "lat": 50.9169497, "lon": 6.8995573}, {"type": "node", "id": 2619634851, "lat": 50.907465, "lon": 6.9049067, "tags": {"amenity": "restaurant", "breakfast": "Sa;Su", "name": "Gei\u00dfbockheim, Clubrestaurant 1. FC K\u00f6ln", "opening_hours": "Mo-Fr 11:30-21:00; Sa 11:00+; Su 10:00+", "outdoor_seating": "yes", "toilets:wheelchair": "yes", "website": "https://www.geissbockheim-fckoeln.de/", "wheelchair": "yes"}}, {"type": "node", "id": 2638094510, "lat": 50.9197197, "lon": 6.9099238, "tags": {"addr:city": "K\u00f6ln", "addr:housenumber": "380", "addr:postcode": "50935", "addr:street": "Z\u00fclpicher Stra\u00dfe", "amenity": "restaurant", "capacity": "20", "check_date": "2022-11-12", "cuisine": "pizza", "name": "Osteria Pane e Vino", "opening_hours": "Mo off; Tu-Su 12:00-14:45,18:00-21:00", "phone": "+49 221 94388111"}}, {"type": "node", "id": 2639987668, "lat": 50.9229976, "lon": 6.9244376}, {"type": "node", "id": 2639987681, "lat": 50.9230276, "lon": 6.9244918}, {"type": "node", "id": 2639987684, "lat": 50.92303, "lon": 6.9244958}, {"type": "node", "id": 2639987693, "lat": 50.9230618, "lon": 6.9244451}, {"type": "node", "id": 2639987695, "lat": 50.9230678, "lon": 6.924335}, {"type": "node", "id": 2639987697, "lat": 50.9230698, "lon": 6.9244577}, {"type": "node", "id": 2639987700, "lat": 50.9230794, "lon": 6.9244517}, {"type": "node", "id": 2639987714, "lat": 50.9231031, "lon": 6.924524}, {"type": "node", "id": 2639987720, "lat": 50.9231123, "lon": 6.9243467}, {"type": "node", "id": 2639987738, "lat": 50.923155, "lon": 6.9244814}, {"type": "node", "id": 2647250250, "lat": 50.9202462, "lon": 6.9327217}, {"type": "node", "id": 2647250262, "lat": 50.9203058, "lon": 6.932578}, {"type": "node", "id": 2647250268, "lat": 50.9203458, "lon": 6.9328236}, {"type": "node", "id": 2647250276, "lat": 50.9204083, "lon": 6.9326835}, {"type": "node", "id": 2658111488, "lat": 50.9210278, "lon": 6.9354133}, {"type": "node", "id": 2658111497, "lat": 50.9210423, "lon": 6.9353636}, {"type": "node", "id": 2658111512, "lat": 50.9210564, "lon": 6.9353164}, {"type": "node", "id": 2658111517, "lat": 50.9210601, "lon": 6.9353327}, {"type": "node", "id": 2658111527, "lat": 50.9210639, "lon": 6.9352906}, {"type": "node", "id": 2658111529, "lat": 50.9210647, "lon": 6.9353508}, {"type": "node", "id": 2658111536, "lat": 50.9210742, "lon": 6.9352845}, {"type": "node", "id": 2658111537, "lat": 50.921075, "lon": 6.9353583}, {"type": "node", "id": 2658111541, "lat": 50.9210774, "lon": 6.935243}, {"type": "node", "id": 2658111547, "lat": 50.9210785, "lon": 6.9353461}, {"type": "node", "id": 2658111553, "lat": 50.9210857, "lon": 6.9352779}, {"type": "node", "id": 2658111559, "lat": 50.9210923, "lon": 6.9352978}, {"type": "node", "id": 2658111568, "lat": 50.9210959, "lon": 6.9352854}, {"type": "node", "id": 2658111580, "lat": 50.9211109, "lon": 6.9357687}, {"type": "node", "id": 2658111586, "lat": 50.9211295, "lon": 6.9358872}, {"type": "node", "id": 2658111589, "lat": 50.921137, "lon": 6.9350386}, {"type": "node", "id": 2658111592, "lat": 50.9211377, "lon": 6.9359224}, {"type": "node", "id": 2658111599, "lat": 50.9211431, "lon": 6.9358404}, {"type": "node", "id": 2658111608, "lat": 50.9211506, "lon": 6.935421}, {"type": "node", "id": 2658111614, "lat": 50.9211555, "lon": 6.9358494}, {"type": "node", "id": 2658111617, "lat": 50.9211592, "lon": 6.9350256}, {"type": "node", "id": 2658111621, "lat": 50.9211672, "lon": 6.9358091}, {"type": "node", "id": 2658111641, "lat": 50.9211839, "lon": 6.9350646}, {"type": "node", "id": 2658111646, "lat": 50.9211889, "lon": 6.9350472}, {"type": "node", "id": 2658111652, "lat": 50.9211974, "lon": 6.9350744}, {"type": "node", "id": 2658111655, "lat": 50.9212011, "lon": 6.9356371}, {"type": "node", "id": 2658111674, "lat": 50.921207, "lon": 6.9350414}, {"type": "node", "id": 2658111680, "lat": 50.9212367, "lon": 6.9350629}, {"type": "node", "id": 2658111690, "lat": 50.9212449, "lon": 6.9350978}, {"type": "node", "id": 2658111741, "lat": 50.9213554, "lon": 6.9360807}, {"type": "node", "id": 2658111751, "lat": 50.9213775, "lon": 6.9360677}, {"type": "node", "id": 2658111754, "lat": 50.9213794, "lon": 6.9360116}, {"type": "node", "id": 2658111760, "lat": 50.9213911, "lon": 6.9359715}, {"type": "node", "id": 2658111764, "lat": 50.9213913, "lon": 6.9360204}, {"type": "node", "id": 2658111788, "lat": 50.9214466, "lon": 6.9360125}, {"type": "node", "id": 2658111794, "lat": 50.9214511, "lon": 6.9358188}, {"type": "node", "id": 2658111838, "lat": 50.9216485, "lon": 6.9357035}, {"type": "node", "id": 2658111845, "lat": 50.921666, "lon": 6.9356435}, {"type": "node", "id": 2658111851, "lat": 50.9216882, "lon": 6.9356304}, {"type": "node", "id": 2658111862, "lat": 50.9217126, "lon": 6.9356482}, {"type": "node", "id": 2658111864, "lat": 50.9217209, "lon": 6.9356195}, {"type": "node", "id": 2658111870, "lat": 50.9217272, "lon": 6.9356221}, {"type": "node", "id": 2658111874, "lat": 50.9217321, "lon": 6.9358454}, {"type": "node", "id": 2658111877, "lat": 50.9217327, "lon": 6.9357377}, {"type": "node", "id": 2658111881, "lat": 50.9217348, "lon": 6.9355958}, {"type": "node", "id": 2658111883, "lat": 50.9217367, "lon": 6.9357242}, {"type": "node", "id": 2658111885, "lat": 50.9217384, "lon": 6.935667}, {"type": "node", "id": 2658111890, "lat": 50.921743, "lon": 6.9357452}, {"type": "node", "id": 2658111894, "lat": 50.9217511, "lon": 6.93578}, {"type": "node", "id": 2658111896, "lat": 50.9217544, "lon": 6.9357371}, {"type": "node", "id": 2658111898, "lat": 50.9217548, "lon": 6.9356105}, {"type": "node", "id": 2658111904, "lat": 50.9217648, "lon": 6.9357313}, {"type": "node", "id": 2658111911, "lat": 50.9217687, "lon": 6.9356892}, {"type": "node", "id": 2658111913, "lat": 50.9217724, "lon": 6.9357054}, {"type": "node", "id": 2704008402, "lat": 50.9218884, "lon": 6.9323935, "tags": {"addr:city": "K\u00f6ln", "addr:housenumber": "124-136", "addr:postcode": "50939", "addr:street": "Luxemburger Stra\u00dfe", "amenity": "restaurant", "cuisine": "asian", "name": "Lecker Wok - Asia Imbiss", "opening_hours": "11:30-23:00"}}, {"type": "node", "id": 2918983355, "lat": 50.9237787, "lon": 6.9274317, "tags": {"addr:city": "K\u00f6ln", "addr:housenumber": "38", "addr:street": "Weyertal", "amenity": "restaurant", "cuisine": "mexican", "name": "Cantina Mexicana Laspediras", "opening_hours": "Mo-Su 18:00-00:00", "smoking": "outside"}}, {"type": "node", "id": 3234878815, "lat": 50.9144718, "lon": 6.9303403, "tags": {"amenity": "restaurant", "cuisine": "regional", "name": "K\u00f6lsch Kultur", "opening_hours": "Mo-Th 17:00-01:00, Fr-Sa 17:00-02:00, Su 11:30-24:00", "toilets:wheelchair": "no", "website": "https://koelsch-kultur.koeln/"}}, {"type": "node", "id": 3376431360, "lat": 50.921497, "lon": 6.9329866, "tags": {"amenity": "restaurant", "cuisine": "pizza", "name": "Pasta"}}, {"type": "node", "id": 3879758248, "lat": 50.9179761, "lon": 6.9239473, "tags": {"addr:housenumber": "91", "addr:street": "S\u00fclzburgstra\u00dfe", "amenity": "restaurant", "description": "Vietnamesisch", "name": "Ha-Long-Bucht", "opening_hours": "Sa-Su 12:30-23:00; Mo-Fr 13:00-23:00", "phone": "+492212978410"}}, {"type": "node", "id": 4396248664, "lat": 50.92226, "lon": 6.9273678, "tags": {"addr:housenumber": "1", "addr:postcode": "50937", "addr:street": "De-Noel-Platz", "amenity": "restaurant", "name": "Wundert\u00fcte", "opening_hours": "Mo-Th 18:00-02:00, Fr,Sa 18:00-03:00"}}, {"type": "node", "id": 4396248728, "lat": 50.9203873, "lon": 6.9245375, "tags": {"amenity": "restaurant", "cuisine": "german", "name": "Knollendorf", "opening_hours": "Mo-Sa 17:00-21:00+"}}, {"type": "node", "id": 4544428034, "lat": 50.9224016, "lon": 6.9350845, "tags": {"amenity": "restaurant", "cuisine": "persian", "name": "Hafez Sofrekhane", "opening_hours": "Mo,We,Th 12:00-23:00; Fr,Sa 12:00-01:00, Su 14:00-23:00", "phone": "+49 221 320 16 980", "website": "http://hafez-sofrekhane-koeln.de/"}}, {"type": "node", "id": 4691929089, "lat": 50.9134252, "lon": 6.932933, "tags": {"amenity": "restaurant", "cuisine": "italian", "name": "Corleone - Steinofen Pizza", "opening_hours": "Mo-Fr 16:00-22:15; PH,Sa,Su 11:30-22:15", "outdoor_seating": "yes", "phone": "+49 221 340 9360", "website": "https://www.corleone-steinofenpizza.com/"}}, {"type": "node", "id": 4691929091, "lat": 50.9141506, "lon": 6.9311923, "tags": {"amenity": "restaurant", "name": "ABS"}}, {"type": "node", "id": 4772495935, "lat": 50.9163971, "lon": 6.9228805, "tags": {"addr:city": "K\u00f6ln", "addr:housenumber": "330", "addr:postcode": "50937", "addr:street": "Berrenrather Stra\u00dfe", "amenity": "restaurant", "cuisine": "regional;swabian", "name": "Berrenrather", "note": "Fantreff des VFB Stuttgart", "opening_hours": "Mo-Fr 11:00-01:00, Sa,Su 10:00-24:00+", "outdoor_seating": "yes", "takeaway": "no", "website": "https://www.berrenrather.de"}}, {"type": "node", "id": 5287328338, "lat": 50.9161263, "lon": 6.9275829, "tags": {"addr:city": "K\u00f6ln", "addr:housenumber": "246", "addr:postcode": "50937", "addr:street": "Luxemburger Stra\u00dfe", "amenity": "restaurant", "cuisine": "arabic", "delivery": "no", "name": "El Habab", "opening_hours": "Mo-We 11:00-23:00; Th-Fr 11:00-24:00; Sa 11:00-22:00; Su off", "outdoor_seating": "no", "takeaway": "yes"}}, {"type": "node", "id": 5294218004, "lat": 50.9209311, "lon": 6.9180467, "tags": {"amenity": "restaurant", "cuisine": "italian", "name": "Fellini", "opening_hours": "Mo-Su 12:00-15:00, 18:00-23:00; Dec 24-25 off", "phone": "+49 221 441900", "website": "http://www.felliniristorante.de/"}}, {"type": "node", "id": 6499513660, "lat": 50.9190911, "lon": 6.9260163, "tags": {"addr:city": "K\u00f6ln", "addr:housenumber": "220", "addr:postcode": "50939", "addr:street": "Berrenrather Stra\u00dfe", "amenity": "restaurant", "cuisine": "thai", "name": "Chang Thai"}}, {"type": "node", "id": 6502148006, "lat": 50.9125211, "lon": 6.9244836, "tags": {"addr:housenumber": "217", "addr:street": "Luxemburger Stra\u00dfe", "amenity": "restaurant", "name": "Kim Ly", "opening_hours": "Tu-Su 12:00-15:00,18:00-21:00"}}, {"type": "node", "id": 6516858785, "lat": 50.9202528, "lon": 6.9198487, "tags": {"addr:housenumber": "172", "addr:postcode": "50937", "addr:street": "S\u00fclzburgstra\u00dfe", "amenity": "restaurant", "cuisine": "asian", "name": "Watami"}}, {"type": "node", "id": 6539940547, "lat": 50.9201996, "lon": 6.9202999, "tags": {"amenity": "restaurant", "name": "Palanta"}}, {"type": "node", "id": 6564494808, "lat": 50.9220637, "lon": 6.9208214, "tags": {"addr:city": "K\u00f6ln", "addr:housenumber": "296", "addr:postcode": "50937", "addr:street": "Z\u00fclpicher Stra\u00dfe", "amenity": "restaurant", "cuisine": "french", "name": "Le Bouffon", "shop": "deli"}}, {"type": "node", "id": 6565962829, "lat": 50.9213002, "lon": 6.9182683, "tags": {"addr:city": "K\u00f6ln", "addr:housenumber": "200", "addr:postcode": "50937", "addr:street": "S\u00fclzburgstra\u00dfe", "amenity": "restaurant", "brand": "Bellavista", "cuisine": "italian", "name": "Bellavista"}}, {"type": "node", "id": 6565973003, "lat": 50.920865, "lon": 6.9189567, "tags": {"addr:city": "K\u00f6ln", "addr:housenumber": "2", "addr:postcode": "50937", "addr:street": "Schleidener Stra\u00dfe", "amenity": "restaurant", "cuisine": "italian", "name": "Trattoria Sale e Pepe"}}, {"type": "node", "id": 6566004374, "lat": 50.9213229, "lon": 6.9186802, "tags": {"addr:city": "K\u00f6ln", "addr:housenumber": "229", "addr:postcode": "50937", "addr:street": "S\u00fclzburgstra\u00dfe", "amenity": "restaurant", "cuisine": "german", "name": "Zur S\u00fclzburg"}}, {"type": "node", "id": 6566053092, "lat": 50.9229452, "lon": 6.9239147, "tags": {"addr:city": "K\u00f6ln", "addr:housenumber": "251", "addr:postcode": "50937", "addr:street": "Z\u00fclpicher Stra\u00dfe", "amenity": "restaurant", "cuisine": "indian", "name": "Tasty India"}}, {"type": "node", "id": 7368800987, "lat": 50.9180538, "lon": 6.9234779, "tags": {"amenity": "restaurant", "name": "heckmanns", "website": "http://www.restaurant-heckmanns.de"}}, {"type": "node", "id": 7463520385, "lat": 50.9236282, "lon": 6.927126, "tags": {"addr:postcode": "50937", "amenity": "restaurant", "check_date:opening_hours": "2021-06-06", "cuisine": "japanese;sushi", "name": "Yoko Sushi", "opening_hours": "Mo-Su 11:30-22:00", "phone": "+49 221 42354661", "website": "http://yoko.de"}}, {"type": "node", "id": 8235340508, "lat": 50.9202062, "lon": 6.9277519, "tags": {"addr:city": "K\u00f6ln", "addr:housenumber": "175", "addr:postcode": "50937", "addr:street": "Berrenrather Stra\u00dfe", "amenity": "restaurant", "contact:facebook": "downtoearth.noodles", "contact:instagram": "downtoearth.noodles", "cuisine": "noodle;momo", "diet:vegan": "yes", "name": "Down To Earth Noodles", "opening_hours": "Tu-Fr 12:00-21:00; Th 16:00-21:00; Sa,Su 16:00-22:00", "phone": "+49 1789159493", "website": "https://www.downtoearthnoodles.de/contact"}}, {"type": "node", "id": 9301963818, "lat": 50.9177889, "lon": 6.9239152, "tags": {"amenity": "restaurant", "cuisine": "italian;italian_pizza", "name": "Trattoria Pizzaria Siciliana", "website": "http://siciliana-koeln.de"}}, {"type": "node", "id": 9655128141, "lat": 50.9143253, "lon": 6.9307847, "tags": {"amenity": "restaurant", "cuisine": "italian", "name": "Arte e Bar - Da Carmelo", "website": "https://arteebar.metro.rest"}}, {"type": "node", "id": 9704110050, "lat": 50.9226791, "lon": 6.9270032, "tags": {"addr:city": "K\u00f6ln", "addr:country": "DE", "addr:housenumber": "9", "addr:postcode": "50937", "addr:street": "De-Noel-Platz", "amenity": "restaurant", "check_date": "2023-01-07", "cuisine": "coffee_shop", "name": "Caf\u00e9 Mischmasch", "outdoor_seating": "yes", "payment:cards": "no", "payment:credit_cards": "no", "payment:debit_cards": "no"}}, {"type": "node", "id": 10695805835, "lat": 50.9201563, "lon": 6.9276886, "tags": {"addr:city": "K\u00f6ln", "addr:housenumber": "177", "addr:postcode": "50937", "addr:street": "Berrenrather Stra\u00dfe", "amenity": "restaurant", "contact:wolt": "https://wolt.com/en/deu/cologne/restaurant/curry-up-kln", "cuisine": "indian", "diet:vegan": "yes", "name": "Curry Up", "opening_hours": "Mo,We,Th,Fr 11:30-15:00,17:00-22:00; Sa,Su,PH 14:00-22:00; Tu off", "phone": "+4922132010928"}}, {"type": "way", "id": 85336496, "nodes": [2658111655, 2658111608, 2658111690, 2658111680, 2658111674, 2658111652, 2658111641, 2658111646, 2658111617, 2658111589, 2658111541, 2658111553, 2658111568, 2658111559, 2658111536, 2658111527, 2658111512, 2658111517, 2658111547, 2658111537, 2658111529, 2658111497, 2658111488, 2658111580, 2658111621, 2658111614, 2658111599, 2658111586, 2658111592, 2658111741, 2658111751, 2658111764, 2658111754, 2658111760, 2658111788, 2658111874, 2658111894, 2658111890, 2658111877, 2658111883, 2658111896, 2658111904, 2658111913, 2658111911, 2658111885, 2658111898, 2658111881, 2658111870, 2658111864, 2658111862, 2658111851, 2658111845, 2658111838, 2658111794, 2658111655], "tags": {"addr:city": "K\u00f6ln", "addr:country": "DE", "addr:housenumber": "2", "addr:postcode": "50939", "addr:street": "Am Justizzentrum", "amenity": "restaurant", "building": "yes", "building:levels": "7"}}, {"type": "way", "id": 106444217, "nodes": [2647250250, 2647250268, 2647250276, 2647250262, 2647250250], "tags": {"addr:city": "K\u00f6ln", "addr:country": "DE", "addr:housenumber": "181", "addr:postcode": "50939", "addr:street": "Luxemburger Stra\u00dfe", "amenity": "restaurant", "building": "yes", "building:use": "residential;commercial", "cuisine": "salat;bowls", "delivery": "yes", "name": "Pottsalat", "opening_hours": "Mo-Fr 11:30-14:00,17:30-20:30; PH,Su 17:30-20:30", "outdoor_seating": "no", "takeaway": "yes", "website": "https://pottsalat.de"}}, {"type": "way", "id": 170430929, "nodes": [2639987720, 2639987695, 2639987668, 2639987681, 2639987684, 2639987693, 2639987697, 2639987700, 2639987714, 2639987738, 2639987720], "tags": {"addr:city": "K\u00f6ln", "addr:country": "DE", "addr:housenumber": "247", "addr:postcode": "50937", "addr:street": "Z\u00fclpicher Stra\u00dfe", "amenity": "restaurant", "building": "apartments", "building:levels": "3", "building:use": "residential;industrial", "name": "Haus Demmer", "roof:levels": "1", "source": "HiRes aerial imagery"}}, {"type": "way", "id": 247289582, "nodes": [2542014956, 2542014960, 2542014984, 2542014996, 2542014982, 2542014998, 2542014972, 2542015006, 2542014987, 2542014969, 2542014967, 2542014938, 2542014956], "tags": {"addr:housenumber": "371", "addr:postcode": "50935", "addr:street": "Gleueler Stra\u00dfe", "amenity": "restaurant", "building": "yes", "cuisine": "german", "name": "Decksteiner M\u00fchle", "opening_hours": "Mo-Su 12:00-24:00", "outdoor_seating": "yes", "website": "https://decksteiner-muehle.de/"}}]}