{"version": 0.6, "generator": "Overpass API 0.7.60.2 e4cf9f7a", "osm3s": {"timestamp_osm_base": "2023-04-29T12:57:54Z", "copyright": "The data included in this document is from www.openstreetmap.org. The data is made available under ODbL."}, "elements": [{"type": "node", "id": 257815969, "lat": 50.927468, "lon": 6.856958, "tags": {"addr:city": "K\u00f6ln", "addr:housenumber": "39", "addr:postcode": "50858", "addr:street": "Marsdorfer Stra\u00dfe", "amenity": "restaurant", "capacity": "30", "cuisine": "international", "name": "Restaurant Lengeling & Bialy", "opening_hours": "We-Sa 18:00+; Su,PH 12:00+", "phone": "+49 221 294 99 249", "source": "survey", "takeaway": "no", "website": "http://www.lengeling-bialy.de", "wheelchair": "no"}}, {"type": "node", "id": 266324749, "lat": 50.9368052, "lon": 6.8657039, "tags": {"addr:city": "K\u00f6ln", "addr:housenumber": "7", "addr:postcode": "50858", "addr:street": "Kirchweg", "amenity": "restaurant", "capacity": "30", "cuisine": "italian", "name": "Stella", "opening_hours": "Mo-Su 12:00-14:30, Mo-Su 17:30-22:00", "phone": "+49 221 4849531", "takeaway": "yes", "website": "https://trattoriastella.business.site", "wheelchair": "limited"}}, {"type": "node", "id": 275032443, "lat": 50.9369153, "lon": 6.8659102, "tags": {"amenity": "restaurant", "cuisine": "italian", "name": "Claudio", "opening_hours": "Mo-Su 12:00-15:00, 18:00-23:00", "website": "http://www.claudio-ristorante.de/", "wheelchair": "no"}}, {"type": "node", "id": 824229845, "lat": 50.9368915, "lon": 6.8654532, "tags": {"amenity": "restaurant", "cuisine": "italian", "name": "Distinto", "opening_hours": "Mo-Su 11:00-24:00", "toilets:wheelchair": "yes", "website": "https://www.distinto-restaurant.de/", "wheelchair": "yes"}}, {"type": "node", "id": 2229078327, "lat": 50.9191425, "lon": 6.8504988, "tags": {"addr:city": "K\u00f6ln", "addr:country": "DE", "addr:housenumber": "435", "addr:postcode": "50858", "addr:street": "D\u00fcrener Stra\u00dfe", "amenity": "restaurant", "contact:phone": "+49 2234 54457", "contact:website": "http://www.restaurant-filoxenia.de/", "cuisine": "greek", "name": "Filoxenia", "opening_hours": "Mo-Fr 11:30-14:30,17:30-23:00; Sa 17:30-23:00"}}, {"type": "node", "id": 2558528446, "lat": 50.9309015, "lon": 6.854386, "tags": {"addr:city": "K\u00f6ln", "addr:country": "DE", "addr:housenumber": "15-17", "addr:postcode": "50858", "addr:street": "Wilhelm-von-Capitaine-Stra\u00dfe", "amenity": "restaurant", "cuisine": "german", "name": "Anno Pomm Kartoffelhaus", "opening_hours": "Mo-Sa 12:00-0:00; Su 12:00-22:00", "website": "http://www.unwiderstehlich-gut.de", "wheelchair": "no"}}, {"type": "node", "id": 2558528455, "lat": 50.9308174, "lon": 6.8547585, "tags": {"addr:city": "K\u00f6ln", "addr:country": "DE", "addr:housenumber": "11", "addr:postcode": "50858", "addr:street": "Wilhelm-von-Capitaine-Stra\u00dfe", "amenity": "restaurant", "capacity": "60", "cuisine": "regional", "name": "Junkersdorfer Hof", "opening_hours": "Mo-Sa 10:30-2:00", "smoking": "isolated", "takeaway": "yes", "website": "http://www.junkersdorfer-hof.de/", "wheelchair": "yes"}}, {"type": "node", "id": 2558528465, "lat": 50.9306407, "lon": 6.8694409, "tags": {"addr:city": "K\u00f6ln", "addr:country": "DE", "addr:housenumber": "1", "addr:postcode": "50933", "addr:street": "Guts-Muths-Weg", "amenity": "restaurant", "cuisine": "coffee_shop", "name": "Cafeteria", "opening_hours": "6:00-23:00", "source": "Offizieller Lageplan & Wegweiser der Sporthochschule", "website": "https://www.gastronomie-tuerner.de/"}}, {"type": "node", "id": 2579620438, "lat": 50.9381929, "lon": 6.8522154}, {"type": "node", "id": 2579620440, "lat": 50.9381966, "lon": 6.8519827}, {"type": "node", "id": 2579620442, "lat": 50.9382615, "lon": 6.852096}, {"type": "node", "id": 2579620444, "lat": 50.9382636, "lon": 6.8519824}, {"type": "node", "id": 2579620482, "lat": 50.9383204, "lon": 6.8522234}, {"type": "node", "id": 2579620484, "lat": 50.9383228, "lon": 6.8520989}, {"type": "node", "id": 2608417722, "lat": 50.9189751, "lon": 6.8490904}, {"type": "node", "id": 2608417729, "lat": 50.9189976, "lon": 6.8492091}, {"type": "node", "id": 2608417744, "lat": 50.9190395, "lon": 6.8490598}, {"type": "node", "id": 2608417751, "lat": 50.9190619, "lon": 6.8491784}, {"type": "node", "id": 3758509706, "lat": 50.9322158, "lon": 6.8622755, "tags": {"amenity": "restaurant", "name": "Birkenhof", "opening_hours": "Mo-Su 12:00+", "outdoor_seating": "yes", "sport": "9pin", "website": "http://www.birkenhof-junkersdorf.de/", "wheelchair": "limited"}}, {"type": "node", "id": 4172196475, "lat": 50.9221324, "lon": 6.8525286, "tags": {"amenity": "restaurant", "name": "Restaurant Globus"}}, {"type": "way", "id": 146053082, "nodes": [2608417744, 2608417722, 2608417729, 2608417751, 2608417744], "tags": {"addr:city": "K\u00f6ln", "addr:country": "DE", "addr:housenumber": "437e", "addr:postcode": "50858", "addr:street": "D\u00fcrener Stra\u00dfe", "amenity": "restaurant", "building": "yes", "building:levels": "2", "building:use": "residential;industrial", "cuisine": "fish", "name": "Wildlachs-R\u00e4ucherei Bremer", "opening_hours": "Mo-Fr 09:30-16:00; Sa 09:00-16:00;ph off", "organic": "yes", "outdoor_seating": "yes", "phone": "+49 2234 23816", "shop": "seafood", "takeaway": "yes", "website": "http://lachsbremer.de/", "wheelchair": "yes"}}, {"type": "way", "id": 251786276, "nodes": [2579620484, 2579620442, 2579620444, 2579620440, 2579620438, 2579620482, 2579620484], "tags": {"addr:city": "K\u00f6ln", "addr:country": "DE", "addr:housenumber": "81", "addr:postcode": "50858", "addr:street": "Vogelsanger Weg", "amenity": "restaurant", "brewery": "Sion", "brewery:Weizenbier": "Weihenstephaner", "building": "yes", "building:levels": "1", "contact:email": "info@gaststaette-bei-mir-zu-haus.de", "contact:facebook": "https://www.facebook.com/BeimirzuHaus/", "contact:phone": "+49 221 481 510", "contact:website": "http://www.gaststaette-bei-mir-zu-haus.de/", "cuisine": "german", "drink:beer": "served", "name": "Bei mir zu Haus", "opening_hours": "Mo-Sa 17:00-24:00", "operator": "Khadija Hachicha", "operator:type": "private", "outdoor_seating": "yes", "roof:shape": "hipped", "tv": "yes"}}]}