{"version": 0.6, "generator": "Overpass API 0.7.60.2 e4cf9f7a", "osm3s": {"timestamp_osm_base": "2023-04-29T12:57:54Z", "copyright": "The data included in this document is from www.openstreetmap.org. The data is made available under ODbL."}, "elements": [{"type": "node", "id": 266324749, "lat": 50.9368052, "lon": 6.8657039, "tags": {"addr:city": "K\u00f6ln", "addr:housenumber": "7", "addr:postcode": "50858", "addr:street": "Kirchweg", "amenity": "restaurant", "capacity": "30", "cuisine": "italian", "name": "Stella", "opening_hours": "Mo-Su 12:00-14:30, Mo-Su 17:30-22:00", "phone": "+49 221 4849531", "takeaway": "yes", "website": "https://trattoriastella.business.site", "wheelchair": "limited"}}, {"type": "node", "id": 266816211, "lat": 50.9347208, "lon": 6.8795409, "tags": {"entrance": "main"}}, {"type": "node", "id": 275032443, "lat": 50.9369153, "lon": 6.8659102, "tags": {"amenity": "restaurant", "cuisine": "italian", "name": "Claudio", "opening_hours": "Mo-Su 12:00-15:00, 18:00-23:00", "website": "http://www.claudio-ristorante.de/", "wheelchair": "no"}}, {"type": "node", "id": 643559321, "lat": 50.9448684, "lon": 6.8872338, "tags": {"amenity": "restaurant", "cuisine": "regional", "name": "Technologiepark-Casino", "opening_hours": "Mo-Fr 08:00-16:00"}}, {"type": "node", "id": 824229845, "lat": 50.9368915, "lon": 6.8654532, "tags": {"amenity": "restaurant", "cuisine": "italian", "name": "Distinto", "opening_hours": "Mo-Su 11:00-24:00", "toilets:wheelchair": "yes", "website": "https://www.distinto-restaurant.de/", "wheelchair": "yes"}}, {"type": "node", "id": 1127115665, "lat": 50.9380459, "lon": 6.8816949, "tags": {"addr:city": "K\u00f6ln", "addr:country": "DE", "addr:housenumber": "702", "addr:postcode": "50933", "addr:street": "Aachener Stra\u00dfe", "amenity": "restaurant", "cuisine": "mexican", "internet_access": "no", "name": "Taco Loco III", "opening_hours": "Mo-Sa 16:00+; Su 14:00+", "outdoor_seating": "yes", "payment:cash": "yes", "payment:coins": "yes", "payment:notes": "yes", "website": "https://www.taco-loco.de/", "wheelchair": "limited"}}, {"type": "node", "id": 1393034351, "lat": 50.9402846, "lon": 6.8894285, "tags": {"addr:city": "K\u00f6ln", "addr:country": "DE", "addr:housenumber": "58", "addr:postcode": "50933", "addr:street": "Eupener Stra\u00dfe", "amenity": "restaurant", "cuisine": "asian", "name": "Lika asiatische K\u00fcche", "opening_hours": "Mo-Fr 11:00-15:00, 17:00-22:00; Su, PH 14:00-22:30; Sa off", "phone": "+49 221 8000400", "website": "http://lika-imbiss.de", "wheelchair": "no"}}, {"type": "node", "id": 1395343949, "lat": 50.9396943, "lon": 6.8890934, "tags": {"amenity": "restaurant", "cuisine": "thai", "name": "Viet-Thai", "opening_hours": "Tu-Fr 00:00-15:00,17:00-22:00; Sa 16:00-22:00; Su 12:00-15:00,17:00-22:00", "wheelchair": "limited"}}, {"type": "node", "id": 1395343963, "lat": 50.9456067, "lon": 6.8899259, "tags": {"amenity": "restaurant", "cuisine": "italian", "name": "Il Pranzo"}}, {"type": "node", "id": 1416339583, "lat": 50.9379733, "lon": 6.8824767, "tags": {"amenity": "restaurant", "cuisine": "greek", "name": "Aphrodite", "opening_hours": "Tu-Th 17:00-24:00; Fr-Su 12:00-15:00, 17:00-24:00", "outdoor_seating": "yes", "website": "https://www.aphroditerestaurant.de/", "wheelchair": "no"}}, {"type": "node", "id": 1591398760, "lat": 50.9344309, "lon": 6.8793595}, {"type": "node", "id": 1591398761, "lat": 50.9344423, "lon": 6.8792186}, {"type": "node", "id": 1591398790, "lat": 50.9345523, "lon": 6.8799923}, {"type": "node", "id": 1591398793, "lat": 50.9345617, "lon": 6.8799065}, {"type": "node", "id": 1591398806, "lat": 50.9345903, "lon": 6.8799119}, {"type": "node", "id": 1591398808, "lat": 50.9345878, "lon": 6.8800016}, {"type": "node", "id": 1591398810, "lat": 50.9345927, "lon": 6.879728}, {"type": "node", "id": 1591398811, "lat": 50.9345961, "lon": 6.8798324}, {"type": "node", "id": 1591398822, "lat": 50.9346124, "lon": 6.879469}, {"type": "node", "id": 1591398824, "lat": 50.9346054, "lon": 6.8797297}, {"type": "node", "id": 1591398828, "lat": 50.9345743, "lon": 6.8794121}, {"type": "node", "id": 1591398830, "lat": 50.9345762, "lon": 6.8793868}, {"type": "node", "id": 1591398841, "lat": 50.9346656, "lon": 6.8799328}, {"type": "node", "id": 1591398849, "lat": 50.9347216, "lon": 6.8793114}, {"type": "node", "id": 1591398852, "lat": 50.9347605, "lon": 6.8793187}, {"type": "node", "id": 1591398854, "lat": 50.9347755, "lon": 6.8793379}, {"type": "node", "id": 1591398864, "lat": 50.9347993, "lon": 6.8793362}, {"type": "node", "id": 1591398866, "lat": 50.9348118, "lon": 6.8793203}, {"type": "node", "id": 1591398868, "lat": 50.9348184, "lon": 6.8792908}, {"type": "node", "id": 1591398869, "lat": 50.9348144, "lon": 6.8792687}, {"type": "node", "id": 1722049989, "lat": 50.9380217, "lon": 6.8811807, "tags": {"amenity": "restaurant", "cuisine": "steak_house", "email": "info@arizona-cologne.de", "name": "Arizona", "opening_hours": "Mo-Th 12:00-24:00; Fr-Sa 12:00-01:00; Su 12:00-24:00", "outdoor_seating": "yes", "phone": "+49 221 96 26 30 14", "tv": "yes", "wheelchair": "no"}}, {"type": "node", "id": 2178317602, "lat": 50.9405984, "lon": 6.8791243, "tags": {"addr:city": "K\u00f6ln", "addr:country": "DE", "addr:housenumber": "56a", "addr:postcode": "50933", "addr:street": "Wendelinstra\u00dfe", "addr:suburb": "M\u00fcngersdorf", "amenity": "restaurant", "cuisine": "italian", "delivery": "yes", "name": "Da Pippo", "opening_hours": "Mo-Su 11:00-23:00", "payment:cash": "yes", "takeaway": "yes", "wheelchair": "yes"}}, {"type": "node", "id": 2558528465, "lat": 50.9306407, "lon": 6.8694409, "tags": {"addr:city": "K\u00f6ln", "addr:country": "DE", "addr:housenumber": "1", "addr:postcode": "50933", "addr:street": "Guts-Muths-Weg", "amenity": "restaurant", "cuisine": "coffee_shop", "name": "Cafeteria", "opening_hours": "6:00-23:00", "source": "Offizieller Lageplan & Wegweiser der Sporthochschule", "website": "https://www.gastronomie-tuerner.de/"}}, {"type": "node", "id": 2563203792, "lat": 50.9344771, "lon": 6.8792262}, {"type": "node", "id": 2563203793, "lat": 50.934479, "lon": 6.8792026}, {"type": "node", "id": 2563203801, "lat": 50.9345429, "lon": 6.8792153}, {"type": "node", "id": 2563203802, "lat": 50.9345442, "lon": 6.8791906}, {"type": "node", "id": 2563203807, "lat": 50.9345792, "lon": 6.8794319}, {"type": "node", "id": 2563203810, "lat": 50.9345936, "lon": 6.8799173}, {"type": "node", "id": 2563203811, "lat": 50.9345968, "lon": 6.8794639}, {"type": "node", "id": 2563203814, "lat": 50.9346271, "lon": 6.8799542}, {"type": "node", "id": 2563203816, "lat": 50.9346297, "lon": 6.879925}, {"type": "node", "id": 2563203819, "lat": 50.9346557, "lon": 6.8799695}, {"type": "node", "id": 2563203822, "lat": 50.934671, "lon": 6.879933}, {"type": "node", "id": 2563203824, "lat": 50.9346821, "lon": 6.8798021}, {"type": "node", "id": 2563203825, "lat": 50.9346854, "lon": 6.8797542}, {"type": "node", "id": 2563203827, "lat": 50.9346907, "lon": 6.8798041}, {"type": "node", "id": 2563203829, "lat": 50.9346944, "lon": 6.8797545}, {"type": "node", "id": 2563203831, "lat": 50.9347052, "lon": 6.8794986}, {"type": "node", "id": 2563203833, "lat": 50.9347185, "lon": 6.8795704}, {"type": "node", "id": 2563203834, "lat": 50.9347241, "lon": 6.8795037}, {"type": "node", "id": 2563203836, "lat": 50.9347261, "lon": 6.879243}, {"type": "node", "id": 2563203837, "lat": 50.9347277, "lon": 6.8792249}, {"type": "node", "id": 2563203843, "lat": 50.9347656, "lon": 6.8792516}, {"type": "node", "id": 2563203844, "lat": 50.9347785, "lon": 6.8792423}, {"type": "node", "id": 2563203848, "lat": 50.9347877, "lon": 6.8793403}, {"type": "node", "id": 2563203849, "lat": 50.9347916, "lon": 6.8792422}, {"type": "node", "id": 2563203854, "lat": 50.9348033, "lon": 6.8792486}, {"type": "node", "id": 2563619846, "lat": 50.930779, "lon": 6.8772835}, {"type": "node", "id": 2563619847, "lat": 50.930788, "lon": 6.8773749}, {"type": "node", "id": 2563619849, "lat": 50.9308375, "lon": 6.8778518}, {"type": "node", "id": 2563619851, "lat": 50.9308466, "lon": 6.8779442}, {"type": "node", "id": 2563619861, "lat": 50.9310015, "lon": 6.877209}, {"type": "node", "id": 2563619862, "lat": 50.9310034, "lon": 6.8772281}, {"type": "node", "id": 2563619864, "lat": 50.9310123, "lon": 6.8773195}, {"type": "node", "id": 2563619866, "lat": 50.9310145, "lon": 6.8773418}, {"type": "node", "id": 2563619868, "lat": 50.9310323, "lon": 6.8778984}, {"type": "node", "id": 2563619869, "lat": 50.9310332, "lon": 6.8771102}, {"type": "node", "id": 2563619870, "lat": 50.9310419, "lon": 6.8771991}, {"type": "node", "id": 2563619871, "lat": 50.9310485, "lon": 6.8780636}, {"type": "node", "id": 2563619872, "lat": 50.9310491, "lon": 6.8773333}, {"type": "node", "id": 2563619873, "lat": 50.9310566, "lon": 6.8777777}, {"type": "node", "id": 2563619874, "lat": 50.9310585, "lon": 6.8777973}, {"type": "node", "id": 2563619875, "lat": 50.9310835, "lon": 6.8770978}, {"type": "node", "id": 2563619877, "lat": 50.9310859, "lon": 6.8771229}, {"type": "node", "id": 2563619879, "lat": 50.9310918, "lon": 6.877769}, {"type": "node", "id": 2563619881, "lat": 50.9311314, "lon": 6.8771117}, {"type": "node", "id": 2563619882, "lat": 50.9311655, "lon": 6.8774597}, {"type": "node", "id": 2563619883, "lat": 50.9311744, "lon": 6.8774576}, {"type": "node", "id": 2563619884, "lat": 50.9311783, "lon": 6.8774976}, {"type": "node", "id": 2563619885, "lat": 50.9311786, "lon": 6.8775929}, {"type": "node", "id": 2563619886, "lat": 50.9311835, "lon": 6.8775504}, {"type": "node", "id": 2563619887, "lat": 50.9311874, "lon": 6.8775907}, {"type": "node", "id": 2563619889, "lat": 50.9312125, "lon": 6.8774891}, {"type": "node", "id": 2563619891, "lat": 50.9312177, "lon": 6.877542}, {"type": "node", "id": 2563619892, "lat": 50.9312205, "lon": 6.8780212}, {"type": "node", "id": 2563620061, "lat": 50.9373183, "lon": 6.8819585}, {"type": "node", "id": 2563620063, "lat": 50.9373184, "lon": 6.8819552}, {"type": "node", "id": 2563620065, "lat": 50.9373206, "lon": 6.881884}, {"type": "node", "id": 2563620067, "lat": 50.9373256, "lon": 6.8817179}, {"type": "node", "id": 2563620069, "lat": 50.9374308, "lon": 6.881967}, {"type": "node", "id": 2563620071, "lat": 50.937438, "lon": 6.8817264}, {"type": "node", "id": 2590117644, "lat": 50.9407017, "lon": 6.8799926}, {"type": "node", "id": 2590117651, "lat": 50.9407548, "lon": 6.8799218}, {"type": "node", "id": 2590117654, "lat": 50.9407651, "lon": 6.8801255}, {"type": "node", "id": 2590117659, "lat": 50.9407892, "lon": 6.8800545}, {"type": "node", "id": 2590117661, "lat": 50.9408024, "lon": 6.8800814}, {"type": "node", "id": 2590117662, "lat": 50.9408094, "lon": 6.8800294}, {"type": "node", "id": 2591910085, "lat": 50.9470863, "lon": 6.8863163}, {"type": "node", "id": 2591910108, "lat": 50.9471459, "lon": 6.8862199}, {"type": "node", "id": 2591910120, "lat": 50.9471926, "lon": 6.8863498}, {"type": "node", "id": 2591910122, "lat": 50.9472065, "lon": 6.8862353}, {"type": "node", "id": 2596046153, "lat": 50.9454169, "lon": 6.8881943}, {"type": "node", "id": 2596046157, "lat": 50.9454237, "lon": 6.8879795}, {"type": "node", "id": 2596046181, "lat": 50.9455021, "lon": 6.8879848}, {"type": "node", "id": 2596046195, "lat": 50.9455185, "lon": 6.8882024}, {"type": "node", "id": 2596046197, "lat": 50.9455241, "lon": 6.8880413}, {"type": "node", "id": 3682454995, "lat": 50.9486749, "lon": 6.8813229, "tags": {"addr:city": "K\u00f6ln", "addr:country": "DE", "addr:housenumber": "30", "addr:postcode": "50829", "addr:street": "Girlitzweg", "amenity": "restaurant", "name": "Nebenraum", "smoking": "outside", "wheelchair": "no"}}, {"type": "node", "id": 5865106327, "lat": 50.9414139, "lon": 6.8790936, "tags": {"addr:housenumber": "81", "addr:street": "Wendelinstra\u00dfe", "amenity": "restaurant", "name": "Landgasthaus St. Wendelin", "opening_hours": "We-Sa 18:00-23:00; Su 17:30-23:00", "phone": "+49221-94968003", "website": "https://www.landgasthaus-sankt-wendelin.de/"}}, {"type": "node", "id": 5958843397, "lat": 50.9400626, "lon": 6.8790508, "tags": {"amenity": "restaurant", "cuisine": "wine", "name": "Vini diretti"}}, {"type": "node", "id": 6225647560, "lat": 50.9310719, "lon": 6.8775554, "tags": {"entrance": "yes"}}, {"type": "node", "id": 6225647562, "lat": 50.9312149, "lon": 6.8775138, "tags": {"entrance": "main"}}, {"type": "node", "id": 6670648805, "lat": 50.9406221, "lon": 6.8888146, "tags": {"amenity": "restaurant", "cuisine": "italian", "name": "Cilentano", "opening_hours": "Mo,We-Su 12:00-22:00", "wheelchair": "yes"}}, {"type": "node", "id": 7753599633, "lat": 50.9381482, "lon": 6.8790406, "tags": {"addr:city": "K\u00f6ln", "addr:housenumber": "748", "addr:postcode": "50933", "addr:street": "Aachener Stra\u00dfe", "amenity": "restaurant", "name": "Eurest Kantine", "opening_hours": "Mo-Fr 08:15-14:00"}}, {"type": "node", "id": 8900933906, "lat": 50.9346998, "lon": 6.8795663}, {"type": "node", "id": 9098668034, "lat": 50.9454334, "lon": 6.8879802, "tags": {"camera:direction": "300", "camera:mount": "wall", "camera:type": "fixed", "man_made": "surveillance", "surveillance": "public", "surveillance:type": "camera", "surveillance:zone": "area"}}, {"type": "node", "id": 9338342338, "lat": 50.9471989, "lon": 6.8862975, "tags": {"entrance": "yes"}}, {"type": "node", "id": 9939458204, "lat": 50.9470922, "lon": 6.886205}, {"type": "node", "id": 9939458205, "lat": 50.9470616, "lon": 6.8863088}, {"type": "node", "id": 10596586145, "lat": 50.9434661, "lon": 6.882902, "tags": {"amenity": "restaurant", "contact:email": "swaad@gmx.de", "contact:mobile": "+49 179 2015527", "cuisine": "indian", "delivery": "yes", "diet:vegetarian": "yes", "name": "Swaad", "opening_hours": "Mo-Fr 10:00-16:00", "phone": "+49 221 42355261", "takeaway": "yes"}}, {"type": "way", "id": 145799872, "nodes": [1591398761, 2563203792, 2563203793, 2563203801, 2563203802, 2563203837, 2563203836, 2563203843, 2563203844, 2563203849, 2563203854, 1591398869, 1591398868, 1591398866, 1591398864, 2563203848, 1591398854, 1591398852, 1591398849, 2563203831, 2563203834, 266816211, 2563203833, 8900933906, 2563203825, 2563203829, 2563203827, 2563203824, 2563203822, 1591398841, 2563203819, 2563203814, 2563203816, 2563203810, 1591398808, 1591398790, 1591398793, 1591398806, 1591398811, 1591398824, 1591398810, 1591398822, 2563203811, 2563203807, 1591398828, 1591398830, 1591398760, 1591398761], "tags": {"addr:city": "K\u00f6ln", "addr:country": "DE", "addr:housenumber": "2", "addr:postcode": "50933", "addr:street": "Olympiaweg", "amenity": "restaurant", "building": "yes", "name": "Landhaus Kuckuck", "phone": "+49 221 485360", "website": "https://www.landhaus-kuckuck.de/", "wheelchair": "limited", "wheelchair:description": "Terrasse ist weitl\u00e4ufig und perfekt f\u00fcr elektronische Rollst\u00fchle."}}, {"type": "way", "id": 207571714, "nodes": [2590117651, 2590117644, 2590117654, 2590117661, 2590117659, 2590117662, 2590117651], "tags": {"addr:city": "K\u00f6ln", "addr:country": "DE", "addr:housenumber": "68", "addr:postcode": "50933", "addr:street": "Alter Milit\u00e4rring", "amenity": "restaurant", "building": "yes", "building:use": "residential;industrial", "diet:gluten_free": "yes", "diet:vegan": "only", "name": "pennycakes", "opening_hours": "Fr-Mo,PH 10:00-18:00"}}, {"type": "way", "id": 211321566, "nodes": [2563620063, 2563620061, 2563620069, 2563620071, 2563620067, 2563620065, 2563620063], "tags": {"addr:city": "K\u00f6ln", "addr:country": "DE", "addr:housenumber": "701", "addr:postcode": "50933", "addr:street": "Aachener Stra\u00dfe", "amenity": "restaurant", "building": "yes", "building:use": "residential;industrial", "cuisine": "spanish", "email": "info@stadtwaldgarten-koeln.de", "name": "Stadtwaldgarten", "note": "Tapas and Steaks", "opening_hours": "Jan-Apr, Oct-Dec: Mo off;Tu-Su 17:00+; May-Sep: Mo off; Tu-Sa 16:00+; Su 13:00+", "outdoor_seating": "yes", "phone": "+49 221 34666170", "tv": "yes", "wheelchair": "limited"}}, {"type": "way", "id": 249810529, "nodes": [2563619881, 2563619882, 2563619883, 2563619884, 2563619889, 6225647562, 2563619891, 2563619886, 2563619887, 2563619885, 2563619892, 2563619871, 2563619868, 2563619851, 2563619849, 2563619874, 2563619873, 2563619879, 6225647560, 2563619872, 2563619866, 2563619864, 2563619847, 2563619846, 2563619862, 2563619861, 2563619870, 2563619869, 2563619875, 2563619877, 2563619881], "tags": {"addr:city": "K\u00f6ln", "addr:country": "DE", "addr:housenumber": "3", "addr:postcode": "50933", "addr:street": "Guts-Muths-Weg", "addr:suburb": "M\u00fcngersdorf", "amenity": "restaurant", "building": "yes", "name": "Club Astoria", "opening_hours": "Tu-Sa 12:00-24:00; Su 10:30-24:00", "outdoor_seating": "yes", "payment:cash": "yes", "website": "https://www.club-astoria.eu/", "wheelchair": "yes"}}, {"type": "way", "id": 253233726, "nodes": [2591910122, 2591910108, 9939458204, 9939458205, 2591910085, 2591910120, 9338342338, 2591910122], "tags": {"addr:city": "K\u00f6ln", "addr:country": "DE", "addr:housenumber": "409", "addr:postcode": "50933", "addr:street": "Widdersdorfer Stra\u00dfe", "addr:suburb": "M\u00fcngersdorf", "amenity": "restaurant", "building": "retail", "building:levels": "1", "check_date:website": "2021-09-16", "cuisine": "italian;pizza;salad;burger;german", "delivery": "yes", "name": "Mezi's", "opening_hours": "Mo-Fr 11:00-22:00; Sa-Su 12:00-22:00", "operator": "Khalid Meziani", "outdoor_seating": "no", "phone": "+49 221 39909000", "roof:shape": "flat", "takeaway": "yes", "website": "https://mezispizza.de", "wheelchair": "limited"}}, {"type": "way", "id": 253715303, "nodes": [2596046195, 2596046197, 2596046181, 9098668034, 2596046157, 2596046153, 2596046195], "tags": {"addr:city": "K\u00f6ln", "addr:housenumber": "159", "addr:postcode": "50933", "addr:street": "Eupener Stra\u00dfe", "amenity": "restaurant", "building": "restaurant", "check_date": "2021-09-16", "check_date:website": "2021-09-16", "comment": "Namenstafel \u00fcber T\u00fcr lautet Parkstore", "cuisine": "salad", "name": "Morgenstund", "outdoor_seating": "yes", "phone": "+49 221 78968240", "takeaway": "yes", "website": "https://www.morgenstund-koeln.org/", "wheelchair": "yes"}}]}