{"version": 0.6, "generator": "Overpass API 0.7.60.2 e4cf9f7a", "osm3s": {"timestamp_osm_base": "2023-04-29T12:57:54Z", "copyright": "The data included in this document is from www.openstreetmap.org. The data is made available under ODbL."}, "elements": [{"type": "node", "id": 1673071166, "lat": 50.8812263, "lon": 7.0752012, "tags": {"addr:city": "K\u00f6ln", "addr:housenumber": "84", "addr:postcode": "51145", "addr:street": "Kaiserstra\u00dfe", "addr:suburb": "Urbach", "amenity": "restaurant", "contact:phone": "+49 2203 928232", "cuisine": "turkish", "name": "Kaiser Restaurant", "wheelchair": "limited", "wheelchair:description": "Eingang mit Stufe. Au\u00dfenterrasse barrierefrei"}}, {"type": "node", "id": 2326286163, "lat": 50.8765686, "lon": 7.0832093, "tags": {"addr:housenumber": "462", "addr:postcode": "51145", "addr:street": "Frankfurter Stra\u00dfe", "amenity": "restaurant", "cuisine": "regional", "name": "Zum Pf\u00e4nnle"}}, {"type": "node", "id": 4197307073, "lat": 50.8812481, "lon": 7.0795512, "tags": {"addr:city": "K\u00f6ln", "addr:housenumber": "40", "addr:postcode": "51145", "addr:street": "Kaiserstra\u00dfe", "amenity": "restaurant", "name": "Candelita", "opening_hours": "Tu-Th 17:00-23:00; Fr-Su, PH 17:00-01:00", "outdoor_seating": "yes", "takeaway": "no", "wheelchair": "no"}}, {"type": "node", "id": 4536537853, "lat": 50.8815928, "lon": 7.0921027, "tags": {"addr:city": "K\u00f6ln", "addr:housenumber": "88", "addr:postcode": "51145", "addr:street": "Waldstra\u00dfe", "amenity": "restaurant", "name": "Treffpunkt", "outdoor_seating": "yes"}}, {"type": "node", "id": 6875602639, "lat": 50.8815753, "lon": 7.0808688, "tags": {"addr:city": "K\u00f6ln", "addr:country": "DE", "addr:housenumber": "24-26", "addr:postcode": "51145", "addr:street": "Kaiserstra\u00dfe", "addr:suburb": "Urbach", "amenity": "restaurant", "contact:email": "info@da-ivo.com", "contact:mobile": "+49 162 2088183", "contact:website": "https://da-ivo-burger-urbach.eatbu.com/", "name": "Da Ivo Burger", "opening_hours": "Tu-Th 08:00-22:00; Fr 08:00-23:00; Sa 09:00-23:00; Su 09:00-22:00", "takeaway": "yes"}}, {"type": "node", "id": 6875850759, "lat": 50.8806122, "lon": 7.0825542, "tags": {"amenity": "restaurant", "cuisine": "regional", "name": "Urbacher Hof", "wheelchair": "no"}}, {"type": "node", "id": 10305047318, "lat": 50.8754927, "lon": 7.0824868, "tags": {"addr:city": "K\u00f6ln", "addr:country": "DE", "addr:housenumber": "1-7", "addr:postcode": "51145", "addr:street": "Friedrich-Hirsch-Stra\u00dfe", "addr:suburb": "Elsdorf", "amenity": "restaurant", "cuisine": "greek", "name": "fliegender Grieche", "opening_hours": "Tu-Sa 11:30-22:00; Su 13:00-21:30", "takeaway": "yes"}}]}