{"version": 0.6, "generator": "Overpass API 0.7.60.2 e4cf9f7a", "osm3s": {"timestamp_osm_base": "2023-04-29T12:51:48Z", "copyright": "The data included in this document is from www.openstreetmap.org. The data is made available under ODbL."}, "elements": [{"type": "node", "id": 286420724, "lat": 50.9294748, "lon": 6.9380873, "tags": {"addr:city": "K\u00f6ln", "addr:country": "DE", "addr:housenumber": "11", "addr:postcode": "50674", "addr:street": "Z\u00fclpicher Stra\u00dfe", "amenity": "bar", "name": "Umbruch", "operator": "Lutz Persel", "wheelchair": "no"}}, {"type": "node", "id": 322797145, "lat": 50.9289262, "lon": 6.939284, "tags": {"addr:city": "K\u00f6ln", "addr:country": "DE", "addr:housenumber": "24", "addr:postcode": "50674", "addr:street": "Kyffh\u00e4userstra\u00dfe", "amenity": "bar", "name": "Furchtbar", "opening_hours": "Mo-Su 20:00-05:00", "phone": "+49-221-9231160", "smoking": "yes", "website": "http://www.furchtbar.de", "wheelchair": "limited"}}, {"type": "node", "id": 338579822, "lat": 50.9289236, "lon": 6.936094, "tags": {"addr:city": "K\u00f6ln", "addr:housenumber": "30", "addr:postcode": "50674", "addr:street": "Meister-Gerhard-Stra\u00dfe", "amenity": "bar", "contact:email": "cologne@louis-breakfast.de", "contact:facebook": "https://www.facebook.com/Saint-Louis-K%C3%B6ln-658962157466603/", "contact:instagram": "https://www.instagram.com/louis_breakfast/", "contact:phone": "+49 221 16842810", "contact:website": "https://www.louis-breakfast.de/", "cuisine": "breakfast", "name": "Louis - The Breakfast Club", "wheelchair": "yes"}}, {"type": "node", "id": 345175310, "lat": 50.9286363, "lon": 6.9381717, "tags": {"addr:city": "K\u00f6ln", "addr:country": "DE", "addr:housenumber": "39", "addr:postcode": "50674", "addr:street": "Kyffh\u00e4userstra\u00dfe", "amenity": "bar", "name": "Lost Level", "old_name": "Meltdown", "opening_hours": "Tu 18:00-00:00, We-Th 19:00-01:00, Fr-Sa 19:00-03:00", "phone": "+49 221 96029184", "sport": "e_sport", "start_date": "2016-01-30", "tv": "yes", "website": "https://lostlevel.bar", "wheelchair": "no"}}, {"type": "node", "id": 356175401, "lat": 50.9287886, "lon": 6.939786, "tags": {"addr:city": "K\u00f6ln", "addr:country": "DE", "addr:housenumber": "17", "addr:postcode": "50674", "addr:street": "Kyffh\u00e4userstra\u00dfe", "amenity": "bar", "name": "SAUSABAR", "phone": "+49 221 99989027", "website": "https://sausalitos.de/sausabar-karte", "wheelchair": "limited"}}, {"type": "node", "id": 362940567, "lat": 50.9297832, "lon": 6.9393588, "tags": {"addr:city": "K\u00f6ln", "addr:country": "DE", "addr:housenumber": "11", "addr:postcode": "50674", "addr:street": "Z\u00fclpicher Platz", "amenity": "bar", "name": "Roter Platz", "wheelchair": "limited"}}, {"type": "node", "id": 435136644, "lat": 50.9269986, "lon": 6.9396066, "tags": {"addr:city": "K\u00f6ln", "addr:country": "DE", "addr:housenumber": "43", "addr:postcode": "50674", "addr:street": "Luxemburger Stra\u00dfe", "amenity": "bar", "contact:facebook": "https://www.facebook.com/LittleLuiCologne", "name": "Little Lui", "opening_hours": "\"Eventlocation\"", "smoking": "no"}}, {"type": "node", "id": 441240854, "lat": 50.9314558, "lon": 6.9348679, "tags": {"addr:city": "K\u00f6ln", "addr:housenumber": "22", "addr:postcode": "50674", "addr:street": "Rathenauplatz", "amenity": "bar", "email": "info@hotelux.de", "name": "KGB Bar", "operator": "HoteLux GmbH", "outdoor_seating": "yes", "phone": "+49221 20538796", "phone_1": "+49 177 4299684", "smoking": "no", "website": "https://www.hotelux.de/", "wheelchair": "no"}}, {"type": "node", "id": 442702961, "lat": 50.9251806, "lon": 6.958251, "tags": {"addr:city": "K\u00f6ln", "addr:country": "DE", "addr:housenumber": "77-79", "addr:postcode": "50678", "addr:street": "Severinstra\u00dfe", "amenity": "bar", "name": "Tres\u00f6rchen K\u00f6ln", "old_name": "Targobank", "website": "https://tresoerchen.koeln/"}}, {"type": "node", "id": 442702969, "lat": 50.9246528, "lon": 6.9593141, "tags": {"addr:city": "K\u00f6ln", "addr:country": "DE", "addr:housenumber": "5", "addr:postcode": "50678", "addr:street": "An der Eiche", "amenity": "bar", "contact:facebook": "https://www.facebook.com/678BAR/", "name": "678"}}, {"type": "node", "id": 444552400, "lat": 50.9298363, "lon": 6.9397766, "tags": {"amenity": "bar", "name": "Flotte", "source": "local knowledge", "toilets:wheelchair": "no", "website": "https://www.dieflotte.de/", "wheelchair": "yes"}}, {"type": "node", "id": 467770617, "lat": 50.9300705, "lon": 6.9380122, "tags": {"amenity": "bar", "name": "Rosebud", "opening_hours": "Mo-Th 20:30-02:00; Fr-Sa 21:00-03:00 || \"vor Feiertagen wie Sa\"", "phone": "+49 221 240 14 55", "toilets:wheelchair": "no", "wheelchair": "no"}}, {"type": "node", "id": 538267332, "lat": 50.9169469, "lon": 6.9606226, "tags": {"amenity": "bar", "name": "Orchidee"}}, {"type": "node", "id": 570752344, "lat": 50.9212495, "lon": 6.9621389, "tags": {"addr:city": "K\u00f6ln", "addr:country": "DE", "addr:housenumber": "15", "addr:postcode": "50678", "addr:street": "Alteburger Stra\u00dfe", "amenity": "bar"}}, {"type": "node", "id": 571873738, "lat": 50.9212731, "lon": 6.9616189, "tags": {"addr:city": "K\u00f6ln", "addr:country": "DE", "addr:housenumber": "22", "addr:postcode": "50678", "addr:street": "Ubierring", "amenity": "bar", "check_date:opening_hours": "2022-12-15", "name": "Coellner", "opening_hours:signed": "no", "website": "https://coellner-bar.de/", "wheelchair": "no"}}, {"type": "node", "id": 667782414, "lat": 50.9292666, "lon": 6.9377164, "tags": {"amenity": "bar", "description": "Cafe Bistro Biergarten", "name": "La Croque", "smoking": "isolated", "wheelchair": "no"}}, {"type": "node", "id": 763221006, "lat": 50.9319061, "lon": 6.932383, "tags": {"addr:city": "K\u00f6ln", "addr:housenumber": "94", "addr:postcode": "50674", "addr:street": "Lindenstra\u00dfe", "amenity": "bar", "name": "Redrum Rockbar", "outdoor_seating": "no", "smoking": "outside", "wheelchair": "limited"}}, {"type": "node", "id": 809813841, "lat": 50.9298775, "lon": 6.9392424, "tags": {"amenity": "bar", "name": "Sp\u00e4ti K\u00f6ln", "wheelchair": "no"}}, {"type": "node", "id": 826292837, "lat": 50.928723, "lon": 6.9390639, "tags": {"addr:city": "K\u00f6ln", "addr:country": "DE", "addr:housenumber": "25", "addr:postcode": "50674", "addr:street": "Kyffh\u00e4userstra\u00dfe", "amenity": "bar", "brewery": "yes;Guinness;Kilkenny", "name": "The Black Sheep Irish Pub", "opening_hours": "Mo-Th 18:00-01:00; Fr-Sa 18:00-03:00", "outdoor_seating": "no", "website": "http://facebook.com/blacksheepcgn", "wheelchair": "no"}}, {"type": "node", "id": 849724556, "lat": 50.9287379, "lon": 6.9391708, "tags": {"addr:city": "K\u00f6ln", "addr:country": "DE", "addr:housenumber": "23", "addr:postcode": "50674", "addr:street": "Kyffh\u00e4userstra\u00dfe", "amenity": "bar", "name": "Soylent Green", "opening_hours": "Su-Th 19:00+; Fr-Sa 19:00+", "wheelchair": "no", "wifi": "no"}}, {"type": "node", "id": 849724586, "lat": 50.9289154, "lon": 6.9405396, "tags": {"addr:city": "K\u00f6ln", "addr:country": "DE", "addr:housenumber": "5", "addr:postcode": "50674", "addr:street": "Kyffh\u00e4userstra\u00dfe", "amenity": "bar", "name": "Shooter Stars"}}, {"type": "node", "id": 937529177, "lat": 50.9347392, "lon": 6.9411509, "tags": {"amenity": "bar", "description": "Gay bar", "gay": "yes", "name": "Iron", "website": "http://www.iron-bar.com/", "wheelchair": "limited"}}, {"type": "node", "id": 937530545, "lat": 50.9347391, "lon": 6.9408009, "tags": {"addr:city": "K\u00f6ln", "addr:housenumber": "51", "addr:postcode": "50676", "addr:street": "Schaafenstra\u00dfe", "amenity": "bar", "description": "Gay bar for younger people", "gay": "yes", "name": "Die Mumu", "opening_hours": "Su-Th 19:00-01:00, Sa-Su 19:00-05:00", "phone": "+49 221 16867277", "toilets:wheelchair": "no", "website": "https://chayns.net/59144-04493/album", "wheelchair": "no"}}, {"type": "node", "id": 938889650, "lat": 50.9344799, "lon": 6.9407671, "tags": {"amenity": "bar", "description": "Gay cocktail bar. Mixed ages", "gay": "men", "name": "ix-bar", "wheelchair": "limited"}}, {"type": "node", "id": 985923530, "lat": 50.9297438, "lon": 6.9396166, "tags": {"amenity": "bar", "name": "Museum", "opening_hours:signed": "no", "operator": "BSB Gastronomie GmbH", "phone": "+49 221 23 20 98", "source": "local knowledge", "toilets:wheelchair": "no", "website": "https://www.museum-kneipe.de/", "wheelchair": "yes"}}, {"type": "node", "id": 1069189906, "lat": 50.9334547, "lon": 6.9339193, "tags": {"addr:city": "K\u00f6ln", "addr:housenumber": "94", "addr:postcode": "50674", "addr:street": "Roonstra\u00dfe", "amenity": "bar", "name": "Ona Mor", "opening_hours": "20:00-02:00", "phone": "+49 221 16874524", "smoking": "outside", "website": "http://www.onamor.de/", "wheelchair": "yes", "wheelchair:description": "Alles ebenerdig, Toilette schmal"}}, {"type": "node", "id": 1080251832, "lat": 50.936622, "lon": 6.935089, "tags": {"addr:city": "K\u00f6ln", "addr:housenumber": "50", "addr:postcode": "50674", "addr:street": "Aachener Stra\u00dfe", "amenity": "bar", "name": "Lauschgift"}}, {"type": "node", "id": 1217588473, "lat": 50.9295973, "lon": 6.9378369, "tags": {"addr:city": "K\u00f6ln", "addr:country": "DE", "addr:housenumber": "26", "addr:postcode": "50674", "addr:street": "Z\u00fclpicher Stra\u00dfe", "amenity": "bar", "name": "Hillebrands", "wheelchair": "limited"}}, {"type": "node", "id": 1629678507, "lat": 50.9288812, "lon": 6.9387101, "tags": {"amenity": "bar", "name": "Piranha", "smoking": "yes", "website": "https://www.piranha-koeln.de/", "wheelchair": "limited"}}, {"type": "node", "id": 1643520936, "lat": 50.9291294, "lon": 6.9374867, "tags": {"addr:city": "K\u00f6ln", "addr:country": "DE", "addr:housenumber": "25", "addr:postcode": "50674", "addr:street": "Z\u00fclpicher Stra\u00dfe", "amenity": "bar", "name": "Cuba Bar", "wheelchair": "limited"}}, {"type": "node", "id": 1643520945, "lat": 50.9293365, "lon": 6.9373726, "tags": {"addr:city": "K\u00f6ln", "addr:country": "DE", "addr:housenumber": "36", "addr:postcode": "50674", "addr:street": "Z\u00fclpicher Stra\u00dfe", "amenity": "bar", "name": "Cubana", "wheelchair": "limited"}}, {"type": "node", "id": 1643520989, "lat": 50.9300595, "lon": 6.9386697, "tags": {"addr:city": "K\u00f6ln", "addr:country": "DE", "addr:housenumber": "10", "addr:postcode": "50674", "addr:street": "Z\u00fclpicher Stra\u00dfe", "amenity": "bar", "name": "Kwartier", "toilets:wheelchair": "no", "wheelchair": "no"}}, {"type": "node", "id": 1643521006, "lat": 50.9293861, "lon": 6.9374653, "tags": {"addr:city": "K\u00f6ln", "addr:country": "DE", "addr:housenumber": "34", "addr:postcode": "50674", "addr:street": "Z\u00fclpicher Stra\u00dfe", "amenity": "bar", "name": "Mojitos", "wheelchair": "no"}}, {"type": "node", "id": 1643521285, "lat": 50.9290459, "lon": 6.937347, "tags": {"addr:city": "K\u00f6ln", "addr:country": "DE", "addr:housenumber": "29", "addr:postcode": "50674", "addr:street": "Z\u00fclpicher Stra\u00dfe", "amenity": "bar", "internet_access": "wlan", "internet_access:fee": "no", "name": "Soul Bar", "operator": "Uzun Gastronomiebetriebe GmbH", "wheelchair": "limited"}}, {"type": "node", "id": 1643521362, "lat": 50.929316, "lon": 6.9378171, "tags": {"addr:city": "K\u00f6ln", "addr:country": "DE", "addr:housenumber": "17", "addr:postcode": "50674", "addr:street": "Z\u00fclpicher Stra\u00dfe", "amenity": "bar", "cuisine": "shisha", "name": "Goldapfel", "note": "Am 28 Okt 2018: sieht verlassen aus.", "wheelchair": "no"}}, {"type": "node", "id": 2558350445, "lat": 50.9215019, "lon": 6.9611457}, {"type": "node", "id": 2558350467, "lat": 50.9215136, "lon": 6.9612143}, {"type": "node", "id": 2558350482, "lat": 50.9215241, "lon": 6.96121}, {"type": "node", "id": 2558350484, "lat": 50.9215285, "lon": 6.9612355}, {"type": "node", "id": 2558350549, "lat": 50.9216325, "lon": 6.9610578}, {"type": "node", "id": 2558350553, "lat": 50.9216372, "lon": 6.9610853}, {"type": "node", "id": 2558350554, "lat": 50.9216398, "lon": 6.9610842}, {"type": "node", "id": 2558350558, "lat": 50.9216411, "lon": 6.961187}, {"type": "node", "id": 2558350561, "lat": 50.9216435, "lon": 6.9611055}, {"type": "node", "id": 2558350568, "lat": 50.9216488, "lon": 6.9611542}, {"type": "node", "id": 2558350575, "lat": 50.9216514, "lon": 6.9611531}, {"type": "node", "id": 2558350576, "lat": 50.9216534, "lon": 6.9611814}, {"type": "node", "id": 2725052256, "lat": 50.9347476, "lon": 6.9408751, "tags": {"addr:city": "K\u00f6ln", "addr:housenumber": "49", "addr:postcode": "50676", "addr:street": "Schaafenstra\u00dfe", "amenity": "bar", "name": "Zentralgarderobe Bermudadreieck", "opening_hours": "Fr-Sa 21:00-06:00", "toilets": "no", "website": "http://www.zentralgarderobe.com", "wheelchair": "yes"}}, {"type": "node", "id": 2725057244, "lat": 50.9347872, "lon": 6.9413866, "tags": {"addr:city": "K\u00f6ln", "addr:housenumber": "20", "addr:postcode": "50676", "addr:street": "Balduinstra\u00dfe", "amenity": "bar", "gay": "yes", "gay:men": "only", "name": "Kinkz", "opening_hours": "Tu-Th 19:00-02:00,Fr-Sa 19:00-04:00,Su 17:00-02:00", "phone": "+49 221 16875038", "toilets:wheelchair": "no", "website": "http://www.kinkz.wtf", "wheelchair": "no"}}, {"type": "node", "id": 2725059582, "lat": 50.9348923, "lon": 6.9431138, "tags": {"addr:city": "K\u00f6ln", "addr:housenumber": "51", "addr:postcode": "50676", "addr:street": "Am Rinkenpfuhl", "amenity": "bar", "name": "Maxbar", "opening_hours": "Mo off; Tu-Th 20:00-01:00, Fr-Sa 20:00-03:00, Su 19:00-01:00", "phone": "+49 221 16850395", "website": "http://www.maxbar-cologne.de", "wheelchair": "limited"}}, {"type": "node", "id": 2846287748, "lat": 50.9224352, "lon": 6.9597325, "tags": {"addr:city": "K\u00f6ln", "addr:housenumber": "10", "addr:postcode": "50678", "addr:street": "Im Ferkulum", "amenity": "bar", "name": "Bistro Restaurant Kajtek", "phone": "+49 221 4292622", "website": "http://www.restaurant-kajtek.de/"}}, {"type": "node", "id": 3078084194, "lat": 50.9297309, "lon": 6.9399832, "tags": {"addr:city": "K\u00f6ln", "addr:country": "DE", "addr:housenumber": "19", "addr:postcode": "50674", "addr:street": "Roonstra\u00dfe", "amenity": "bar", "name": "M\u00e4urer", "old_name": "Boogaloo", "wheelchair": "no"}}, {"type": "node", "id": 3465117721, "lat": 50.9346857, "lon": 6.94027, "tags": {"addr:city": "K\u00f6ln", "addr:housenumber": "61a", "addr:postcode": "50676", "addr:street": "Schaafenstra\u00dfe", "amenity": "bar", "gay": "yes", "name": "Exile on Main Street", "opening_hours": "Fr,Sa,PH -1 day 21:00-05:00", "smoking": "no"}}, {"type": "node", "id": 4396248670, "lat": 50.9302786, "lon": 6.9390134, "tags": {"amenity": "bar", "name": "Shorty Shooter Bar", "opening_hours": "Mo-Sa 20:00-03:00", "wheelchair": "yes"}}, {"type": "node", "id": 5450604088, "lat": 50.9215073, "lon": 6.9611115}, {"type": "node", "id": 5450604089, "lat": 50.9215124, "lon": 6.9611413}, {"type": "node", "id": 5624515121, "lat": 50.9349184, "lon": 6.9378706, "tags": {"amenity": "bar", "name": "Spirits", "opening_hours": "Mo-Th 20:00-02:00; Fr-Sa 20:00-03:00", "website": "http://www.spiritsbar.de"}}, {"type": "node", "id": 5742063821, "lat": 50.9219995, "lon": 6.9592103, "tags": {"amenity": "bar", "name": "Weingarten Severinstorburg"}}, {"type": "node", "id": 5948719515, "lat": 50.9292056, "lon": 6.9371559, "tags": {"addr:housenumber": "40", "addr:street": "Z\u00fclpicher Stra\u00dfe", "amenity": "bar", "cuisine": "cocktail", "internet_access": "wlan", "internet_access:fee": "no", "name": "Eri's Bar"}}, {"type": "node", "id": 6881635389, "lat": 50.916109, "lon": 6.9612959, "tags": {"amenity": "bar", "name": "Astoria"}}, {"type": "node", "id": 7029757585, "lat": 50.9313131, "lon": 6.9403586, "tags": {"amenity": "bar", "name": "Cent Club"}}, {"type": "node", "id": 7029834085, "lat": 50.9200296, "lon": 6.954964, "tags": {"amenity": "bar", "name": "KRAUTIs"}}, {"type": "node", "id": 7271584664, "lat": 50.9204531, "lon": 6.959585, "tags": {"amenity": "bar", "name": "Umbibar", "wheelchair": "yes"}}, {"type": "node", "id": 10576613370, "lat": 50.9282309, "lon": 6.9403594, "tags": {"addr:city": "K\u00f6ln", "addr:country": "DE", "addr:housenumber": "20", "addr:postcode": "50674", "addr:street": "Luxemburger Stra\u00dfe", "amenity": "bar", "name": "IVY"}}, {"type": "way", "id": 566058700, "nodes": [2558350549, 2558350553, 2558350554, 2558350561, 2558350575, 2558350568, 2558350576, 2558350558, 2558350484, 2558350482, 2558350467, 2558350445, 5450604089, 5450604088, 2558350549], "tags": {"amenity": "bar", "contact:phone": "+49 221 80148450", "contact:website": "http://www.lichtung.ws/", "level": "0;-1", "name": "Kulturcaf\u00e9 Lichtung", "opening_hours:signed": "no", "outdoor_seating": "no", "short_name": "Lichtung", "smoking": "no", "toilets": "yes", "toilets:access": "customers", "toilets:wheelchair": "no", "wheelchair": "no"}}]}