{"version": 0.6, "generator": "Overpass API 0.7.60.2 e4cf9f7a", "osm3s": {"timestamp_osm_base": "2023-04-29T12:57:54Z", "copyright": "The data included in this document is from www.openstreetmap.org. The data is made available under ODbL."}, "elements": [{"type": "node", "id": 565438560, "lat": 50.9474832, "lon": 7.0895207, "tags": {"addr:city": "K\u00f6ln", "addr:housenumber": "1096", "addr:postcode": "51109", "addr:street": "Olpener Stra\u00dfe", "amenity": "restaurant", "contact:email": "bagio@gmx.de", "contact:phone": "+49 163 8658248", "contact:website": "http://www.koenigstein-koeln.de/", "cuisine": "italian_pizza;italian", "name": "Roccos Kitchen", "opening_hours": "Mo-Sa 17:00-23:00; Su 15:00-22:00", "outdoor_seating": "yes", "takeaway": "no"}}, {"type": "node", "id": 565438638, "lat": 50.9454515, "lon": 7.0783014, "tags": {"amenity": "restaurant", "name": "Gut Wistorfs", "wheelchair": "limited"}}, {"type": "node", "id": 565516793, "lat": 50.947197, "lon": 7.0803369, "tags": {"addr:housenumber": "592", "addr:postcode": "51109", "addr:street": "Br\u00fccker Mauspfad", "amenity": "restaurant", "contact:facebook": "Metithai", "contact:phone": "+49 221 89060555", "cuisine": "thai", "name": "Meti Thai", "opening_hours": "Mo, We-Sa 17:00-21:00; Su 16:00-21:00", "wheelchair": "limited", "wheelchair:description": "Eingang ohne Stufen. Toilette zu eng und klein, demnach nicht f\u00fcr Rollstuhlfahrer geeignet."}}, {"type": "node", "id": 569085114, "lat": 50.9486057, "lon": 7.078922, "tags": {"amenity": "restaurant", "name": "Paradiso"}}, {"type": "node", "id": 569174686, "lat": 50.9449756, "lon": 7.0758753, "tags": {"amenity": "restaurant", "check_date:opening_hours": "2021-10-27", "cuisine": "italian", "name": "La Vecchia Trattoria", "opening_hours": "Tu-Su,PH 12:00-14:30, Tu-Su 18:00-22:30", "outdoor_seating": "yes", "wheelchair": "limited"}}, {"type": "node", "id": 3353148986, "lat": 50.949049, "lon": 7.1030819}, {"type": "node", "id": 3353149457, "lat": 50.949141, "lon": 7.1029922}, {"type": "node", "id": 3353149543, "lat": 50.9491879, "lon": 7.103136}, {"type": "node", "id": 3353149844, "lat": 50.9491093, "lon": 7.1032218}, {"type": "node", "id": 3353149887, "lat": 50.949151, "lon": 7.1030514}, {"type": "node", "id": 3353149997, "lat": 50.9491601, "lon": 7.1030417}, {"type": "node", "id": 3634479798, "lat": 50.945179, "lon": 7.0783009}, {"type": "node", "id": 3634479805, "lat": 50.9451998, "lon": 7.0783998}, {"type": "node", "id": 3634479806, "lat": 50.9452, "lon": 7.0783998}, {"type": "node", "id": 3634479807, "lat": 50.9452029, "lon": 7.0784131}, {"type": "node", "id": 3634479834, "lat": 50.9453052, "lon": 7.0782342}, {"type": "node", "id": 3634479842, "lat": 50.945329, "lon": 7.0783457}, {"type": "node", "id": 5435080824, "lat": 50.9456973, "lon": 7.0737399, "tags": {"addr:city": "K\u00f6ln", "addr:housenumber": "864b", "addr:postcode": "51109", "addr:street": "Olpener Stra\u00dfe", "amenity": "restaurant", "contact:email": "info@holikoeln.de", "contact:facebook": "holikoeln", "contact:instagram": "holikoeln", "contact:mobile": "+49 163 5043714", "contact:phone": "+49 221 88747373", "contact:website": "https://holikoeln.de", "cuisine": "indian", "name": "Holi - Indian Restaurant & Cocktail Bar", "opening_hours": "Mo-Su 12:00-22:00"}}, {"type": "node", "id": 8003353191, "lat": 50.9457134, "lon": 7.0812427, "tags": {"addr:housenumber": "576", "addr:postcode": "51109", "addr:street": "Br\u00fccker Mauspfad", "amenity": "restaurant", "cuisine": "sushi", "diet:vegan": "yes", "diet:vegetarian": "yes", "name": "Kuroneko", "opening_hours": "Tu-Fr 12:00-14:30, 17:00-21:00; Sa 17:00-22:00; Su 17:00-21:00", "wheelchair": "yes"}}, {"type": "way", "id": 249740295, "nodes": [3353149887, 3353149997, 3353149457, 3353148986, 3353149844, 3353149543, 3353149887], "tags": {"addr:city": "Bergisch Gladbach", "addr:country": "DE", "addr:housenumber": "5", "addr:postcode": "51427", "addr:street": "In der Auen", "amenity": "restaurant", "building": "yes", "cuisine": "kebab", "name": "Amala", "opening_hours:url": "http://www.amala-restaurant.de/", "outdoor_seating": "yes", "website": "http://www.amala-restaurant.de/"}}, {"type": "way", "id": 358539712, "nodes": [3634479834, 3634479798, 3634479805, 3634479806, 3634479807, 3634479842, 3634479834], "tags": {"addr:city": "K\u00f6ln", "addr:country": "DE", "addr:housenumber": "928", "addr:postcode": "51109", "addr:street": "Olpener Stra\u00dfe", "amenity": "restaurant", "building": "yes", "building:use": "foodservice", "name": "Weinhaus zur alten Schule", "wheelchair": "limited"}}]}