{"version": 0.6, "generator": "Overpass API 0.7.60.2 e4cf9f7a", "osm3s": {"timestamp_osm_base": "2023-04-29T12:57:54Z", "copyright": "The data included in this document is from www.openstreetmap.org. The data is made available under ODbL."}, "elements": [{"type": "node", "id": 454925547, "lat": 50.9370633, "lon": 6.8955023, "tags": {"addr:city": "K\u00f6ln", "addr:housenumber": "561", "addr:postcode": "50933", "addr:street": "Aachener Stra\u00dfe", "amenity": "restaurant", "name": "Marienbild", "opening_hours": "Mo off; Tu-Fr 17:00+; Sa-Su 12:00+; PH 12:00+", "website": "https://www.marienbild.de/", "wheelchair": "limited"}}, {"type": "node", "id": 643559321, "lat": 50.9448684, "lon": 6.8872338, "tags": {"amenity": "restaurant", "cuisine": "regional", "name": "Technologiepark-Casino", "opening_hours": "Mo-Fr 08:00-16:00"}}, {"type": "node", "id": 1393034351, "lat": 50.9402846, "lon": 6.8894285, "tags": {"addr:city": "K\u00f6ln", "addr:country": "DE", "addr:housenumber": "58", "addr:postcode": "50933", "addr:street": "Eupener Stra\u00dfe", "amenity": "restaurant", "cuisine": "asian", "name": "Lika asiatische K\u00fcche", "opening_hours": "Mo-Fr 11:00-15:00, 17:00-22:00; Su, PH 14:00-22:30; Sa off", "phone": "+49 221 8000400", "website": "http://lika-imbiss.de", "wheelchair": "no"}}, {"type": "node", "id": 1395343949, "lat": 50.9396943, "lon": 6.8890934, "tags": {"amenity": "restaurant", "cuisine": "thai", "name": "Viet-Thai", "opening_hours": "Tu-Fr 00:00-15:00,17:00-22:00; Sa 16:00-22:00; Su 12:00-15:00,17:00-22:00", "wheelchair": "limited"}}, {"type": "node", "id": 1395343963, "lat": 50.9456067, "lon": 6.8899259, "tags": {"amenity": "restaurant", "cuisine": "italian", "name": "Il Pranzo"}}, {"type": "node", "id": 1395344009, "lat": 50.9375553, "lon": 6.8931582, "tags": {"addr:city": "K\u00f6ln", "addr:country": "DE", "addr:housenumber": "500", "addr:postcode": "50933", "addr:street": "Aachener Stra\u00dfe", "amenity": "restaurant", "cuisine": "japanese", "diet:vegan": "yes", "diet:vegetarian": "yes", "name": "bento box", "opening_hours": "Mo-Fr 11:30-22:00; Sa,Su 12:00-22:00", "phone": "+49 221 6060170", "website": "https://www.bentobox.de/", "wheelchair": "yes"}}, {"type": "node", "id": 1416339583, "lat": 50.9379733, "lon": 6.8824767, "tags": {"amenity": "restaurant", "cuisine": "greek", "name": "Aphrodite", "opening_hours": "Tu-Th 17:00-24:00; Fr-Su 12:00-15:00, 17:00-24:00", "outdoor_seating": "yes", "website": "https://www.aphroditerestaurant.de/", "wheelchair": "no"}}, {"type": "node", "id": 2596046153, "lat": 50.9454169, "lon": 6.8881943}, {"type": "node", "id": 2596046157, "lat": 50.9454237, "lon": 6.8879795}, {"type": "node", "id": 2596046181, "lat": 50.9455021, "lon": 6.8879848}, {"type": "node", "id": 2596046195, "lat": 50.9455185, "lon": 6.8882024}, {"type": "node", "id": 2596046197, "lat": 50.9455241, "lon": 6.8880413}, {"type": "node", "id": 2636515777, "lat": 50.9369834, "lon": 6.899318, "tags": {"addr:postcode": "50933", "amenity": "restaurant", "cuisine": "chinese;asian", "name": "Lin's Garden", "opening_hours": "Mo-Sa 10:30-15:00, 17:30-23:00; Su 10:30-23:00", "phone": "+49 221 4747795", "source": "Openstreetbugs"}}, {"type": "node", "id": 4109280494, "lat": 50.9404084, "lon": 6.8993108, "tags": {"addr:city": "K\u00f6ln", "addr:country": "DE", "addr:housenumber": "80", "addr:postcode": "50933", "addr:street": "Maarweg", "addr:suburb": "Braunsfeld", "amenity": "restaurant", "contact:email": "info@brauns-koeln.de", "contact:phone": "+49 221543561", "contact:website": "https://www.brauns-koeln.de/", "cuisine": "balkan;regional;seasonal", "name": "Brauns", "opening_hours": "Tu-Su 17:30-24:00", "takeaway": "yes"}}, {"type": "node", "id": 4458435599, "lat": 50.9369038, "lon": 6.9014647, "tags": {"addr:postcode": "50933", "amenity": "restaurant", "cuisine": "thai", "name": "Lannathai", "opening_hours": "Mo-Fr 12:00-15:00, 17:30-23:00; Sa 15:00-00:00", "phone": "+49 221 45341856", "website": "http://www.lannathai.de"}}, {"type": "node", "id": 4465312862, "lat": 50.9385144, "lon": 6.9089628, "tags": {"amenity": "restaurant", "cuisine": "italian", "name": "cantinetta osteria", "opening_hours": "Mo-Su, PH 12:00-22:00", "outdoor_seating": "yes", "website": "https://www.ameronhotels.com/de/hotel-regent-koeln/cantinetta-restaurant-ehrenfeld"}}, {"type": "node", "id": 5597083331, "lat": 50.9416812, "lon": 6.9088459, "tags": {"addr:city": "K\u00f6ln", "addr:housenumber": "2", "addr:postcode": "50933", "addr:street": "Stolberger Stra\u00dfe", "amenity": "restaurant", "cuisine": "pizza", "diet:vegetarian": "yes", "name": "Lopes", "opening_hours": "Mo-Fr 11:30-15:00,18:00-22:00; Sa18:00-22:00", "phone": "+49 221 987 47 547"}}, {"type": "node", "id": 6200768485, "lat": 50.9371536, "lon": 6.8904874, "tags": {"addr:city": "K\u00f6ln", "addr:housenumber": "625", "addr:postcode": "50933", "addr:street": "Aachener Stra\u00dfe", "amenity": "restaurant", "capacity": "200", "cuisine": "mediterranean", "diet:vegetarian": "yes", "name": "Restaurant La Bussola", "opening_hours:signed": "no", "outdoor_seating": "yes", "toilets:wheelchair": "yes", "wheelchair": "yes"}}, {"type": "node", "id": 6631908146, "lat": 50.9415196, "lon": 6.898975, "tags": {"amenity": "restaurant", "cuisine": "pizza", "name": "Lava", "opening_hours": "Mo-Fr 07:00-20:00", "wheelchair": "limited"}}, {"type": "node", "id": 6670648805, "lat": 50.9406221, "lon": 6.8888146, "tags": {"amenity": "restaurant", "cuisine": "italian", "name": "Cilentano", "opening_hours": "Mo,We-Su 12:00-22:00", "wheelchair": "yes"}}, {"type": "node", "id": 9098668034, "lat": 50.9454334, "lon": 6.8879802, "tags": {"camera:direction": "300", "camera:mount": "wall", "camera:type": "fixed", "man_made": "surveillance", "surveillance": "public", "surveillance:type": "camera", "surveillance:zone": "area"}}, {"type": "node", "id": 10705441500, "lat": 50.9369844, "lon": 6.8996575, "tags": {"addr:city": "K\u00f6ln", "addr:housenumber": "509", "addr:postcode": "50933", "addr:street": "Aachener Stra\u00dfe", "amenity": "restaurant", "contact:phone": "+49 221 56076030", "cuisine": "middle_eastern,mediterranean,falafel", "diet:vegetarian": "yes", "name": "Lim Food", "opening_hours": "Mo-Sa 11:00-22:00,Su 12:00-22:00"}}, {"type": "way", "id": 253715303, "nodes": [2596046195, 2596046197, 2596046181, 9098668034, 2596046157, 2596046153, 2596046195], "tags": {"addr:city": "K\u00f6ln", "addr:housenumber": "159", "addr:postcode": "50933", "addr:street": "Eupener Stra\u00dfe", "amenity": "restaurant", "building": "restaurant", "check_date": "2021-09-16", "check_date:website": "2021-09-16", "comment": "Namenstafel \u00fcber T\u00fcr lautet Parkstore", "cuisine": "salad", "name": "Morgenstund", "outdoor_seating": "yes", "phone": "+49 221 78968240", "takeaway": "yes", "website": "https://www.morgenstund-koeln.org/", "wheelchair": "yes"}}]}