{"version": 0.6, "generator": "Overpass API 0.7.60.2 e4cf9f7a", "osm3s": {"timestamp_osm_base": "2023-04-29T12:57:54Z", "copyright": "The data included in this document is from www.openstreetmap.org. The data is made available under ODbL."}, "elements": [{"type": "node", "id": 232274294, "lat": 50.9649907, "lon": 6.9476391, "tags": {"addr:city": "K\u00f6ln", "addr:housenumber": "195", "addr:postcode": "50733", "addr:street": "Merheimer Stra\u00dfe", "amenity": "restaurant", "cuisine": "tapas", "name": "Aida", "opening_hours": "variable", "outdoor_seating": "yes", "phone": "+49 (0)173 / 767 81 12", "source": "survey", "website": "https://www.aidas-kitchen.de/", "wheelchair": "yes"}}, {"type": "node", "id": 246763441, "lat": 50.9660259, "lon": 6.9494246, "tags": {"addr:city": "K\u00f6ln", "addr:housenumber": "18", "addr:postcode": "50733", "addr:street": "Simon-Meister-Stra\u00dfe", "amenity": "restaurant", "cuisine": "italian", "name": "Pizzeria Ristorante Sardegna", "opening_hours": "Tu-Su 12:00-15:00,18:00-24:00", "source": "survey", "toilets:wheelchair": "no", "website": "https://pizzeriasardegna.eatbu.com", "wheelchair": "yes"}}, {"type": "node", "id": 247383458, "lat": 50.9607779, "lon": 6.9499798, "tags": {"addr:housenumber": "50", "addr:street": "Siebachstra\u00dfe", "amenity": "restaurant", "diet:vegan": "no", "diet:vegetarian": "yes", "name": "Fink", "opening_hours": "We-Su 17:00-23:00; Mo,Tu off", "outdoor_seating": "yes", "phone": "+49 221 78949989", "source": "known personally", "website": "https://www.fink-nippes.de", "website:menu": "https://www.fink-nippes.de/speisen/#prettyPhoto/0/", "wheelchair": "no"}}, {"type": "node", "id": 247383461, "lat": 50.9608398, "lon": 6.9496582, "tags": {"addr:city": "K\u00f6ln", "addr:housenumber": "61", "addr:postcode": "50733", "addr:street": "Siebachstra\u00dfe", "amenity": "restaurant", "cuisine": "italian", "delivery": "no", "name": "Da Franco", "opening_hours": "Mo-Su 18:00-23:30", "outdoor_seating": "yes", "phone": "+49221728862", "source": "survey", "takeaway": "yes", "wheelchair": "limited"}}, {"type": "node", "id": 252017007, "lat": 50.9645067, "lon": 6.9515413, "tags": {"addr:city": "K\u00f6ln", "addr:country": "DE", "addr:housenumber": "4", "addr:postcode": "50733", "addr:street": "Turmstra\u00dfe", "amenity": "restaurant", "cuisine": "regional", "name": "Rosenrot", "opening_hours": "Tu-Sa 10:00-21:30; Su-Mo 10:00-15:30", "phone": "+49 221 7325025", "source": "survey", "toilets:wheelchair": "no", "website": "http://rosenrot-koeln.de/", "wheelchair": "limited"}}, {"type": "node", "id": 252017287, "lat": 50.9664155, "lon": 6.9518029, "tags": {"addr:city": "K\u00f6ln", "addr:housenumber": "32", "addr:postcode": "50733", "addr:street": "Mauenheimer Stra\u00dfe", "amenity": "restaurant", "name": "Gernot's", "opening_hours": "Mo-Fr 12:00-24:00; PH,Sa,Su 10:00-24:00", "outdoor_seating": "yes", "phone": "+49 221 766 305", "smoking": "outside", "source": "survey", "toilets:wheelchair": "no", "website": "https://www.gernots.com/", "wheelchair": "no"}}, {"type": "node", "id": 252043799, "lat": 50.964225, "lon": 6.9560649, "tags": {"amenity": "restaurant", "name": "Haus Schnackertz", "opening_hours": "Tu-Sa 17:00-24:00; Su 11:30-14:30,17:00-22:00", "source": "survey", "wheelchair": "no"}}, {"type": "node", "id": 256216933, "lat": 50.9600013, "lon": 6.9547329, "tags": {"addr:city": "K\u00f6ln", "addr:housenumber": "182", "addr:postcode": "50733", "addr:street": "Neusser Stra\u00dfe", "amenity": "restaurant", "cuisine": "italian", "name": "Ristorante & Pizzeria Giovanni", "opening_hours": "Mo-Fr 12:00-15:00,18:00-23:00; Sa 18:00-23:00", "phone": "+49 221 731627", "website": "http://www.ristorantegiovanni-nippes.de/", "wheelchair": "limited"}}, {"type": "node", "id": 256313595, "lat": 50.9679472, "lon": 6.955228, "tags": {"amenity": "restaurant", "microbrewery": "no", "name": "Hahnheiser", "phone": "+49 221 7601898", "website": "http://www.hahnheiser.com", "wheelchair": "no"}}, {"type": "node", "id": 366619131, "lat": 50.9610892, "lon": 6.952498, "tags": {"amenity": "restaurant", "cuisine": "italian", "name": "Bistro degli Amici"}}, {"type": "node", "id": 538383875, "lat": 50.9658471, "lon": 6.9532935, "tags": {"addr:housenumber": "311", "addr:postcode": "50733", "addr:street": "Neusser Stra\u00dfe", "amenity": "restaurant", "cuisine": "thai", "name": "Thai Gourmet", "wheelchair": "no"}}, {"type": "node", "id": 1177842067, "lat": 50.9587161, "lon": 6.9476096, "tags": {"addr:housenumber": "26-28", "addr:postcode": "50733", "addr:street": "Hartwichstra\u00dfe", "amenity": "restaurant", "internet_access": "wlan", "name": "Osters Rudi", "opening_hours": "Mo-Th 16:00-01:00; Fr 16:00-03:00; Sa 14:00-03:00; Su 14:00-23:00", "phone": "+49 221 84561279", "website": "http://www.ostersrudi-nippes.de/"}}, {"type": "node", "id": 1349140550, "lat": 50.9703258, "lon": 6.9519605, "tags": {"amenity": "restaurant", "cuisine": "regional", "name": "Haus Robinson"}}, {"type": "node", "id": 1678255313, "lat": 50.9614496, "lon": 6.9520034, "tags": {"addr:street": "Kempener Stra\u00dfe", "amenity": "restaurant", "cuisine": "pizza;burger;salad;falafel", "delivery": "yes", "diet:vegan": "yes", "diet:vegetarian": "yes", "name": "Anaturess", "opening_hours": "Mo-Sa 11:00-22:00; Su 12:00-22:00", "operator": "G\u00fcnd\u00fczeri", "phone": "+49 176 43881469", "takeaway": "yes"}}, {"type": "node", "id": 2035277730, "lat": 50.9643351, "lon": 6.9590185}, {"type": "node", "id": 2035277736, "lat": 50.9643474, "lon": 6.9587961}, {"type": "node", "id": 2035277738, "lat": 50.9644125, "lon": 6.9590285}, {"type": "node", "id": 2035277741, "lat": 50.9643594, "lon": 6.9587709}, {"type": "node", "id": 2035277743, "lat": 50.9643787, "lon": 6.9587628}, {"type": "node", "id": 2035277746, "lat": 50.9644023, "lon": 6.9587684}, {"type": "node", "id": 2035277749, "lat": 50.9644172, "lon": 6.9587874}, {"type": "node", "id": 2035277752, "lat": 50.9644255, "lon": 6.9588164}, {"type": "node", "id": 2595391783, "lat": 50.9575352, "lon": 6.9423744}, {"type": "node", "id": 2595391794, "lat": 50.9575519, "lon": 6.9425083}, {"type": "node", "id": 2595391801, "lat": 50.9575559, "lon": 6.9423414}, {"type": "node", "id": 2595391811, "lat": 50.957559, "lon": 6.9423668}, {"type": "node", "id": 2595391822, "lat": 50.9575794, "lon": 6.9423339}, {"type": "node", "id": 2595391830, "lat": 50.9575823, "lon": 6.9423566}, {"type": "node", "id": 2595391853, "lat": 50.9576219, "lon": 6.9423442}, {"type": "node", "id": 2595391860, "lat": 50.9576402, "lon": 6.9424785}, {"type": "node", "id": 2982804906, "lat": 50.962632, "lon": 6.958849, "tags": {"amenity": "restaurant", "contact:facebook": "https://www.facebook.com/Soulbowlfood/", "diet:vegan": "only", "name": "Soulbowl", "opening_hours": "Mo-Fr 11:30-16:00; PH off"}}, {"type": "node", "id": 3221986525, "lat": 50.9605817, "lon": 6.9642249, "tags": {"addr:city": "K\u00f6ln", "addr:housenumber": "174", "addr:postcode": "50733", "addr:street": "Florastra\u00dfe", "amenity": "restaurant", "cuisine": "chinese", "delivery": "yes", "name": "Fromanda", "opening_hours": "Mo,We-Sa 12:00-15:00,17:30-22:30; PH,Su 12:00-22:30", "phone": "+49 221 99719762", "takeaway": "yes", "website": "https://www.fromandakoeln.de"}}, {"type": "node", "id": 3350867947, "lat": 50.9672499, "lon": 6.9534351, "tags": {"amenity": "restaurant", "cuisine": "italian", "name": "Pizzeria Mimmo & Santo", "opening_hours": "We-Su 12:30-22:30; Mo,Tu off", "toilets:wheelchair": "yes", "wheelchair": "yes", "wheelchair:description": "Ebenerdiger Eingang ohne Stufen, Empore \u00fcber Seiteneingang erreichbar, dort ist auch die barrierefreie Toilette"}}, {"type": "node", "id": 3537067299, "lat": 50.9559727, "lon": 6.9413923}, {"type": "node", "id": 3537067300, "lat": 50.956008, "lon": 6.9416676}, {"type": "node", "id": 3537067302, "lat": 50.9560378, "lon": 6.9416605}, {"type": "node", "id": 3537067303, "lat": 50.9560398, "lon": 6.9419166}, {"type": "node", "id": 3537067305, "lat": 50.9560564, "lon": 6.9420461}, {"type": "node", "id": 3537067306, "lat": 50.9560665, "lon": 6.9413621}, {"type": "node", "id": 3537067307, "lat": 50.9560693, "lon": 6.9419071}, {"type": "node", "id": 3537067308, "lat": 50.95607, "lon": 6.9413887}, {"type": "node", "id": 3537067309, "lat": 50.9561047, "lon": 6.9416484}, {"type": "node", "id": 3537067310, "lat": 50.9561246, "lon": 6.941414}, {"type": "node", "id": 3537067311, "lat": 50.9561345, "lon": 6.9415388}, {"type": "node", "id": 3537067312, "lat": 50.9561391, "lon": 6.9415746}, {"type": "node", "id": 3537067313, "lat": 50.9561404, "lon": 6.9415367}, {"type": "node", "id": 3537067314, "lat": 50.9561459, "lon": 6.9415722}, {"type": "node", "id": 3537067315, "lat": 50.9561516, "lon": 6.9420158}, {"type": "node", "id": 3537067316, "lat": 50.9561537, "lon": 6.9416328}, {"type": "node", "id": 3537067317, "lat": 50.9561545, "lon": 6.9414044}, {"type": "node", "id": 3537067319, "lat": 50.9561927, "lon": 6.9413919}, {"type": "node", "id": 3537067320, "lat": 50.9562077, "lon": 6.9415088}, {"type": "node", "id": 3537067321, "lat": 50.9562119, "lon": 6.9415401}, {"type": "node", "id": 3537067322, "lat": 50.95623, "lon": 6.9415341}, {"type": "node", "id": 3537067323, "lat": 50.9562321, "lon": 6.9415503}, {"type": "node", "id": 3537067324, "lat": 50.95626, "lon": 6.9415227}, {"type": "node", "id": 3537067325, "lat": 50.9562623, "lon": 6.9415405}, {"type": "node", "id": 3537067326, "lat": 50.9562627, "lon": 6.9413262}, {"type": "node", "id": 3537067327, "lat": 50.9562869, "lon": 6.9415138}, {"type": "node", "id": 4116869491, "lat": 50.9670963, "lon": 6.9534564, "tags": {"addr:city": "K\u00f6ln", "addr:housenumber": "332", "addr:postcode": "50733", "addr:street": "Neusser Stra\u00dfe", "amenity": "restaurant", "cuisine": "japanese", "email": "kontakt@shibuya-sushi.de", "name": "Shibuya Sushi Bar", "opening_hours": "Mo-Su 17:30-22:00", "opening_hours:kitchen": "Mo-Su 17:30-23:00", "outdoor_seating": "yes", "phone": "+49 221 30145045", "takeaway": "yes", "website": "http://shibuya-sushi.de/"}}, {"type": "node", "id": 4244890000, "lat": 50.9593626, "lon": 6.9519137, "tags": {"addr:city": "K\u00f6ln", "addr:country": "DE", "addr:housenumber": "35", "addr:postcode": "50733", "addr:street": "Holbeinstra\u00dfe", "amenity": "restaurant", "name": "Gasthaus im Viertel", "opening_hours": "Mo-Sa 18:00+", "website": "http://gasthaus-im-viertel.de/"}}, {"type": "node", "id": 4244890001, "lat": 50.9598087, "lon": 6.9499091, "tags": {"addr:city": "K\u00f6ln", "addr:country": "DE", "addr:housenumber": "1", "addr:postcode": "50733", "addr:street": "Sechzigstra\u00dfe", "amenity": "restaurant", "cuisine": "greek", "diet:vegan": "no", "diet:vegetarian": "yes", "name": "Jamas", "opening_hours": "Su-Th 17:30-23:00; Fr,Sa 17:30-24:00", "website": "https://www.jamas-restaurant.de/", "website:menu": "https://www.jamas-restaurant.de/speisen-und-getr%C3%A4nke/speisen/"}}, {"type": "node", "id": 4362008689, "lat": 50.9685931, "lon": 6.9490231, "tags": {"addr:city": "K\u00f6ln", "addr:housenumber": "92", "addr:postcode": "50733", "addr:street": "Mauenheimer Stra\u00dfe", "amenity": "restaurant", "name": "Altenberger Hof", "toilets:wheelchair": "yes", "wheelchair": "yes", "wheelchair:description": "Restaurant mit Biergarten"}}, {"type": "node", "id": 4839126453, "lat": 50.9642576, "lon": 6.9535778, "tags": {"addr:city": "K\u00f6ln", "addr:housenumber": "279", "addr:postcode": "50733", "addr:street": "Neusser Stra\u00dfe", "amenity": "restaurant", "cuisine": "turkish", "name": "Simitzade", "opening_hours": "Mo-Sa 07:00-20:00; Su 08:00-20:00", "phone": "+49 221 790 036 67", "website": "https://simitzade.eatbu.com/?lang=de", "wheelchair": "limited"}}, {"type": "node", "id": 5004459923, "lat": 50.9664837, "lon": 6.9536222, "tags": {"addr:city": "K\u00f6ln", "addr:housenumber": "316", "addr:postcode": "50733", "addr:street": "Neusser Stra\u00dfe", "addr:suburb": "Nippes", "amenity": "restaurant", "cuisine": "pizza", "name": "Piccola", "opening_hours": "Mo-Su 11:00-23:00", "wheelchair": "limited"}}, {"type": "node", "id": 8514726695, "lat": 50.9685308, "lon": 6.968728, "tags": {"addr:city": "K\u00f6ln", "addr:housenumber": "127", "addr:postcode": "50735", "addr:street": "Amsterdamer Stra\u00dfe", "amenity": "restaurant", "contact:email": "kontakt@chennaichef.de", "cuisine": "indian", "email": "kontakt@chennaichef.de", "name": "Chennai Chef", "opening_hours": "Mo, We-Fr 17:30-22:00; Sa, Su 12:30-22:00", "phone": "+49 221 42331993", "website": "https://www.chennaichef.de/"}}, {"type": "node", "id": 8514900867, "lat": 50.967459, "lon": 6.9533973, "tags": {"addr:city": "K\u00f6ln", "addr:housenumber": "340", "addr:postcode": "50733", "addr:street": "Neusser Stra\u00dfe", "amenity": "restaurant", "cuisine": "regional", "name": "Neppeser Gaffelstube", "phone": "+49 221 276 478 95", "website": "https://neppesergaffelstube.de"}}, {"type": "node", "id": 8515246150, "lat": 50.9648049, "lon": 6.9534644, "tags": {"addr:city": "K\u00f6ln", "addr:housenumber": "289", "addr:postcode": "50733", "addr:street": "Neusser Stra\u00dfe", "amenity": "restaurant", "cuisine": "sushi", "name": "Sushi Haus Nippes", "website": "http://www.sushihauskoeln.de/", "website:menu": "http://www.sushihauskoeln.de/menu/"}}, {"type": "node", "id": 8515310279, "lat": 50.9625593, "lon": 6.9517946, "tags": {"addr:city": "K\u00f6ln", "addr:housenumber": "61", "addr:postcode": "50733", "addr:street": "Wilhelmstra\u00dfe", "amenity": "restaurant", "contact:instagram": "tonys.tacos.nippes", "name": "Tony's Tacos", "opening_hours": "Tu-Fr 12:00-15:00,18:00-24:00; Sa 12:00-24:00", "operator": "A. Ramos", "outdoor_seating": "yes"}}, {"type": "node", "id": 9123999481, "lat": 50.964419, "lon": 6.9589224, "tags": {"entrance": "yes"}}, {"type": "node", "id": 9123999482, "lat": 50.9643413, "lon": 6.9589073, "tags": {"entrance": "yes"}}, {"type": "node", "id": 10030068418, "lat": 50.9632608, "lon": 6.9501346, "tags": {"amenity": "restaurant", "cuisine": "vietnamese", "name": "Hanoi46", "website": "https://hanoi46.de/"}}, {"type": "node", "id": 10816159579, "lat": 50.9625957, "lon": 6.9520593, "tags": {"amenity": "restaurant", "cuisine": "kebab;turkish", "diet:vegetarian": "yes", "name": "Bazar Kebap", "outdoor_seating": "yes", "takeaway": "yes", "website": "http://www.bazarkepab.de/"}}, {"type": "node", "id": 10816159582, "lat": 50.9634465, "lon": 6.9515418, "tags": {"amenity": "restaurant", "cuisine": "italian;pizza", "outdoor_seating": "yes"}}, {"type": "way", "id": 192997718, "nodes": [2035277752, 2035277749, 2035277746, 2035277743, 2035277741, 2035277736, 9123999482, 2035277730, 2035277738, 9123999481, 2035277752], "tags": {"addr:city": "K\u00f6ln", "addr:postcode": "50733", "addr:street": "Seekabelstra\u00dfe", "amenity": "restaurant", "building": "yes", "building:levels": "1", "cuisine": "regional", "diet:local": "yes", "heritage": "*", "heritage:operator": "BezirksRegierung", "name": "Bistro und Nachtcaf\u00e9 Tor 1", "old_name": "Werkstor 1 der Clouth-Werke", "opening_hours": "Mo-Fr 07:00-23:00; Sa 10:00-23:00", "phone": "+49 221 56092383", "website": "https://www.clouth104-gastro.de/"}}, {"type": "way", "id": 240381867, "nodes": [3537067311, 3537067313, 3537067310, 3537067317, 3537067319, 3537067320, 3537067321, 3537067322, 3537067323, 3537067325, 3537067324, 3537067327, 3537067326, 3537067308, 3537067306, 3537067299, 3537067300, 3537067302, 3537067307, 3537067303, 3537067305, 3537067315, 3537067309, 3537067316, 3537067314, 3537067312, 3537067311], "tags": {"addr:city": "K\u00f6ln", "addr:country": "DE", "addr:housename": "Vereinsheim ESV Olympia K\u00f6ln e.V.", "addr:housenumber": "11", "addr:postcode": "50739", "addr:street": "L\u00e4mmerstra\u00dfe", "amenity": "restaurant", "building": "yes", "name": "Olympia im Gleisdreieck", "phone": "+49 221 2762579"}}, {"type": "way", "id": 253637224, "nodes": [2595391853, 2595391830, 2595391822, 2595391801, 2595391811, 2595391783, 2595391794, 2595391860, 2595391853], "tags": {"addr:city": "K\u00f6ln", "addr:country": "DE", "addr:housenumber": "37", "addr:postcode": "50733", "addr:street": "Escher Stra\u00dfe", "amenity": "restaurant", "building": "yes", "building:use": "residential;industrial", "cuisine": "balkan", "name": "Haus Ecker", "website": "http://haus-ecker.de/"}}]}