{"version": 0.6, "generator": "Overpass API 0.7.60.2 e4cf9f7a", "osm3s": {"timestamp_osm_base": "2023-04-29T12:57:54Z", "copyright": "The data included in this document is from www.openstreetmap.org. The data is made available under ODbL."}, "elements": [{"type": "node", "id": 408530308, "lat": 50.9128991, "lon": 6.9283773, "tags": {"addr:city": "K\u00f6ln", "addr:housenumber": "41", "addr:postcode": "50939", "addr:street": "Petersbergstra\u00dfe", "amenity": "restaurant", "name": "Petersberger Hof", "opening_hours": "Mo-Fr 11:30-01:00, Sa-Su 10:00-01:00", "phone": "+49 221 443600", "smoking": "no", "website": "https://www.petersbergerhof.de", "wheelchair": "limited"}}, {"type": "node", "id": 432962984, "lat": 50.915224, "lon": 6.9273256, "tags": {"amenity": "restaurant", "indoor_seating": "yes", "name": "Eckstein", "opening_hours": "Mo-Sa 10:00-01:00, Su 11:00-01:00, PH 10:00-01:00", "outdoor_seating": "yes", "smoking": "no", "wheelchair": "limited"}}, {"type": "node", "id": 434303436, "lat": 50.9149049, "lon": 6.9292331, "tags": {"amenity": "restaurant", "name": "Trattoria Riviera"}}, {"type": "node", "id": 434303437, "lat": 50.9150161, "lon": 6.9289301, "tags": {"amenity": "restaurant", "cuisine": "french", "cuisine:crossover": "french;indian", "name": "Der vierte K\u00f6nig", "wheelchair": "no"}}, {"type": "node", "id": 440273998, "lat": 50.9123475, "lon": 6.9243027, "tags": {"addr:city": "K\u00f6ln", "addr:country": "DE", "addr:housenumber": "319a", "addr:postcode": "50939", "addr:street": "Luxemburger Stra\u00dfe", "amenity": "restaurant", "contact:fax": "+49 221 4202170", "contact:phone": "+49 221 4206949", "contact:website": "http://www.gaststaette-mehring.de/", "name": "Mehring", "note": "de:zu bestimmten Uhrzeiten auch ein \"unsicht-Bar\"-Restaurant (Details siehe http://www.unsicht-bar.de/)", "opening_hours": "Mo,Tu off; We-Su 18:00+", "operator": "Boris Swaczyna", "wheelchair": "no"}}, {"type": "node", "id": 985923537, "lat": 50.9109971, "lon": 6.9229315, "tags": {"addr:city": "K\u00f6ln", "addr:country": "DE", "addr:housenumber": "339", "addr:postcode": "50939", "addr:street": "Luxemburger Stra\u00dfe", "amenity": "restaurant", "name": "Gastst\u00e4tte D\u00fcrr", "toilets:wheelchair": "no", "wheelchair": "yes"}}, {"type": "node", "id": 1655560791, "lat": 50.9155043, "lon": 6.92691, "tags": {"addr:city": "K\u00f6ln", "addr:country": "DE", "addr:housenumber": "256", "addr:postcode": "50937", "addr:street": "Luxemburger Stra\u00dfe", "amenity": "restaurant", "cuisine": "austrian", "name": "Gasthaus Scherz", "opening_hours": "Sa 12:00-01:00, Fr 17:00-01:00, Mo-Th 17:00-24:00, Su 12:00-24:00", "phone": "+4922116929440", "smoking": "no", "website": "http://www.scherzrestaurant.de", "website:menu": "http://www.scherzrestaurant.de/wp-content/uploads/2022/03/Abendkarte-HP-18.3.pdf"}}, {"type": "node", "id": 3234770179, "lat": 50.9097018, "lon": 6.9283949, "tags": {"addr:city": "K\u00f6ln", "addr:country": "DE", "addr:housenumber": "15", "addr:postcode": "50939", "addr:street": "Klettenbergg\u00fcrtel", "amenity": "restaurant", "cuisine": "italian", "email": "info@pizzapasta-e-basta.de", "name": "Linos Bar Ristorante", "opening_hours": "Mo 12:00-22:30; We 10:00-22:30; Th 12:00-22:30; Fr 12:00-22:30; Sa 10:00-22:30; Su 12:00-22:30", "phone": "+49 221 94388030", "website": "https://www.linos-ristorante.de"}}, {"type": "node", "id": 3234878815, "lat": 50.9144718, "lon": 6.9303403, "tags": {"amenity": "restaurant", "cuisine": "regional", "name": "K\u00f6lsch Kultur", "opening_hours": "Mo-Th 17:00-01:00, Fr-Sa 17:00-02:00, Su 11:30-24:00", "toilets:wheelchair": "no", "website": "https://koelsch-kultur.koeln/"}}, {"type": "node", "id": 4691929089, "lat": 50.9134252, "lon": 6.932933, "tags": {"amenity": "restaurant", "cuisine": "italian", "name": "Corleone - Steinofen Pizza", "opening_hours": "Mo-Fr 16:00-22:15; PH,Sa,Su 11:30-22:15", "outdoor_seating": "yes", "phone": "+49 221 340 9360", "website": "https://www.corleone-steinofenpizza.com/"}}, {"type": "node", "id": 4691929091, "lat": 50.9141506, "lon": 6.9311923, "tags": {"amenity": "restaurant", "name": "ABS"}}, {"type": "node", "id": 6502148006, "lat": 50.9125211, "lon": 6.9244836, "tags": {"addr:housenumber": "217", "addr:street": "Luxemburger Stra\u00dfe", "amenity": "restaurant", "name": "Kim Ly", "opening_hours": "Tu-Su 12:00-15:00,18:00-21:00"}}, {"type": "node", "id": 9655128141, "lat": 50.9143253, "lon": 6.9307847, "tags": {"amenity": "restaurant", "cuisine": "italian", "name": "Arte e Bar - Da Carmelo", "website": "https://arteebar.metro.rest"}}]}