{"version": 0.6, "generator": "Overpass API 0.7.60.2 e4cf9f7a", "osm3s": {"timestamp_osm_base": "2023-04-29T12:57:54Z", "copyright": "The data included in this document is from www.openstreetmap.org. The data is made available under ODbL."}, "elements": [{"type": "node", "id": 268645372, "lat": 50.9711306, "lon": 7.0062013, "tags": {"addr:city": "K\u00f6ln", "addr:country": "DE", "addr:housenumber": "121a", "addr:postcode": "51063", "addr:street": "Clevischer Ring", "amenity": "restaurant", "name": "Gilden Brauhaus", "opening_hours": "Mo-Su 11:00-00:00", "phone": "+49-221-6406339", "website": "https://www.gilden-brauhaus.de/", "wheelchair": "limited"}}, {"type": "node", "id": 311365632, "lat": 50.9683214, "lon": 7.0167154, "tags": {"amenity": "restaurant", "email": "bistro@studio478.de", "fax": "+49 221 506089-09", "name": "Studio 478 - L&D Gastronomie", "phone": "+49 221 506089-56", "website": "http://www.studio478.de/"}}, {"type": "node", "id": 316698054, "lat": 50.959496, "lon": 7.0105631, "tags": {"addr:city": "K\u00f6ln", "addr:country": "DE", "addr:housenumber": "11-13", "addr:postcode": "51065", "addr:street": "Steinkopfstra\u00dfe", "amenity": "restaurant", "name": "Kolpinghaus", "phone": "+49-221-622971"}}, {"type": "node", "id": 343471463, "lat": 50.9691966, "lon": 7.0062661, "tags": {"amenity": "restaurant", "cuisine": "indian", "name": "Haldi Spoon", "website": "https://www.haldispoon.com", "wheelchair": "no"}}, {"type": "node", "id": 343578658, "lat": 50.9612829, "lon": 6.9971515, "tags": {"addr:postcode": "51063", "amenity": "restaurant", "cuisine": "german", "name": "Br\u00fcckeneck", "opening_hours": "closed", "phone": "+49 221 613593", "website": "https://gaststaette-brueckeneck.de/"}}, {"type": "node", "id": 343578669, "lat": 50.9624921, "lon": 6.9980613, "tags": {"addr:city": "K\u00f6ln", "addr:country": "DE", "addr:housenumber": "2-4", "addr:postcode": "51063", "addr:street": "M\u00fclheimer Freiheit", "amenity": "restaurant", "cafe": "yes", "cuisine": "international;italian", "name": "Frizzantino", "opening_hours": "Tu-Su 17:00-23:00", "outdoor_seating": "yes", "phone": "+49 221 56933116", "toilets:wheelchair": "no", "website": "http://www.frizzantino.de/", "wheelchair": "limited"}}, {"type": "node", "id": 343578696, "lat": 50.9641391, "lon": 7.0023901, "tags": {"addr:city": "K\u00f6ln", "addr:country": "DE", "addr:housenumber": "11", "addr:postcode": "51063", "addr:street": "Regentenstra\u00dfe", "amenity": "restaurant", "cuisine": "mexican", "name": "Haus Regent", "opening_hours": "Mo-Sa 10:00+; Su,PH 12:00+", "operator": "Cem Konuk", "phone": "+49-221-42325505", "website": "http://haus-regent.de/"}}, {"type": "node", "id": 343578779, "lat": 50.9693101, "lon": 7.0071802, "tags": {"addr:city": "K\u00f6ln", "addr:country": "DE", "addr:housenumber": "120-122", "addr:postcode": "51063", "addr:street": "Clevischer Ring", "amenity": "restaurant", "cuisine": "steak_house", "name": "Steakhaus \"Bei Marco\""}}, {"type": "node", "id": 448021117, "lat": 50.9492666, "lon": 6.9873943, "tags": {"addr:city": "K\u00f6ln", "addr:housenumber": "146b", "addr:postcode": "51063", "addr:street": "Deutz-M\u00fclheimer Stra\u00dfe", "amenity": "restaurant", "name": "Radieschen & Co", "website": "https://www.radieschenundco.de/"}}, {"type": "node", "id": 459173642, "lat": 50.9656217, "lon": 7.0095603, "tags": {"addr:city": "K\u00f6ln", "addr:country": "DE", "addr:housenumber": "25", "addr:postcode": "51063", "addr:street": "Keupstra\u00dfe", "amenity": "restaurant", "cuisine": "turkish", "name": "Teras"}}, {"type": "node", "id": 529935382, "lat": 50.9651316, "lon": 7.0101943, "tags": {"addr:city": "K\u00f6ln", "addr:country": "DE", "addr:housenumber": "45-47", "addr:postcode": "51063", "addr:street": "Keupstra\u00dfe", "amenity": "restaurant", "cuisine": "turkish", "name": "Mevlana", "opening_hours": "Mo-Su 06:00-02:00", "phone": "+49 221 626559", "website": "https://www.mevlanakoeln.de/", "wheelchair": "no"}}, {"type": "node", "id": 583314681, "lat": 50.9598048, "lon": 6.9960469, "tags": {"addr:city": "K\u00f6ln", "addr:country": "DE", "addr:housenumber": "203", "addr:postcode": "51063", "addr:street": "Deutz-M\u00fclheimer Stra\u00dfe", "amenity": "restaurant", "cuisine": "italian", "diet:vegetarian": "yes", "name": "Localino"}}, {"type": "node", "id": 583434199, "lat": 50.9723671, "lon": 7.0113183, "tags": {"addr:city": "K\u00f6ln", "addr:country": "DE", "addr:housenumber": "80-82", "addr:postcode": "51063", "addr:street": "Berliner Stra\u00dfe", "amenity": "restaurant", "name": "Haus Scholl", "source": "survey"}}, {"type": "node", "id": 603316687, "lat": 50.9594208, "lon": 7.0087276, "tags": {"addr:city": "K\u00f6ln", "addr:housenumber": "55", "addr:postcode": "51065", "addr:street": "Frankfurter Stra\u00dfe", "amenity": "restaurant", "cuisine": "kebab", "diet:vegetarian": "yes", "name": "EVIM", "outdoor_seating": "yes", "phone": "+49 221 6200120", "source": "sightwalk.de", "takeaway": "yes", "wheelchair": "limited"}}, {"type": "node", "id": 603316688, "lat": 50.9584633, "lon": 7.0095864, "tags": {"addr:city": "K\u00f6ln", "addr:country": "DE", "addr:housenumber": "62", "addr:postcode": "51065", "addr:street": "Frankfurter Stra\u00dfe", "amenity": "restaurant", "name": "Kupferhut", "opening_hours": "Mo-Sa 10:30-24:00+", "source": "sightwalk.de"}}, {"type": "node", "id": 654553687, "lat": 50.9601649, "lon": 6.981686, "tags": {"addr:city": "K\u00f6ln", "addr:housenumber": "2", "addr:postcode": "50735", "addr:street": "An der Schanz", "amenity": "restaurant", "brewery": "Sion", "cuisine": "regional", "email": "info@colonia-brauhaus.de", "name": "Colonia-Brauhaus", "outdoor_seating": "yes", "phone": "+49 221 7 15 63 55", "website": "https://www.colonia-brauhaus.de"}}, {"type": "node", "id": 765264632, "lat": 50.9637761, "lon": 7.0164031, "tags": {"addr:city": "K\u00f6ln", "addr:country": "DE", "addr:housenumber": "147", "addr:postcode": "51065", "addr:street": "Bergisch Gladbacher Stra\u00dfe", "amenity": "restaurant", "cuisine": "pizza", "name": "San Marco"}}, {"type": "node", "id": 1131670658, "lat": 50.9640391, "lon": 7.002312, "tags": {"addr:city": "K\u00f6ln", "addr:housenumber": "9", "addr:postcode": "51063", "addr:street": "Regentenstra\u00dfe", "amenity": "restaurant", "cuisine": "italian", "email": "daenzo@web.de", "name": "Da Enzo", "opening_hours": "Su-Mo,We-Fr 12:00-14:00,18:00-22:00; Sa 18:00-22:00; Tu off", "phone": "+49 221 623478", "website": "https://www.daenzo-ristorante.de/", "wheelchair": "no"}}, {"type": "node", "id": 1198461263, "lat": 50.9577321, "lon": 7.0115119, "tags": {"addr:city": "K\u00f6ln", "addr:housenumber": "1", "addr:postcode": "51065", "addr:street": "Montanusstra\u00dfe", "amenity": "restaurant", "cuisine": "german;italian;international", "email": "info@milano-brauhaus.com", "name": "Milano Restaurant & Brauhaus", "opening_hours": "Mo-Fr 09:00-02:00, Sa-Su 09:00-03:00", "phone": "+49 221 16904557", "sport": "9pin", "website": "http://milano-brauhaus.com", "wheelchair": "no"}}, {"type": "node", "id": 1671444195, "lat": 50.9646102, "lon": 7.010917, "tags": {"addr:postcode": "51063", "amenity": "restaurant", "cuisine": "turkish", "name": "Kilim", "website": "https://www.kilim-restaurant.de/"}}, {"type": "node", "id": 1854783056, "lat": 50.9657825, "lon": 7.0093377, "tags": {"addr:city": "K\u00f6ln", "addr:country": "DE", "addr:housenumber": "19", "addr:postcode": "51063", "addr:street": "Keupstra\u00dfe", "amenity": "restaurant", "cuisine": "turkish", "name": "Yaprak D\u00f6ner", "wheelchair": "no"}}, {"type": "node", "id": 1862696548, "lat": 50.9693573, "lon": 7.0064805, "tags": {"amenity": "restaurant", "cuisine": "turkish", "name": "Nusret D\u00fcr\u00fcm", "source": "knowledge"}}, {"type": "node", "id": 2065517372, "lat": 50.9505868, "lon": 6.9805299, "tags": {"amenity": "restaurant", "cuisine": "international", "name": "Eau de Cologne", "phone": "+49 221 98144 55", "website": "https://www.claudius-therme.de/de/eau-de-cologne.htm"}}, {"type": "node", "id": 2289024408, "lat": 50.9703658, "lon": 7.0143217, "tags": {"addr:housenumber": "23", "addr:postcode": "51063", "addr:street": "Schanzenstra\u00dfe", "amenity": "restaurant", "cuisine": "international", "name": "Noah's Cantina & Catering", "opening_hours": "Mo-Fr 08:00-15:00", "website": "http://noahs-cantina.de/"}}, {"type": "node", "id": 2343807705, "lat": 50.9655849, "lon": 7.009217, "tags": {"addr:city": "K\u00f6ln", "addr:country": "DE", "addr:housenumber": "44-46", "addr:postcode": "51063", "addr:street": "Keupstra\u00dfe", "amenity": "restaurant", "cuisine": "turkish", "name": "Asmali Konak", "opening_hours": "Su-Th 08:00-01:00; Fr 08:00-03:00; Sa 08:00-06:00", "phone": "+49-221-9385725", "toilets:wheelchair": "no", "website": "https://asmali-konak-deluxe.eatbu.com/", "wheelchair": "limited", "wheelchair:description": "Toilette im Keller"}}, {"type": "node", "id": 2343813122, "lat": 50.9642004, "lon": 7.0010283, "tags": {"addr:housenumber": "91", "addr:street": "Wallstra\u00dfe", "amenity": "restaurant", "breakfast": "yes", "cuisine": "burger;german;fish;breakfast;local;mediterranean", "diet:vegan": "yes", "diet:vegetarian": "yes", "email": "info@cafe-vreiheit.de", "name": "Caf\u00e9 Vreiheit", "opening_hours": "Mo-Sa 09:00-24:00; Su 10:00+", "outdoor_seating": "yes", "phone": "+49 221 9917793", "toilets:wheelchair": "no", "website": "http://cafe-vreiheit.de/", "wheelchair": "no", "wheelchair:description": "Bei tel. Vorank\u00fcndigung wird barrierefreier Zugang \"erschlossen\" - Toiletten im Keller - Biergarten barrierefrei"}}, {"type": "node", "id": 2689640122, "lat": 50.9559203, "lon": 6.9926028, "tags": {"addr:city": "K\u00f6ln", "addr:housenumber": "165", "addr:postcode": "51063", "addr:street": "Deutz-M\u00fclheimer Stra\u00dfe", "amenity": "restaurant", "cuisine": "regional", "delivery": "no", "name": "Lindgens Kantine", "opening_hours": "Mo-Fr 12:00-14:30", "phone": "+49 221 96 700 39", "website": "http://lindgens-kantine.de/", "wheelchair": "limited"}}, {"type": "node", "id": 3006615537, "lat": 50.9849763, "lon": 7.0060677}, {"type": "node", "id": 3006615574, "lat": 50.9850482, "lon": 7.0061725}, {"type": "node", "id": 3006615591, "lat": 50.9850737, "lon": 7.0058998}, {"type": "node", "id": 3006615611, "lat": 50.9850978, "lon": 7.0060872}, {"type": "node", "id": 3006615658, "lat": 50.9851473, "lon": 7.0060013}, {"type": "node", "id": 3083510892, "lat": 50.9476576, "lon": 6.9832106}, {"type": "node", "id": 3083511187, "lat": 50.9478674, "lon": 6.9822406}, {"type": "node", "id": 3595046953, "lat": 50.9664445, "lon": 7.0123933, "tags": {"addr:city": "K\u00f6ln", "addr:country": "DE", "addr:housenumber": "6-2", "addr:postcode": "51063", "addr:street": "Schanzenstra\u00dfe", "amenity": "restaurant", "name": "Offenbach am Carlsgarten", "opening_hours": "Mo-Fr 09:00-00:00; Sa-Su 17:00-23:00", "phone": "+49 221 26137815", "website": "http://www.offenbach-am-carlsgarten.de"}}, {"type": "node", "id": 3625843607, "lat": 50.962251, "lon": 7.0059275, "tags": {"addr:city": "K\u00f6ln", "addr:country": "DE", "addr:housenumber": "14", "addr:postcode": "51065", "addr:street": "Genovevastra\u00dfe", "amenity": "restaurant", "cuisine": "turkish", "name": "Tandir"}}, {"type": "node", "id": 3666931906, "lat": 50.9594442, "lon": 6.9954557, "tags": {"addr:city": "K\u00f6ln", "addr:country": "DE", "addr:housenumber": "199", "addr:postcode": "51063", "addr:street": "Deutz-M\u00fclheimer Stra\u00dfe", "alt_name": "\"Scampino\" Fischrestaurant \"Wein & Meer\"", "amenity": "restaurant", "cuisine": "fish", "name": "Scampino", "opening_hours": "Mo-Fr 12:00-15:00, 18:00-24:00; Sa 18:00-24:00; Su 17:00-23:00", "outdoor_seating": "yes", "phone": "+49 221 618544", "website": "https://www.scampino.de/", "wheelchair": "yes"}}, {"type": "node", "id": 4703846285, "lat": 50.966055, "lon": 7.011636, "tags": {"amenity": "restaurant", "cuisine": "italian;italian_pizza", "diet:gluten_free": "yes", "diet:vegan": "yes", "diet:vegetarian": "yes", "email": "koeln1@purino.de", "fax": "+49 221 97772745", "name": "Purino", "opening_hours": "Mo-Fr 11:00-22:00; Sa,Su,PH 17:00-22:00", "phone": "+49 221 97772744", "toilets:wheelchair": "yes", "website": "https://www.purino.de/", "wheelchair": "yes"}}, {"type": "node", "id": 4929278522, "lat": 50.9656806, "lon": 7.0090219, "tags": {"addr:postcode": "51063", "amenity": "restaurant", "cuisine": "turkish", "name": "Doy Doy", "opening_hours": "Mo-Su,PH 06:00-05:00", "website": "http://www.buyukharran-doydoy.de"}}, {"type": "node", "id": 7151079995, "lat": 50.9576604, "lon": 7.0086614, "tags": {"addr:housenumber": "58", "addr:street": "Graf-Adolf-Stra\u00dfe", "amenity": "restaurant", "cuisine": "italian;pizza", "diet:vegan": "no", "diet:vegetarian": "yes", "name": "Ristorante Zucchini Pizzeria", "opening_hours": "Mo-Fr 12:00-15:00, 18:00-23:30; Sa 18:00-23:30; Su 12:00-15:00, 18:00-22:30", "phone": "+49221614230", "website": "http://www.ristorantezucchini.de/"}}, {"type": "node", "id": 7158675738, "lat": 50.957878, "lon": 7.0108861, "tags": {"addr:city": "K\u00f6ln", "addr:postcode": "51065", "addr:street": "Frankfurter Stra\u00dfe", "amenity": "restaurant", "cuisine": "turkish", "diet:vegetarian": "yes", "name": "Damla", "toilets:wheelchair": "no", "wheelchair": "yes"}}, {"type": "node", "id": 7816916014, "lat": 50.957125, "lon": 6.9916653, "tags": {"addr:city": "K\u00f6ln", "addr:housenumber": "7", "addr:postcode": "51063", "addr:street": "Hafenstra\u00dfe", "amenity": "restaurant", "delivery": "no", "email": "info@lindgens-gastronomie.de", "level": "0", "microbrewery": "no", "name": "Lokschuppen", "note": "z.Zt geschlossen, wohl nur f\u00fcr Events buchbar", "phone": "+49 221 9670039", "takeaway": "no", "website": "https://www.lindgens-gastronomie.de", "wheelchair": "yes"}}, {"type": "node", "id": 8098479016, "lat": 50.9635817, "lon": 7.0011619, "tags": {"amenity": "restaurant", "cuisine": "thai", "diet:vegan": "yes", "diet:vegetarian": "yes", "name": "Kun Yay Thai Imbiss"}}, {"type": "node", "id": 8936295572, "lat": 50.9620466, "lon": 6.9995209, "tags": {"addr:city": "K\u00f6ln", "addr:housenumber": "20", "addr:postcode": "51063", "addr:street": "Bachstra\u00dfe", "amenity": "restaurant", "cuisine": "german", "name": "Bei Bruno"}}, {"type": "node", "id": 8992364586, "lat": 50.9679858, "lon": 7.0103438, "tags": {"addr:city": "K\u00f6ln", "addr:country": "DE", "addr:housenumber": "5", "addr:postcode": "51063", "addr:street": "Am Kabellager", "amenity": "restaurant", "brand": "L'Osteria", "brand:wikidata": "Q17323478", "brand:wikipedia": "de:L\u2019Osteria", "cuisine": "italian", "name": "L'Osteria", "outdoor_seating": "yes"}}, {"type": "node", "id": 9001658280, "lat": 50.9637513, "lon": 7.0116519, "tags": {"addr:city": "K\u00f6ln", "addr:housenumber": "108", "addr:postcode": "51063", "addr:street": "Keupstra\u00dfe", "amenity": "restaurant", "cuisine": "turkish", "name": "Balik evi"}}, {"type": "node", "id": 9001691925, "lat": 50.9654271, "lon": 7.0098355, "tags": {"addr:city": "K\u00f6ln", "addr:housenumber": "33", "addr:postcode": "51063", "addr:street": "Keupstra\u00dfe", "amenity": "restaurant", "cuisine": "turkish", "name": "hanimeli"}}, {"type": "node", "id": 9631498443, "lat": 50.9606103, "lon": 7.0075647, "tags": {"amenity": "restaurant", "cuisine": "sushi", "name": "Sushi Haus"}}, {"type": "node", "id": 10682653554, "lat": 50.947961, "lon": 6.9823127}, {"type": "way", "id": 296844969, "nodes": [3006615658, 3006615591, 3006615537, 3006615574, 3006615611, 3006615658], "tags": {"addr:city": "K\u00f6ln", "addr:country": "DE", "addr:housenumber": "25a", "addr:postcode": "51063", "addr:street": "Haslacher Weg", "amenity": "restaurant", "building": "yes", "building:levels": "2", "building:use": "residential;industrial", "cuisine": "regional", "name": "Haus Pauly"}}, {"type": "way", "id": 1148158643, "nodes": [3083511187, 10682653554, 3083510892, 3083511187], "tags": {"amenity": "restaurant", "indoor": "room", "name": "Self-Restaurant Curie"}}]}