{"version": 0.6, "generator": "Overpass API 0.7.60.2 e4cf9f7a", "osm3s": {"timestamp_osm_base": "2023-04-29T12:57:54Z", "copyright": "The data included in this document is from www.openstreetmap.org. The data is made available under ODbL."}, "elements": [{"type": "node", "id": 404645083, "lat": 50.9814631, "lon": 7.0787655, "tags": {"addr:city": "K\u00f6ln", "addr:housenumber": "1124", "addr:postcode": "51069", "addr:street": "Bergisch Gladbacher Stra\u00dfe", "amenity": "restaurant", "name": "Zur alten Post", "opening_hours": "Tu-Fr 17:00-24:00; Su,PH 12:00-22:30", "phone": "+49-221-6639467", "toilets:wheelchair": "no", "website": "https://www.zuraltenpost-dellbrueck.de/", "wheelchair": "limited"}}, {"type": "node", "id": 434404262, "lat": 50.9878077, "lon": 7.0869675, "tags": {"amenity": "restaurant", "name": "Grenzklause"}}, {"type": "node", "id": 1362898836, "lat": 50.9706187, "lon": 7.089901, "tags": {"addr:city": "K\u00f6ln", "addr:housenumber": "10", "addr:postcode": "51069", "addr:street": "Gierather Stra\u00dfe", "amenity": "restaurant", "cuisine": "regional", "name": "Wirtshaus\"Em H\u00f6ttche\"", "opening_hours": "Tu-Sa 16:00-24:00; Su 11:00-22:00", "outdoor_seating": "yes", "pub": "yes", "toilets:wheelchair": "no", "website": "http://www.em-hoettche.info/", "wheelchair": "yes"}}, {"type": "node", "id": 1604181640, "lat": 50.9755219, "lon": 7.0741728, "tags": {"addr:city": "K\u00f6ln", "addr:country": "DE", "addr:housenumber": "76", "addr:postcode": "51069", "addr:street": "Dellbr\u00fccker Hauptstra\u00dfe", "amenity": "restaurant", "cuisine": "pizza", "delivery": "yes", "diet:vegetarian": "yes", "microbrewery": "no", "name": "Piccolo Capriccio", "opening_hours": "Tu-Fr 11:00-14:30,17:00-22:00; Sa,Su 11:00-22:00", "takeaway": "yes", "website": "http://www.piccolocapriccio-koeln.de/", "wheelchair": "yes"}}, {"type": "node", "id": 1738383615, "lat": 50.9742156, "lon": 7.0750682}, {"type": "node", "id": 1738383622, "lat": 50.9742275, "lon": 7.0752581}, {"type": "node", "id": 1738383631, "lat": 50.9742778, "lon": 7.0750585}, {"type": "node", "id": 1738383633, "lat": 50.97429, "lon": 7.0750566}, {"type": "node", "id": 1738383634, "lat": 50.9743018, "lon": 7.0752464}, {"type": "node", "id": 1797711989, "lat": 50.9710934, "lon": 7.0911855, "tags": {"addr:housenumber": "25", "addr:postcode": "51069", "addr:street": "Gierather Stra\u00dfe", "amenity": "restaurant", "cuisine": "greek", "name": "Nikos Ouzeria", "opening_hours": "Tu-Sa 17:00-24:00; Su 12:00-24:00", "outdoor_seating": "yes", "phone": "+49 221 94653204"}}, {"type": "node", "id": 1818101599, "lat": 50.981944, "lon": 7.0789536}, {"type": "node", "id": 1818101613, "lat": 50.9819565, "lon": 7.0789293}, {"type": "node", "id": 1818101665, "lat": 50.9820045, "lon": 7.0788354}, {"type": "node", "id": 1818101670, "lat": 50.9820149, "lon": 7.0788151}, {"type": "node", "id": 1818101715, "lat": 50.9820748, "lon": 7.0791214}, {"type": "node", "id": 1818101777, "lat": 50.9821456, "lon": 7.078983}, {"type": "node", "id": 1822371825, "lat": 50.9754417, "lon": 7.0610898}, {"type": "node", "id": 1822371833, "lat": 50.975482, "lon": 7.0612141}, {"type": "node", "id": 1822371843, "lat": 50.9755382, "lon": 7.0610114}, {"type": "node", "id": 1822371846, "lat": 50.9755559, "lon": 7.060997}, {"type": "node", "id": 1822371850, "lat": 50.9755663, "lon": 7.0610292}, {"type": "node", "id": 1822371864, "lat": 50.9755961, "lon": 7.0611213}, {"type": "node", "id": 1826747900, "lat": 50.9745125, "lon": 7.0751293, "tags": {"addr:city": "K\u00f6ln", "addr:housenumber": "61", "addr:postcode": "51069", "addr:street": "Dellbr\u00fccker Hauptstra\u00dfe", "amenity": "restaurant", "diet:vegan": "no", "diet:vegetarian": "yes", "indoor_seating": "yes", "name": "Brauhaus Dellbr\u00fcck", "opening_hours": "Mo-Su 11:00-01:00", "outdoor_seating": "yes", "phone": "+49-221-92232855", "toilets:wheelchair": "yes", "website": "http://www.brauhausdellbrueck.de/", "wheelchair": "limited"}}, {"type": "node", "id": 2009762736, "lat": 50.9782266, "lon": 7.0859047, "tags": {"addr:city": "K\u00f6ln", "addr:housenumber": "173", "addr:postcode": "51069", "addr:street": "Gemarkenstra\u00dfe", "amenity": "restaurant", "diet:vegetarian": "yes", "indoor_seating": "yes", "name": "Aubele", "opening_hours": "Th-Su 11:00-23:00", "outdoor_seating": "yes", "phone": "+49 221 63071000", "toilets:wheelchair": "yes", "website": "https://aubeles-restaurant.de/", "wheelchair": "yes"}}, {"type": "node", "id": 2430211784, "lat": 50.9750223, "lon": 7.074879, "tags": {"addr:city": "K\u00f6ln", "addr:housenumber": "62", "addr:postcode": "51069", "addr:street": "Dellbr\u00fccker Hauptstra\u00dfe", "amenity": "restaurant", "cuisine": "italian", "indoor_seating": "yes", "name": "Al Capriccio", "opening_hours": "Tu-Sa 16:00-22:30; PH,Su 12:00-22:00; Mo off", "outdoor_seating": "yes"}}, {"type": "node", "id": 2430211785, "lat": 50.9761549, "lon": 7.0726966, "tags": {"addr:city": "K\u00f6ln", "addr:country": "DE", "addr:housenumber": "56", "addr:postcode": "51069", "addr:street": "Von-der-Leyen-Stra\u00dfe", "amenity": "restaurant", "cuisine": "italian", "name": "Bistorante Dolce & Vita"}}, {"type": "node", "id": 2633797327, "lat": 50.9692744, "lon": 7.0555136}, {"type": "node", "id": 2633797335, "lat": 50.9692893, "lon": 7.0555604}, {"type": "node", "id": 2633797337, "lat": 50.9692953, "lon": 7.0554879}, {"type": "node", "id": 2633797340, "lat": 50.9693126, "lon": 7.0556071}, {"type": "node", "id": 2633797348, "lat": 50.9693569, "lon": 7.0554126}, {"type": "node", "id": 2633797350, "lat": 50.9693577, "lon": 7.0556971}, {"type": "node", "id": 2633797355, "lat": 50.9694296, "lon": 7.0556074}, {"type": "node", "id": 2633797356, "lat": 50.9694345, "lon": 7.0555714}, {"type": "node", "id": 3379604080, "lat": 50.973914, "lon": 7.0568102, "tags": {"addr:city": "K\u00f6ln", "addr:housenumber": "757", "addr:postcode": "51067", "addr:street": "Bergisch Gladbacher Stra\u00dfe", "amenity": "restaurant", "capacity": "50", "cuisine": "italian", "name": "Trattoria Pizzeria Il Rustico", "opening_hours": "Mo-We, Fr 17:30-22:45; Sa 17:30-23:00; Su 12:00-14:00, 17:30-22:00", "operator": "Familie Nicola Bonanno", "smoking": "outside", "takeaway": "yes", "website": "http://www.holweider-geschaefte.de/il-rustico/", "wheelchair": "limited"}}, {"type": "node", "id": 7363198585, "lat": 50.9803123, "lon": 7.0689834, "tags": {"addr:postcode": "51069", "amenity": "restaurant", "cuisine": "french", "email": "info@la-cuisine-K\u00f6ln.de", "name": "La Cuisine Rademacher", "opening_hours": "We-Fr 12:00-14:00, 18:00-22:00; Sa 18:00-22:00; Su 12:00-14:00, 18:00-21:00", "operator": "Marlon Rademacher", "phone": "+49 221 96898898", "website": "http://www.lacuisine-K\u00f6ln.de"}}, {"type": "node", "id": 7511138494, "lat": 50.9781215, "lon": 7.0708588, "tags": {"addr:city": "K\u00f6ln", "addr:country": "DE", "addr:housenumber": "151", "addr:postcode": "51069", "addr:street": "Dellbr\u00fccker Hauptstra\u00dfe", "addr:suburb": "Dellbr\u00fcck", "amenity": "restaurant", "contact:phone": "+49 221 6085040", "contact:website": "https://www.pizzahot.de/", "cuisine": "italian", "diet:vegan": "no", "diet:vegetarian": "yes", "name": "Pizzahot", "opening_hours": "Mo-Th 11:00-22:30; Fr-Sa 11:00-23:00; Su 12:00-22:30", "wheelchair": "yes"}}, {"type": "node", "id": 7515237033, "lat": 50.9824171, "lon": 7.0718277, "tags": {"addr:city": "K\u00f6ln", "addr:housenumber": "49-51", "addr:postcode": "51069", "addr:street": "Waltherstra\u00dfe", "amenity": "restaurant", "cuisine": "german", "diet:vegan": "no", "diet:vegetarian": "yes", "email": "info@leskan-bistro.de", "fax": "+49 221 7166689", "name": "Leskan Bistro", "opening_hours": "Mo-Fr 06:30-15:00", "outdoor_seating": "yes", "phone": "+49 221 7166688", "website": "https://leskan-bistro.de/", "website:menu": "https://leskan-bistro.de/wp-content/uploads/speiseplan/Speiseplan_LeskanBistro.pdf", "wheelchair": "yes"}}, {"type": "node", "id": 7638678012, "lat": 50.9709002, "lon": 7.09165, "tags": {"addr:city": "K\u00f6ln", "addr:housenumber": "26", "addr:postcode": "51069", "addr:street": "Gierather Stra\u00dfe", "amenity": "restaurant", "cuisine": "pizza", "diet:vegan": "yes", "diet:vegetarian": "yes", "name": "Pizza Party", "opening_hours": "Tu-Th 16:00-23:00, Fr,Sa 16:00-01:00, PH,Su 14:00-22:00", "phone": "+49 221 6806813", "website": "http://www.pizzaparty-koeln.de/", "wheelchair": "no"}}, {"type": "node", "id": 7638766404, "lat": 50.974644, "lon": 7.0749579, "tags": {"addr:city": "K\u00f6ln", "addr:housenumber": "63", "addr:postcode": "51069", "addr:street": "Dellbr\u00fccker Hauptstra\u00dfe", "amenity": "restaurant", "cuisine": "turkish;pizza", "indoor_seating": "yes", "name": "Dellbr\u00fccker Grill & Pizza Haus", "outdoor_seating": "yes", "website": "https://www.facebook.com/Dellbr%C3%BCcker-Grill-Pizza-Haus-105802831686091/"}}, {"type": "node", "id": 7653903233, "lat": 50.9731064, "lon": 7.0690812, "tags": {"addr:city": "K\u00f6ln", "addr:housenumber": "82-84", "addr:postcode": "51069", "addr:street": "Grafenm\u00fchlenweg", "amenity": "restaurant", "check_date:opening_hours": "2021-09-13", "cuisine": "italian;chinese;mexican", "diet:vegetarian": "yes", "name": "Dong Kun", "opening_hours": "Mo-Fr 11:30-22:30; Sa,Su,PH 12:00-22:30", "website": "http://www.dong-kun.de/"}}, {"type": "node", "id": 7812771508, "lat": 50.9783306, "lon": 7.0698212, "tags": {"addr:city": "K\u00f6ln", "addr:housenumber": "1000", "addr:postcode": "51069", "addr:street": "Bergisch Gladbacher Stra\u00dfe", "amenity": "restaurant", "cuisine": "sushi;asian", "name": "Fujiyama", "website": "https://www.fujiyama-restaurant.de/"}}, {"type": "node", "id": 7812771512, "lat": 50.9783322, "lon": 7.0692604, "tags": {"addr:city": "K\u00f6ln", "addr:housenumber": "969", "addr:postcode": "51069", "addr:street": "Bergisch Gladbacher Stra\u00dfe", "amenity": "restaurant", "cuisine": "greek;salad;grill;pizza", "name": "Taverne Korfu", "website": "https://www.koelntavernekorfu.de/"}}, {"type": "node", "id": 8093609569, "lat": 50.9727104, "lon": 7.072208, "tags": {"addr:city": "K\u00f6ln", "addr:country": "DE", "addr:housenumber": "11", "addr:postcode": "51069", "addr:street": "Hatzfeldstra\u00dfe", "amenity": "restaurant", "capacity": "20", "cuisine": "indian", "diet:vegetarian": "yes", "name": "Gandhi", "opening_hours": "Mo 17:00-22:30; Tu-Su 11:30-15:00,17:00-22:30; Fr 11:30-14:30,17:00-22:30", "phone": "+49 221 80037770", "takeaway": "yes", "toilets:wheelchair": "no", "website": "http://www.gandhi-koeln.de/", "wheelchair": "yes", "wheelchair:description": "Steile Rampe im Eingangsbereich."}}, {"type": "node", "id": 8737059040, "lat": 50.982124, "lon": 7.0789553}, {"type": "node", "id": 8737059041, "lat": 50.9820563, "lon": 7.0790977}, {"type": "node", "id": 10050279870, "lat": 50.9738177, "lon": 7.0751957, "tags": {"addr:city": "K\u00f6ln", "addr:housenumber": "39", "addr:postcode": "51069", "addr:street": "Dellbr\u00fccker Hauptstra\u00dfe", "amenity": "restaurant", "name": "Haus Alt Thurn", "website": "https://www.haus-alt-thurn.de/"}}, {"type": "way", "id": 161883419, "nodes": [1738383633, 1738383631, 1738383615, 1738383622, 1738383634, 1738383633], "tags": {"addr:city": "K\u00f6ln", "addr:country": "DE", "addr:housenumber": "49", "addr:postcode": "51069", "addr:street": "Dellbr\u00fccker Hauptstra\u00dfe", "amenity": "restaurant", "building": "commercial", "building:use": "residential;commercial", "contact:website": "http://www.sushihaus-dellbrueck.de/", "name": "Sushi Haus Dellbr\u00fcck", "opening_hours": "Mo-Fr 11:00-22:00; Sa,Su 16:00-22:00"}}, {"type": "way", "id": 170652168, "nodes": [1818101715, 8737059041, 1818101599, 1818101613, 1818101665, 1818101670, 8737059040, 1818101777, 1818101715], "tags": {"addr:city": "K\u00f6ln", "addr:country": "DE", "addr:housenumber": "9", "addr:postcode": "51069", "addr:street": "Paffrather Stra\u00dfe", "amenity": "restaurant", "building": "yes", "building:use": "foodservice"}}, {"type": "way", "id": 171166076, "nodes": [1822371825, 1822371833, 1822371864, 1822371850, 1822371846, 1822371843, 1822371825], "tags": {"addr:city": "K\u00f6ln", "addr:country": "DE", "addr:housenumber": "823", "addr:postcode": "51069", "addr:street": "Bergisch Gladbacher Stra\u00dfe", "amenity": "restaurant", "building": "retail", "building:levels": "3", "building:use": "residential;commercial", "cuisine": "indian", "diet:vegan": "yes", "diet:vegetarian": "yes", "name": "Art India Dellbr\u00fcck", "opening_hours": "Tu-Sa 11:00-15:00, 17:00-22:00, Su 16:00-22:00", "phone": "+49 221 83928711", "roof:levels": "1", "roof:shape": "gabled", "website": "https://art-india-k\u00f6ln.de/", "wheelchair": "yes"}}, {"type": "way", "id": 257936918, "nodes": [2633797348, 2633797337, 2633797327, 2633797335, 2633797340, 2633797350, 2633797355, 2633797356, 2633797348], "tags": {"addr:city": "K\u00f6ln", "addr:country": "DE", "addr:housenumber": "12", "addr:postcode": "51067", "addr:street": "Neufelder Stra\u00dfe", "amenity": "restaurant", "building": "yes", "building:use": "residential;industrial", "cuisine": "greek", "name": "Gastst\u00e4tte Gross", "phone": "+49 221 694782"}}]}